Lead_ID,Opportunity_ID,Account_ID,Full_Name,City,Phone,Email_address
LI-9203-00,OPP-0467-69,AID-7675-55,Joeann Wankling,Shannon,+55 (189) 761-2016,jwankling0@china.com.cn
LI-1388-37,OPP-4162-81,AID-1522-62,Letty Whilde,Carlow,+972 (143) 475-7680,lwhilde1@state.tx.us
LI-6006-62,OPP-6874-16,AID-3933-06,Emylee Fitzgerald,Carlow,+30 (401) 576-3403,efitzgerald2@indiatimes.com
LI-8787-63,OPP-9651-64,AID-1390-88,Ray Sawle,Carlow,+420 (645) 120-6803,rsawle3@bandcamp.com
LI-6085-71,OPP-9989-54,AID-2512-35,Tomlin Lenoir,Shannon,+387 (971) 772-4866,tlenoir4@wikipedia.org
LI-7941-88,OPP-9099-06,AID-8048-90,L;urette MacCulloch,Carlow,+86 (614) 158-3067,lmacculloch5@usatoday.com
LI-0418-89,OPP-9512-24,AID-5988-12,Norene Mallebone,Carlow,+1 (352) 225-7665,nmallebone6@sciencedaily.com
LI-7239-78,OPP-6914-56,AID-5348-98,Emylee Cossor,Naas,+1 (407) 992-5753,ecossor7@newyorker.com
LI-4766-13,OPP-8929-17,AID-4241-17,Norry Allday,Carlow,+62 (292) 341-7558,nallday8@domainmarket.com
LI-9032-84,OPP-0865-65,AID-6098-17,Lorrayne Cottom,Carlow,+234 (133) 141-1247,lcottom9@engadget.com
LI-0933-65,OPP-9330-07,AID-2867-92,Octavia Lounds,Carlow,+62 (642) 705-3967,oloundsa@engadget.com
LI-5569-64,OPP-0366-50,AID-2776-05,Petronilla McTerlagh,Carlow,+504 (780) 747-4935,pmcterlaghb@is.gd
LI-8052-55,OPP-9075-20,AID-5907-61,Aloise Davis,Carlow,+86 (526) 649-6333,adavisc@wisc.edu
LI-7731-20,OPP-2339-54,AID-3008-72,Brocky Rawson,Shannon,+86 (604) 531-8799,brawsond@gnu.org
LI-4506-01,OPP-4988-24,AID-4711-38,Laverne Jeffreys,Carlow,+381 (598) 494-4373,ljeffreyse@army.mil
LI-1386-53,OPP-3310-79,AID-5776-28,Ban Edgler,Carlow,+81 (124) 491-8810,bedglerf@homestead.com
LI-1840-92,OPP-1889-23,AID-1163-18,Bogey Fancourt,Carlow,+48 (541) 151-4252,bfancourtg@tiny.cc
LI-9598-54,OPP-8277-10,AID-7085-43,Guinevere Scampion,Carlow,+670 (856) 477-7766,gscampionh@sfgate.com
LI-2564-41,OPP-4446-08,AID-6480-19,Loutitia Rayner,Carlow,+353 (390) 330-2760,lrayneri@reuters.com
LI-3914-65,OPP-7114-52,AID-0609-19,Lidia Gravie,Shannon,+7 (342) 922-7682,lgraviej@apple.com
LI-6447-94,OPP-1904-22,AID-2476-59,Basilius Tickel,Carlow,+62 (730) 800-3817,btickelk@sourceforge.net
LI-5031-45,OPP-3847-10,AID-5067-39,Florri Uglow,Shannon,+351 (490) 287-3385,fuglowl@chicagotribune.com
LI-9326-78,OPP-0235-81,AID-7891-90,Alexei Chown,Shannon,+55 (291) 714-1114,achownm@t.co
LI-6057-97,OPP-6442-54,AID-2820-23,Othelia Dimitresco,Limerick,+86 (321) 755-3368,odimitrescon@prnewswire.com
LI-8397-07,OPP-7071-39,AID-4531-38,Madeleine Ternent,Carlow,+63 (927) 666-9280,mternento@aboutads.info
LI-5444-07,OPP-3643-45,AID-4077-13,Claudian Dionisii,Shannon,+57 (355) 452-1371,cdionisiip@discovery.com
LI-7294-15,OPP-6753-55,AID-7978-90,Berry Vanyutin,Lismore,+62 (668) 181-2322,bvanyutinq@sogou.com
LI-0471-63,OPP-0084-88,AID-2278-75,Austin Syres,Carlow,+385 (761) 387-9630,asyresr@home.pl
LI-8171-80,OPP-1137-38,AID-1092-28,Otho Durrad,Shannon,+62 (964) 572-7873,odurrads@blogs.com
LI-9436-89,OPP-0920-99,AID-9968-43,Ezekiel Nowell,Carlow,+55 (182) 123-9368,enowellt@nyu.edu
LI-4241-58,OPP-6082-75,AID-4084-93,Hubey Gerlack,Carlow,+63 (574) 938-5606,hgerlacku@businessweek.com
LI-9729-22,OPP-2134-96,AID-2288-39,Aleen Whiffen,Shannon,+966 (769) 925-5400,awhiffenv@cocolog-nifty.com
LI-8593-22,OPP-9680-52,AID-5068-73,Mandie Winder,Shannon,+98 (569) 611-9949,mwinderw@google.com.br
LI-1479-04,OPP-6395-49,AID-6616-62,Rorke Govey,Shannon,+86 (653) 547-1141,rgoveyx@bbc.co.uk
LI-3029-39,OPP-7497-29,AID-8796-60,Babbette Covotti,Carlow,+386 (733) 177-0245,bcovottiy@newyorker.com
LI-1244-97,OPP-9303-93,AID-4698-42,Gusella Tarry,Naas,+1 (949) 886-7840,gtarryz@last.fm
LI-8164-84,OPP-2451-23,AID-8524-46,Niccolo Vaughan-Hughes,Lismore,+39 (715) 965-7444,nvaughanhughes10@apple.com
LI-3412-70,OPP-9602-10,AID-9269-38,Leonanie Rodway,Carlow,+62 (744) 774-3505,lrodway11@chron.com
LI-5789-36,OPP-7492-46,AID-1937-28,Honoria Ackenson,Carlow,+86 (624) 295-3905,hackenson12@discuz.net
LI-9860-57,OPP-2785-25,AID-8455-73,Wileen Pimblotte,Shannon,+380 (172) 791-1060,wpimblotte13@example.com
LI-0783-47,OPP-1823-02,AID-4885-67,Dody Sabates,Carlow,+380 (911) 933-1122,dsabates14@reference.com
LI-5160-44,OPP-3179-73,AID-9799-71,Felice Tall,Shannon,+504 (259) 872-4583,ftall15@cisco.com
LI-7233-20,OPP-0001-30,AID-3934-15,Godard Forsbey,Carlow,+55 (343) 902-4574,gforsbey16@phpbb.com
LI-7722-10,OPP-9653-82,AID-7228-31,Woodrow Petrecz,Naas,+355 (348) 163-8647,wpetrecz17@abc.net.au
LI-1985-08,OPP-8152-96,AID-1339-29,Herta Clemendot,Carlow,+351 (451) 439-6869,hclemendot18@sakura.ne.jp
LI-3446-39,OPP-5655-98,AID-4599-77,Spike Langfitt,Carlow,+381 (236) 730-3915,slangfitt19@umich.edu
LI-4006-95,OPP-8955-32,AID-8703-75,Lori Ricciardo,Shannon,+62 (922) 830-4318,lricciardo1a@smugmug.com
LI-8257-20,OPP-5973-02,AID-0728-30,Quinn Pogson,Lismore,+55 (460) 483-1815,qpogson1b@ifeng.com
LI-9673-30,OPP-4088-72,AID-2908-34,Austen Berlin,Naas,+86 (666) 339-9242,aberlin1c@t-online.de
LI-7389-26,OPP-8469-07,AID-6255-20,Marijn Golthorpp,Carlow,+94 (875) 820-6663,mgolthorpp1d@goodreads.com
LI-9312-81,OPP-2935-67,AID-7442-13,Pauli Sprigging,Shannon,+237 (790) 336-0584,psprigging1e@dell.com
LI-6831-43,OPP-1108-86,AID-0150-35,Jessey McKitterick,Naas,+977 (414) 901-3258,jmckitterick1f@1688.com
LI-8251-25,OPP-9680-45,AID-1209-85,Zarah Legrice,Carlow,+86 (847) 728-1388,zlegrice1g@shutterfly.com
LI-6127-77,OPP-4936-92,AID-2845-15,Arluene Buddock,Shannon,+86 (703) 969-5815,abuddock1h@timesonline.co.uk
LI-6505-65,OPP-2948-57,AID-5805-54,Dal Vamplus,Naas,+55 (311) 479-8363,dvamplus1i@flickr.com
LI-5239-54,OPP-1322-67,AID-0587-56,Romain Bilton,Carlow,+380 (243) 172-1306,rbilton1j@joomla.org
LI-5565-95,OPP-3155-49,AID-0559-65,Boycey Shakesbye,Carlow,+86 (127) 722-0040,bshakesbye1k@yolasite.com
LI-4866-78,OPP-4660-72,AID-9185-94,Pedro Pentlow,Carlow,+856 (479) 525-8628,ppentlow1l@deliciousdays.com
LI-8605-10,OPP-1556-61,AID-2178-77,Bentley Bryceson,Carlow,+30 (163) 614-8484,bbryceson1m@sphinn.com
LI-7530-34,OPP-9553-81,AID-7483-26,Bentley Sonner,Shannon,+60 (890) 163-3915,bsonner1n@jigsy.com
LI-0517-15,OPP-7979-90,AID-4897-15,Ninette Woofenden,Carlow,+63 (504) 746-9466,nwoofenden1o@istockphoto.com
LI-7890-58,OPP-2905-54,AID-2719-86,Brett Dudny,Carlow,+86 (563) 501-9834,bdudny1p@gravatar.com
LI-9978-66,OPP-9492-10,AID-2700-17,Marjy Petersen,Carlow,+48 (201) 454-8687,mpetersen1q@nature.com
LI-9373-35,OPP-2963-45,AID-8368-44,Jillie Hugnin,Limerick,+62 (231) 815-5821,jhugnin1r@utexas.edu
LI-3107-24,OPP-1881-44,AID-2467-29,Aron Kavanagh,Shannon,+27 (463) 175-5332,akavanagh1s@live.com
LI-6002-84,OPP-3024-29,AID-5211-74,Xavier Radenhurst,Carlow,+86 (296) 652-8504,xradenhurst1t@reddit.com
LI-3368-20,OPP-9761-74,AID-7106-78,Danielle Fawke,Carlow,+62 (866) 450-2804,dfawke1u@craigslist.org
LI-0177-28,OPP-0662-81,AID-8487-71,Trev Sollett,Carlow,+55 (132) 650-9507,tsollett1v@barnesandnoble.com
LI-5325-68,OPP-6990-73,AID-2379-16,Meredith Louder,Carlow,+84 (710) 462-0370,mlouder1w@wikipedia.org
LI-3551-20,OPP-1006-58,AID-1544-01,Karyl Corps,Carlow,+62 (627) 133-2951,kcorps1x@sciencedirect.com
LI-3422-10,OPP-7818-55,AID-5758-48,Ingelbert Faltin,Naas,+7 (509) 157-7957,ifaltin1y@bloglovin.com
LI-1926-97,OPP-8891-07,AID-7144-71,Agnes Brandrick,Lismore,+86 (724) 572-8214,abrandrick1z@devhub.com
LI-3433-49,OPP-0657-95,AID-0644-76,Merrie Shovel,Carlow,+7 (217) 154-4518,mshovel20@home.pl
LI-5885-06,OPP-5891-94,AID-8900-50,Dyan Douche,Galway,+48 (850) 522-6461,ddouche21@yahoo.com
LI-9797-49,OPP-7789-28,AID-7136-15,Ossie Vanyukhin,Limerick,+994 (388) 396-4502,ovanyukhin22@163.com
LI-6393-05,OPP-3666-78,AID-5278-01,Cyrus Blaylock,Lismore,+30 (810) 394-9530,cblaylock23@uol.com.br
LI-5283-46,OPP-9512-22,AID-3938-51,Brook Simonitto,Carlow,+86 (544) 176-7309,bsimonitto24@senate.gov
LI-8610-35,OPP-4147-27,AID-6509-97,Alfi Roeby,Shannon,+992 (834) 297-8888,aroeby25@webmd.com
LI-9903-99,OPP-4935-88,AID-9384-18,Teresina Castanaga,Lismore,+966 (741) 344-1349,tcastanaga26@purevolume.com
LI-9638-76,OPP-6588-14,AID-4686-06,Claire Kneeland,Carlow,+968 (195) 697-5051,ckneeland27@globo.com
LI-4474-61,OPP-2784-95,AID-7344-03,Marielle McLoney,Carlow,+33 (689) 943-8512,mmcloney28@narod.ru
LI-7202-97,OPP-3749-62,AID-0804-90,Demetria Temblett,Carlow,+62 (417) 297-6647,dtemblett29@free.fr
LI-6663-07,OPP-2725-58,AID-7863-57,Willie Holsall,Carlow,+506 (918) 322-8107,wholsall2a@gmpg.org
LI-1025-88,OPP-1573-18,AID-6216-91,Cleo MacGee,Carlow,+504 (855) 425-2887,cmacgee2b@addtoany.com
LI-7431-52,OPP-5590-44,AID-8231-98,Celesta Fludder,Carlow,+63 (167) 280-3094,cfludder2c@blogtalkradio.com
LI-9174-73,OPP-9307-59,AID-8259-18,Katina Peplaw,Carlow,+55 (989) 214-8723,kpeplaw2d@tuttocitta.it
LI-0516-16,OPP-5058-88,AID-6173-61,Norris Basil,Naas,+51 (566) 918-1875,nbasil2e@addthis.com
LI-7981-81,OPP-8120-19,AID-9663-03,Hyacinthe Felce,Shannon,+62 (986) 190-3609,hfelce2f@exblog.jp
LI-4866-58,OPP-7134-41,AID-4917-08,Kacy Lowell,Shannon,+968 (157) 330-1318,klowell2g@hao123.com
LI-0664-01,OPP-4862-49,AID-5844-97,Chrystal Borrill,Carlow,+1 (260) 854-3395,cborrill2h@reuters.com
LI-7584-77,OPP-5677-32,AID-6671-08,Luce Sandford,Carlow,+33 (981) 300-8545,lsandford2i@huffingtonpost.com
LI-3554-11,OPP-0434-71,AID-9881-67,Toby Crowter,Carlow,+86 (173) 491-4648,tcrowter2j@constantcontact.com
LI-0534-07,OPP-1467-66,AID-9529-73,Tera Peasby,Shannon,+86 (979) 744-9798,tpeasby2k@geocities.jp
LI-4896-30,OPP-8732-22,AID-7534-10,Gusella Brownscombe,Carlow,+504 (562) 138-9325,gbrownscombe2l@cafepress.com
LI-3099-52,OPP-0109-59,AID-2236-14,Bridget Fisbey,Naas,+48 (615) 550-2679,bfisbey2m@cbc.ca
LI-5988-18,OPP-7522-00,AID-9548-96,Thom Yarnell,Lismore,+54 (377) 140-2271,tyarnell2n@kickstarter.com
LI-2220-87,OPP-6462-67,AID-9609-93,Debbie Hurren,Shannon,+62 (586) 611-7538,dhurren2o@slideshare.net
LI-1407-75,OPP-8666-18,AID-1850-49,Baxie Kalisz,Shannon,+62 (237) 390-9290,bkalisz2p@oakley.com
LI-2759-73,OPP-6831-61,AID-7518-06,Yvor Mothersole,Shannon,+63 (204) 120-7174,ymothersole2q@trellian.com
LI-0660-97,OPP-4766-35,AID-9666-11,Rivkah Bagguley,Carlow,+30 (137) 473-7288,rbagguley2r@nhs.uk
LI-6838-18,OPP-0868-20,AID-9627-95,Patrice Wythe,Limerick,+46 (867) 673-2643,pwythe2s@newsvine.com
LI-5016-50,OPP-3530-17,AID-2357-75,Lynnet Abbatucci,Carlow,+33 (127) 808-9203,labbatucci2t@sina.com.cn
LI-4048-51,OPP-9079-31,AID-3926-69,Marrissa M'cowis,Lismore,+48 (727) 640-3506,mmcowis2u@creativecommons.org
LI-4106-25,OPP-0273-54,AID-0308-29,Arri Flowerdew,Shannon,+1 (957) 746-7078,aflowerdew2v@springer.com
LI-9533-26,OPP-6923-89,AID-7552-42,Virgil Vosper,Carlow,+7 (510) 520-8579,vvosper2w@hexun.com
LI-7132-31,OPP-0650-33,AID-1092-58,Leon Bosanko,Naas,+62 (436) 799-3928,lbosanko2x@soundcloud.com
LI-2153-51,OPP-2228-45,AID-2480-47,Cinnamon Ratnage,Shannon,+420 (150) 550-9408,cratnage2y@businessinsider.com
LI-8280-41,OPP-7438-72,AID-7910-76,Teresita Drache,Carlow,+48 (218) 185-9458,tdrache2z@cnn.com
LI-8605-29,OPP-0672-50,AID-3224-22,Bab Pacht,Carlow,+52 (533) 680-4886,bpacht30@cdc.gov
LI-4449-18,OPP-7425-98,AID-1190-97,Jody Chamberlin,Carlow,+55 (617) 863-5441,jchamberlin31@accuweather.com
LI-1519-43,OPP-6398-56,AID-2671-37,Feodora Chapleo,Carlow,+86 (123) 661-1697,fchapleo32@discuz.net
LI-1246-41,OPP-9118-79,AID-1863-80,Fee MacGlory,Carlow,+51 (568) 313-7485,fmacglory33@youtube.com
LI-4194-47,OPP-4051-89,AID-1771-00,Kimberlee Cassidy,Carlow,+1 (213) 714-3445,kcassidy34@shutterfly.com
LI-7974-47,OPP-7378-73,AID-3427-14,Austin Fogel,Carlow,+33 (381) 277-4782,afogel35@hibu.com
LI-7456-26,OPP-3818-59,AID-9707-53,Sophi Karpov,Shannon,+7 (797) 300-2123,skarpov36@vistaprint.com
LI-9162-81,OPP-1531-74,AID-3391-29,Rockie Kornyakov,Naas,+63 (277) 727-8298,rkornyakov37@who.int
LI-9927-55,OPP-1011-96,AID-2187-36,June Widocks,Carlow,+86 (418) 717-6262,jwidocks38@blogs.com
LI-3087-83,OPP-4102-56,AID-5720-35,Corinna Buston,Carlow,+86 (604) 830-7285,cbuston39@issuu.com
LI-8073-27,OPP-0627-82,AID-9375-81,Shaylah Penniell,Carlow,+66 (776) 969-4253,spenniell3a@google.es
LI-8300-85,OPP-2067-20,AID-1877-33,Corilla McCluskey,Carlow,+62 (680) 353-6480,cmccluskey3b@tinypic.com
LI-3204-08,OPP-5477-58,AID-6182-28,Felicio Brobak,Carlow,+86 (389) 850-0448,fbrobak3c@alibaba.com
LI-2889-26,OPP-4420-87,AID-8508-56,Tobin Hurn,Naas,+66 (673) 398-5235,thurn3d@webeden.co.uk
LI-3586-62,OPP-7131-43,AID-9187-20,Gabrila Leathwood,Shannon,+509 (657) 519-3765,gleathwood3e@arstechnica.com
LI-1582-67,OPP-8158-18,AID-9446-90,Peggy Brocks,Lismore,+1 (961) 597-0410,pbrocks3f@symantec.com
LI-9538-22,OPP-6331-25,AID-0444-42,Gwenette Rankine,Shannon,+86 (363) 280-9169,grankine3g@simplemachines.org
LI-8360-83,OPP-7079-66,AID-8479-35,Mortie Cowern,Swords,+1 (205) 263-5135,mcowern3h@vinaora.com
LI-3450-11,OPP-7341-31,AID-1824-24,Sonny Gowers,Naas,+351 (928) 660-9366,sgowers3i@nhs.uk
LI-0108-47,OPP-1160-81,AID-1419-24,Iggy Ary,Carlow,+49 (278) 410-1223,iary3j@i2i.jp
LI-5082-21,OPP-3844-44,AID-6761-93,Galen Crossan,Carlow,+66 (285) 829-8643,gcrossan3k@xinhuanet.com
LI-1446-76,OPP-6754-83,AID-7786-88,Giff Ive,Naas,+55 (835) 503-1124,give3l@statcounter.com
LI-7438-41,OPP-3195-61,AID-0904-35,Babbie Kirgan,Shannon,+886 (750) 339-2175,bkirgan3m@sogou.com
LI-6626-78,OPP-2544-85,AID-8969-22,Doroteya Saffer,Carlow,+7 (823) 675-5078,dsaffer3n@marketwatch.com
LI-0281-69,OPP-1675-76,AID-0956-47,Jessie Stronge,Lismore,+33 (884) 485-8103,jstronge3o@sbwire.com
LI-5180-01,OPP-8205-38,AID-9950-80,Charlene Grocutt,Port Laoise,+7 (366) 863-6552,cgrocutt3p@nba.com
LI-2066-90,OPP-5119-86,AID-7161-68,Vinita McHan,Shannon,+27 (399) 467-9138,vmchan3q@mozilla.org
LI-9319-81,OPP-0671-86,AID-5101-63,Marc Ruprechter,Port Laoise,+63 (221) 593-1280,mruprechter3r@meetup.com
LI-4625-62,OPP-6829-38,AID-1026-85,Ofelia Blake,Carlow,+7 (584) 778-0242,oblake3s@seesaa.net
LI-1053-68,OPP-9063-35,AID-9714-20,Courtnay Asey,Port Laoise,+375 (203) 802-7177,casey3t@narod.ru
LI-2771-03,OPP-8951-11,AID-5260-68,Antonie Alekseev,Naas,+86 (579) 161-3381,aalekseev3u@storify.com
LI-6883-53,OPP-0623-68,AID-0937-21,Dannel Beckford,Naas,+57 (816) 304-5700,dbeckford3v@360.cn
LI-6437-45,OPP-8920-48,AID-0274-08,Emogene Marvel,Shannon,+380 (295) 206-5035,emarvel3w@answers.com
LI-6466-55,OPP-8644-93,AID-7217-43,Niles Goodale,Shannon,+86 (209) 435-3995,ngoodale3x@biglobe.ne.jp
LI-2911-39,OPP-6506-21,AID-9732-89,Augy Jeness,Shannon,+86 (622) 982-7232,ajeness3y@independent.co.uk
LI-5975-62,OPP-5453-83,AID-0700-06,Elaina Hellin,Naas,+351 (220) 266-5047,ehellin3z@dell.com
LI-0527-98,OPP-1203-30,AID-9031-60,Thornie Usher,Shannon,+52 (878) 939-3166,tusher40@xrea.com
LI-3161-73,OPP-4412-08,AID-3136-09,Georges Morales,Port Laoise,+971 (665) 463-3039,gmorales41@odnoklassniki.ru
LI-2303-41,OPP-4935-34,AID-9009-63,Jon Piffe,Carlow,+52 (106) 574-2974,jpiffe42@vk.com
LI-9439-40,OPP-1000-62,AID-1719-82,Coleen Lorenc,Carlow,+57 (231) 923-1140,clorenc43@webs.com
LI-4808-63,OPP-2557-05,AID-4966-03,Vanya Mingus,Carlow,+387 (769) 885-1706,vmingus44@npr.org
LI-0510-43,OPP-4249-81,AID-8700-15,Alfonso Trammel,Carlow,+63 (179) 132-7041,atrammel45@discovery.com
LI-2151-40,OPP-8803-99,AID-4786-64,Maiga Elderbrant,Carlow,+351 (467) 561-9822,melderbrant46@storify.com
LI-9238-59,OPP-7329-38,AID-1063-03,Marcelline Sircombe,Carlow,+62 (289) 333-5632,msircombe47@youtube.com
LI-0998-72,OPP-4294-71,AID-1404-38,Marlane Cowdry,Carlow,+7 (621) 296-1897,mcowdry48@businessinsider.com
LI-8497-56,OPP-5934-19,AID-6806-19,Rene Gilhouley,Shannon,+880 (401) 176-0994,rgilhouley49@narod.ru
LI-3386-33,OPP-8307-44,AID-0216-07,Bobby Vannoni,Naas,+374 (328) 122-9263,bvannoni4a@tripod.com
LI-1658-04,OPP-0079-52,AID-7435-61,Maris Beincken,Carlow,+52 (652) 884-7298,mbeincken4b@over-blog.com
LI-2072-18,OPP-3150-47,AID-5641-76,Janela Sweeting,Carlow,+81 (932) 769-8290,jsweeting4c@state.gov
LI-0143-93,OPP-3187-12,AID-6421-43,Marysa Ludlow,Shannon,+692 (332) 293-7672,mludlow4d@pen.io
LI-9365-08,OPP-5718-13,AID-0940-90,Zorina Amphlett,Port Laoise,+63 (170) 551-4807,zamphlett4e@about.me
LI-9183-47,OPP-0173-97,AID-2206-99,Pincas des Remedios,Carlow,+86 (630) 557-3098,pdes4f@ovh.net
LI-9948-06,OPP-9276-20,AID-1090-52,Milty Iohananof,Shannon,+33 (871) 247-6833,miohananof4g@a8.net
LI-1157-61,OPP-7952-47,AID-1541-35,Ettore Arnaldo,Carlow,+33 (238) 351-7380,earnaldo4h@webmd.com
LI-6344-76,OPP-4121-27,AID-5159-64,Laurel Nuttall,Carlow,+212 (653) 118-1741,lnuttall4i@diigo.com
LI-7731-10,OPP-0582-14,AID-6908-45,Gery Ollenbuttel,Carlow,+86 (371) 825-4456,gollenbuttel4j@wordpress.com
LI-3573-26,OPP-5053-43,AID-3077-46,Gill Seekings,Carlow,+48 (700) 868-6411,gseekings4k@scribd.com
LI-7785-61,OPP-7759-96,AID-0405-20,Hoyt Pascall,Carlow,+7 (131) 445-0609,hpascall4l@mlb.com
LI-4085-75,OPP-1372-87,AID-8230-56,Elnar Snowling,Naas,+63 (258) 753-0229,esnowling4m@bbb.org
LI-8646-09,OPP-1628-49,AID-7922-56,Haleigh Furzer,Limerick,+98 (292) 813-2480,hfurzer4n@rambler.ru
LI-4765-54,OPP-1508-30,AID-8629-96,Boothe Thirtle,Carlow,+62 (594) 888-3158,bthirtle4o@marriott.com
LI-3948-18,OPP-0436-91,AID-7825-44,Koralle Mannix,Naas,+51 (467) 523-9068,kmannix4p@digg.com
LI-3449-54,OPP-7490-76,AID-9283-35,Halie Gaitley,Shannon,+33 (196) 465-2840,hgaitley4q@edublogs.org
LI-5482-82,OPP-6075-51,AID-4973-03,Gaynor Boas,Shannon,+62 (362) 645-5789,gboas4r@google.co.uk
LI-7930-76,OPP-5093-00,AID-8178-04,Bruce Dutnall,Shannon,+84 (987) 448-7614,bdutnall4s@mlb.com
LI-0162-38,OPP-3971-08,AID-2150-44,Jeffie Willoway,Naas,+7 (142) 599-9426,jwilloway4t@ox.ac.uk
LI-3531-42,OPP-7086-30,AID-9143-60,Adelind Phizaclea,Shannon,+81 (327) 963-7941,aphizaclea4u@flickr.com
LI-1110-33,OPP-2603-84,AID-9385-20,Rube Chaloner,Shannon,+60 (299) 915-4726,rchaloner4v@timesonline.co.uk
LI-2099-55,OPP-8076-80,AID-2670-92,Hillyer Cust,Swords,+504 (841) 977-2078,hcust4w@disqus.com
LI-2506-43,OPP-3310-14,AID-5817-09,Kamillah Hickford,Carlow,+1 (883) 481-8500,khickford4x@europa.eu
LI-6865-74,OPP-0564-14,AID-2494-47,Zacherie Maccraw,Dublin,+86 (790) 276-7995,zmaccraw4y@ed.gov
LI-1009-93,OPP-2708-09,AID-7442-43,Aguistin Hazell,Shannon,+86 (140) 587-8247,ahazell4z@wikispaces.com
LI-4498-05,OPP-5510-89,AID-6395-87,Benedikta Sedcole,Naas,+86 (248) 423-1764,bsedcole50@wsj.com
LI-5392-37,OPP-1218-94,AID-1175-32,Brenden Truran,Shannon,+374 (444) 516-3485,btruran51@wix.com
LI-0212-35,OPP-6666-68,AID-9347-21,Mariana Eslinger,Shannon,+63 (300) 631-7288,meslinger52@4shared.com
LI-6133-05,OPP-7157-46,AID-0369-89,Rozanna Treeby,Naas,+1 (578) 573-3766,rtreeby53@blogtalkradio.com
LI-3186-35,OPP-1195-90,AID-8299-12,Roldan Sawood,Carlow,+27 (939) 428-6772,rsawood54@techcrunch.com
LI-1292-90,OPP-9988-77,AID-2733-65,Jeanine Tremathack,Port Laoise,+380 (571) 882-7916,jtremathack55@t-online.de
LI-7899-33,OPP-3367-79,AID-9908-70,Ange Scammonden,Carlow,+380 (883) 101-9972,ascammonden56@goo.ne.jp
LI-4509-63,OPP-1297-70,AID-7827-52,Arron Baume,Carlow,+7 (383) 618-7318,abaume57@plala.or.jp
LI-7123-98,OPP-4287-42,AID-3760-40,Sallyann Jaegar,Shannon,+880 (222) 419-0829,sjaegar58@google.com
LI-7322-48,OPP-0615-39,AID-2202-55,Mehetabel Wagstaffe,Carlow,+47 (834) 276-1567,mwagstaffe59@csmonitor.com
LI-2595-44,OPP-0912-63,AID-8944-48,Filip Donhardt,Carlow,+86 (481) 978-9827,fdonhardt5a@statcounter.com
LI-5563-86,OPP-5312-84,AID-0662-51,Bamby Rouby,Carlow,+62 (106) 688-6910,brouby5b@homestead.com
LI-8972-86,OPP-2971-21,AID-6905-63,Cilka Sansam,Naas,+63 (422) 256-9847,csansam5c@ow.ly
LI-4984-07,OPP-4973-95,AID-5485-69,Berty Maffei,Shannon,+52 (395) 670-2403,bmaffei5d@zimbio.com
LI-4976-43,OPP-6560-06,AID-9965-89,Lyle Guerrazzi,Carlow,+598 (294) 881-9732,lguerrazzi5e@arstechnica.com
LI-8545-21,OPP-6154-68,AID-1884-92,Parrnell Quene,Limerick,+63 (439) 349-0264,pquene5f@cmu.edu
LI-5729-85,OPP-4796-56,AID-4168-88,Leoline Fairnington,Carlow,+30 (768) 598-7466,lfairnington5g@surveymonkey.com
LI-9317-33,OPP-4530-31,AID-2735-82,Rouvin Whellans,Carlow,+33 (728) 346-7332,rwhellans5h@netlog.com
LI-6312-19,OPP-3055-30,AID-8061-29,Gray Whissell,Naas,+86 (757) 507-2102,gwhissell5i@engadget.com
LI-1547-55,OPP-6167-55,AID-7037-79,Fran Sarjeant,Carlow,+1 (915) 332-1245,fsarjeant5j@dell.com
LI-2618-80,OPP-4458-14,AID-8778-23,Marsha Bootland,Naas,+502 (446) 340-0376,mbootland5k@illinois.edu
LI-8325-54,OPP-1995-65,AID-7164-73,Andie Cramb,Carlow,+86 (429) 496-3846,acramb5l@prnewswire.com
LI-1171-33,OPP-8829-19,AID-0272-17,Dareen Nortcliffe,Carlow,+54 (649) 529-7776,dnortcliffe5m@jigsy.com
LI-8969-86,OPP-8592-14,AID-5322-16,Sylvan Oakenfall,Carlow,+56 (603) 173-3311,soakenfall5n@i2i.jp
LI-9263-96,OPP-7038-92,AID-3795-39,Earl Benedick,Naas,+420 (335) 467-4327,ebenedick5o@dedecms.com
LI-4046-39,OPP-3351-64,AID-0170-76,Brucie Tickner,Shannon,+994 (337) 742-0920,btickner5p@furl.net
LI-5095-05,OPP-5148-16,AID-8448-01,Mitchel Beckford,Port Laoise,+46 (227) 431-1045,mbeckford5q@cnn.com
LI-0901-69,OPP-0725-82,AID-4149-38,Jefferson Wickling,Carlow,+54 (878) 739-8577,jwickling5r@cloudflare.com
LI-3633-61,OPP-0152-45,AID-9747-32,Casar Saltsberger,Naas,+48 (718) 112-4355,csaltsberger5s@shop-pro.jp
LI-1966-83,OPP-0103-34,AID-3842-18,Wallie Scamerdine,Naas,+7 (855) 300-5184,wscamerdine5t@parallels.com
LI-5445-46,OPP-2726-06,AID-5627-30,Randy Scotford,Shannon,+48 (299) 569-2426,rscotford5u@reuters.com
LI-2037-53,OPP-0044-00,AID-5767-19,Delmar D'Alessio,Carlow,+7 (760) 392-4223,ddalessio5v@google.com.br
LI-1546-35,OPP-2822-73,AID-7605-62,Guillermo Leeves,Carlow,+236 (478) 139-9872,gleeves5w@technorati.com
LI-5120-27,OPP-0634-69,AID-8819-87,Adella Iacofo,Limerick,+994 (265) 817-3980,aiacofo5x@hhs.gov
LI-2510-11,OPP-1914-13,AID-3423-77,Babbette O'Collopy,Galway,+1 (601) 575-8803,bocollopy5y@techcrunch.com
LI-7488-04,OPP-4709-41,AID-4771-94,Sheilah Loyndon,Carlow,+353 (790) 272-5798,sloyndon5z@biblegateway.com
LI-8236-76,OPP-6402-14,AID-4861-20,Josefa Waywell,Carlow,+264 (807) 390-2982,jwaywell60@psu.edu
LI-8961-39,OPP-9738-81,AID-3725-43,Tonnie Chisman,Port Laoise,+86 (825) 704-6258,tchisman61@facebook.com
LI-6616-96,OPP-5944-71,AID-6568-29,Cassandra Karlolczak,Carlow,+63 (258) 880-8103,ckarlolczak62@kickstarter.com
LI-6847-61,OPP-8102-16,AID-2878-71,Cassandry Yapp,Lismore,+63 (419) 584-5029,cyapp63@usa.gov
LI-3626-55,OPP-0776-01,AID-1546-54,Callie Arthan,Port Laoise,+86 (580) 562-5604,carthan64@ucla.edu
LI-2490-17,OPP-5401-67,AID-8144-42,Meta Mathwin,Carlow,+31 (586) 821-7359,mmathwin65@yahoo.com
LI-8887-99,OPP-5637-36,AID-6978-92,Gill Bushaway,Shannon,+355 (783) 438-6241,gbushaway66@blogspot.com
LI-6391-30,OPP-4255-46,AID-8443-70,Colan Vinick,Shannon,+53 (818) 904-8134,cvinick67@patch.com
LI-0970-82,OPP-0447-48,AID-4770-37,Wildon Wallwork,Shannon,+255 (726) 281-1453,wwallwork68@admin.ch
LI-9897-79,OPP-5273-45,AID-6656-23,Olivia Iggalden,Naas,+55 (837) 396-1206,oiggalden69@patch.com
LI-9741-47,OPP-1402-79,AID-2608-36,Annemarie Sodeau,Shannon,+976 (865) 160-6063,asodeau6a@studiopress.com
LI-6261-01,OPP-1968-47,AID-1187-70,Valentine Antwis,Carlow,+63 (710) 289-5473,vantwis6b@redcross.org
LI-3121-71,OPP-5010-57,AID-0151-68,Andree Skerm,Carlow,+966 (265) 283-6142,askerm6c@skyrock.com
LI-9656-78,OPP-1296-35,AID-5212-47,Dru Pamphilon,Shannon,+381 (836) 939-2814,dpamphilon6d@edublogs.org
LI-0288-39,OPP-6434-86,AID-6604-68,Rozina Pitceathly,Shannon,+257 (255) 448-5634,rpitceathly6e@taobao.com
LI-6735-62,OPP-9475-65,AID-8533-21,Kalindi Neller,Shannon,+216 (100) 466-0789,kneller6f@friendfeed.com
LI-0508-46,OPP-9433-05,AID-9102-99,Winni Attreed,Carlow,+380 (422) 215-1942,wattreed6g@cbsnews.com
LI-9008-43,OPP-6522-71,AID-4794-43,Alidia Bruggen,Carlow,+62 (629) 128-2193,abruggen6h@moonfruit.com
LI-7124-50,OPP-7833-81,AID-2081-71,Kelby Lacknor,Shannon,+63 (631) 640-4366,klacknor6i@opera.com
LI-7507-65,OPP-2600-54,AID-5537-01,Billye Antoney,Carlow,+44 (903) 860-3245,bantoney6j@ted.com
LI-6736-24,OPP-9606-16,AID-7421-03,Perrine Phillot,Shannon,+86 (189) 767-4009,pphillot6k@virginia.edu
LI-3974-91,OPP-1040-11,AID-7969-74,Sybille Allicock,Carlow,+7 (203) 674-6321,sallicock6l@twitpic.com
LI-3128-96,OPP-9562-89,AID-6143-36,Carmen Tuckwood,Carlow,+62 (220) 737-8054,ctuckwood6m@kickstarter.com
LI-8525-72,OPP-7574-59,AID-8345-69,Moises Quoit,Shannon,+54 (612) 170-3577,mquoit6n@quantcast.com
LI-2090-08,OPP-6035-85,AID-8893-70,Rockey Lillico,Lismore,+82 (319) 185-6263,rlillico6o@netvibes.com
LI-7576-53,OPP-2013-89,AID-7310-23,Nathanael Lindholm,Carlow,+66 (408) 809-1279,nlindholm6p@fda.gov
LI-5193-32,OPP-8210-92,AID-9667-06,Lorraine Dracey,Port Laoise,+7 (277) 643-4534,ldracey6q@jigsy.com
LI-9928-25,OPP-8577-26,AID-1161-80,Ora Diperaus,Naas,+55 (311) 157-2911,odiperaus6r@census.gov
LI-5803-36,OPP-6278-74,AID-1013-05,Dur Greenacre,Naas,+232 (521) 101-9375,dgreenacre6s@loc.gov
LI-1586-47,OPP-9678-48,AID-7655-48,Dasha Radin,Carlow,+54 (130) 104-1889,dradin6t@nyu.edu
LI-5190-14,OPP-7914-39,AID-3130-05,Boony Bovis,Dublin,+46 (879) 460-9954,bbovis6u@scribd.com
LI-5099-49,OPP-3939-58,AID-3303-97,Oswald Dilworth,Port Laoise,+264 (582) 181-2957,odilworth6v@dailymotion.com
LI-2513-46,OPP-8095-57,AID-4922-51,Cami Eye,Shannon,+84 (156) 684-6270,ceye6w@over-blog.com
LI-1107-75,OPP-0152-17,AID-3761-63,Iosep Rimmington,Shannon,+81 (991) 693-6961,irimmington6x@bigcartel.com
LI-2367-96,OPP-2673-56,AID-0127-14,Tate Drohun,Carlow,+48 (995) 324-5392,tdrohun6y@ihg.com
LI-6768-61,OPP-4926-83,AID-3549-53,Ingunna Stovine,Carlow,+57 (704) 226-7680,istovine6z@springer.com
LI-1890-03,OPP-4458-68,AID-6218-27,Sam Bancroft,Shannon,+46 (101) 885-9371,sbancroft70@vk.com
LI-0099-50,OPP-4221-42,AID-3668-22,Joella Regi,Carlow,+63 (568) 459-1443,jregi71@trellian.com
LI-6795-59,OPP-5758-59,AID-5001-49,Aveline Jermy,Naas,+63 (677) 784-1296,ajermy72@slashdot.org
LI-1044-83,OPP-9680-41,AID-3053-68,Aeriell Turfrey,Port Laoise,+86 (575) 573-1437,aturfrey73@google.de
LI-0754-44,OPP-3868-00,AID-2008-87,Matti Barbosa,Carlow,+56 (576) 950-5373,mbarbosa74@bloglovin.com
LI-0922-89,OPP-4010-26,AID-9792-20,Fairleigh Feldmann,Lismore,+385 (818) 305-4892,ffeldmann75@networkadvertising.org
LI-1401-45,OPP-1729-04,AID-1700-38,Georgi Campanelle,Naas,+46 (452) 247-0797,gcampanelle76@eventbrite.com
LI-7688-47,OPP-8439-55,AID-6399-35,Brenden Tommen,Shannon,+62 (890) 412-4020,btommen77@theguardian.com
LI-9001-64,OPP-2789-37,AID-1394-60,Filippo Fahrenbach,Carlow,+46 (245) 322-0684,ffahrenbach78@discuz.net
LI-7087-14,OPP-2410-08,AID-7246-44,Patric Kenderdine,Port Laoise,+58 (523) 964-6403,pkenderdine79@pagesperso-orange.fr
LI-0343-81,OPP-1826-49,AID-2055-97,Lombard Buyers,Naas,+62 (351) 320-4598,lbuyers7a@loc.gov
LI-8643-84,OPP-8294-98,AID-2383-63,Doro Goodnow,Shannon,+1 (616) 543-5993,dgoodnow7b@tamu.edu
LI-6783-14,OPP-0413-53,AID-4639-50,Bartlett Bezarra,Carlow,+84 (760) 537-8756,bbezarra7c@mail.ru
LI-7700-86,OPP-5377-13,AID-2254-95,Ailina Jaimez,Lismore,+33 (438) 244-7329,ajaimez7d@cdbaby.com
LI-8536-61,OPP-9888-28,AID-9965-30,Irita Dedman,Carlow,+86 (830) 496-3531,idedman7e@xing.com
LI-8497-77,OPP-2047-92,AID-9308-04,Myrvyn Benardet,Naas,+86 (981) 118-5961,mbenardet7f@uiuc.edu
LI-8794-24,OPP-0086-59,AID-0996-14,D'arcy Brokenshire,Shannon,+351 (521) 344-6631,dbrokenshire7g@oracle.com
LI-8107-83,OPP-1300-49,AID-9656-33,Bucky Gallafant,Swords,+86 (577) 589-6729,bgallafant7h@mac.com
LI-4887-09,OPP-1377-23,AID-0689-47,Amalie Dislee,Carlow,+86 (499) 926-7230,adislee7i@angelfire.com
LI-6759-39,OPP-4388-57,AID-1328-16,Clemmy Moorcroft,Carlow,+351 (369) 148-0045,cmoorcroft7j@people.com.cn
LI-7795-81,OPP-0730-36,AID-2811-61,Andres Beernt,Carlow,+233 (955) 435-4175,abeernt7k@ed.gov
LI-4638-10,OPP-1348-71,AID-8555-55,Marice Dannohl,Carlow,+55 (684) 578-6839,mdannohl7l@mysql.com
LI-3305-76,OPP-3511-81,AID-6349-62,Ariella Jerrams,Port Laoise,+58 (624) 452-7483,ajerrams7m@google.co.jp
LI-6109-11,OPP-5619-49,AID-1422-99,Germaine Cornelleau,Carlow,+62 (242) 649-5565,gcornelleau7n@domainmarket.com
LI-8817-65,OPP-8759-18,AID-7363-85,Rosalia MacMichael,Carlow,+7 (174) 696-8356,rmacmichael7o@hhs.gov
LI-7909-43,OPP-6424-63,AID-7359-38,Lucita Haskur,Carlow,+92 (739) 185-0067,lhaskur7p@cornell.edu
LI-2286-00,OPP-5199-98,AID-9854-95,Willis Thurlborn,Naas,+507 (277) 917-1975,wthurlborn7q@moonfruit.com
LI-3940-00,OPP-9532-39,AID-8599-54,Timothy Caseri,Carlow,+86 (511) 695-0424,tcaseri7r@zdnet.com
LI-7747-98,OPP-8488-34,AID-2011-88,Clifford Paradine,Carlow,+48 (189) 993-1342,cparadine7s@google.ca
LI-6617-54,OPP-7879-93,AID-3294-07,Hersh Grouen,Shannon,+33 (671) 275-1991,hgrouen7t@imageshack.us
LI-8045-59,OPP-3017-56,AID-0537-89,Katerine Gawn,Shannon,+351 (899) 742-2023,kgawn7u@dropbox.com
LI-5493-00,OPP-6386-17,AID-0041-63,Edan Askie,Carlow,+86 (992) 181-3018,easkie7v@fastcompany.com
LI-4616-00,OPP-6499-72,AID-6108-25,Camey Johnys,Carlow,+62 (230) 241-3648,cjohnys7w@unc.edu
LI-7494-72,OPP-6020-96,AID-5067-50,Celestia Livesley,Shannon,+34 (351) 759-1730,clivesley7x@spiegel.de
LI-0335-41,OPP-3346-75,AID-8556-57,Conny Kubyszek,Carlow,+66 (852) 951-7158,ckubyszek7y@privacy.gov.au
LI-3911-47,OPP-3367-30,AID-4521-74,Irita Botwood,Shannon,+86 (367) 491-5222,ibotwood7z@forbes.com
LI-9422-68,OPP-6462-05,AID-9550-51,Cloe Thorsen,Carlow,+237 (828) 325-8955,cthorsen80@slashdot.org
LI-8875-95,OPP-9047-33,AID-2650-45,Bernetta Matthis,Carlow,+212 (912) 460-5436,bmatthis81@1688.com
LI-2975-65,OPP-1912-51,AID-5809-16,Allix Moggan,Shannon,+1 (360) 957-2129,amoggan82@constantcontact.com
LI-2893-41,OPP-1489-84,AID-7393-97,Shepperd Overshott,Carlow,+86 (820) 965-4404,sovershott83@quantcast.com
LI-2056-77,OPP-1154-52,AID-1178-79,Julian Trail,Shannon,+55 (438) 360-2307,jtrail84@nymag.com
LI-2106-74,OPP-3529-64,AID-9719-38,Sherill Upsale,Naas,+62 (769) 409-2939,supsale85@amazon.de
LI-9059-25,OPP-6576-61,AID-0721-67,Brittney Abethell,Shannon,+7 (604) 446-1063,babethell86@blogspot.com
LI-2203-76,OPP-2028-14,AID-4784-35,Hendrika Arnald,Naas,+62 (515) 440-1886,harnald87@unc.edu
LI-1715-60,OPP-8358-31,AID-4190-09,Valida Lambkin,Carlow,+375 (281) 758-9865,vlambkin88@ocn.ne.jp
LI-7334-52,OPP-2615-85,AID-8272-03,Reeba Denver,Naas,+86 (323) 845-7538,rdenver89@salon.com
LI-7180-40,OPP-8796-48,AID-7515-82,Patti Della Scala,Port Laoise,+63 (106) 880-0405,pdella8a@sourceforge.net
LI-9501-20,OPP-2855-02,AID-7745-38,Corabel Patty,Limerick,+351 (117) 841-9957,cpatty8b@blogspot.com
LI-7269-69,OPP-1413-47,AID-4240-15,Victoir Earsman,Naas,+62 (253) 430-3165,vearsman8c@tripod.com
LI-1815-68,OPP-5633-49,AID-0398-16,Tom Glynn,Carlow,+351 (931) 328-2486,tglynn8d@smugmug.com
LI-6471-29,OPP-9224-95,AID-0563-86,Blinni De Benedictis,Carlow,+86 (161) 948-0874,bde8e@bloomberg.com
LI-5228-85,OPP-5358-87,AID-0550-81,Emmalee Birdwistle,Lismore,+63 (625) 920-3480,ebirdwistle8f@huffingtonpost.com
LI-9118-73,OPP-4140-66,AID-3943-30,Hyacinthe Sidle,Naas,+81 (632) 845-3600,hsidle8g@imgur.com
LI-5281-02,OPP-7783-49,AID-1475-30,Maegan Radish,Shannon,+86 (895) 701-5908,mradish8h@sbwire.com
LI-2914-21,OPP-0479-90,AID-0914-09,Kristen Plumer,Naas,+57 (234) 214-8393,kplumer8i@wp.com
LI-5228-37,OPP-2345-57,AID-1685-36,Lizzie Jeanes,Carlow,+62 (929) 369-5594,ljeanes8j@google.fr
LI-4792-13,OPP-5521-11,AID-8700-01,Cchaddie Lashbrook,Carlow,+7 (507) 849-6921,clashbrook8k@diigo.com
LI-0851-79,OPP-1982-26,AID-1027-10,Roberta Mugleston,Carlow,+7 (679) 460-7278,rmugleston8l@gmpg.org
LI-3724-61,OPP-0978-55,AID-7433-14,Fredelia Scollard,Naas,+353 (842) 214-4109,fscollard8m@google.ca
LI-6859-08,OPP-2518-10,AID-0285-32,Skippy Kinnin,Port Laoise,+1 (847) 379-4429,skinnin8n@goodreads.com
LI-7487-29,OPP-4755-38,AID-7706-59,Abe Veschi,Carlow,+63 (706) 530-0713,aveschi8o@friendfeed.com
LI-0335-31,OPP-4614-86,AID-6770-16,Meryl Beagin,Naas,+86 (389) 723-4566,mbeagin8p@oakley.com
LI-6068-11,OPP-4672-93,AID-0602-95,Tyne Rosellini,Naas,+66 (394) 428-9504,trosellini8q@oracle.com
LI-9771-25,OPP-1339-83,AID-9812-50,Leigh Neilus,Lismore,+48 (572) 359-5481,lneilus8r@1und1.de
LI-7351-15,OPP-8821-00,AID-9072-32,Roberta Bartul,Shannon,+48 (389) 722-2323,rbartul8s@ca.gov
LI-5981-67,OPP-9347-89,AID-0856-58,Piotr Rappoport,Carlow,+351 (958) 761-6151,prappoport8t@pagesperso-orange.fr
LI-7473-31,OPP-4264-29,AID-1141-99,Annnora Filippazzo,Shannon,+51 (463) 800-2210,afilippazzo8u@google.com.au
LI-3350-49,OPP-4622-70,AID-6492-61,Chaddie Muston,Shannon,+351 (307) 318-9840,cmuston8v@unesco.org
LI-0283-53,OPP-3222-51,AID-1466-23,Ted Tapper,Naas,+86 (159) 833-6705,ttapper8w@webnode.com
LI-7075-60,OPP-0087-76,AID-3730-63,Kylie Arpino,Carlow,+62 (776) 125-5856,karpino8x@statcounter.com
LI-5106-52,OPP-2743-30,AID-8543-06,Eddie Castlake,Shannon,+33 (444) 660-7178,ecastlake8y@businessinsider.com
LI-7536-63,OPP-7547-80,AID-8433-43,Marielle Quilkin,Carlow,+55 (731) 982-8858,mquilkin8z@sciencedirect.com
LI-6254-51,OPP-7203-88,AID-4207-41,Raquela Hrachovec,Carlow,+55 (103) 728-1436,rhrachovec90@posterous.com
LI-6829-99,OPP-5031-46,AID-3486-43,Valaree Wearden,Swords,+380 (982) 324-9896,vwearden91@vinaora.com
LI-8422-02,OPP-8053-53,AID-6837-10,Kirbie Pennings,Carlow,+60 (759) 305-8642,kpennings92@edublogs.org
LI-1580-89,OPP-9053-29,AID-7874-59,Vyky Woodburne,Shannon,+33 (853) 343-7835,vwoodburne93@addtoany.com
LI-4011-48,OPP-6365-08,AID-2618-45,Deborah Steade,Carlow,+86 (960) 542-6412,dsteade94@nasa.gov
LI-8704-94,OPP-1696-41,AID-7153-30,Cinnamon De Witt,Carlow,+351 (486) 220-5687,cde95@constantcontact.com
LI-1898-31,OPP-0172-40,AID-0215-86,Anni Attock,Carlow,+62 (231) 850-1213,aattock96@canalblog.com
LI-0578-66,OPP-7167-22,AID-3509-35,Winthrop Assel,Shannon,+62 (270) 545-8301,wassel97@yahoo.co.jp
LI-4359-93,OPP-0712-98,AID-7346-19,Bert Hunter,Carlow,+63 (556) 512-7738,bhunter98@cbslocal.com
LI-2727-01,OPP-3934-38,AID-7682-49,Man Eddie,Carlow,+507 (824) 238-0541,meddie99@miibeian.gov.cn
LI-4929-62,OPP-3045-37,AID-9519-71,Marlo Jarritt,Carlow,+7 (526) 987-4441,mjarritt9a@amazon.co.uk
LI-7240-81,OPP-0637-94,AID-5293-60,Emelita Fawckner,Carlow,+86 (902) 199-0714,efawckner9b@wikia.com
LI-1715-22,OPP-2124-44,AID-2229-27,Eugene Cancott,Shannon,+55 (537) 589-6500,ecancott9c@lycos.com
LI-9958-29,OPP-4364-98,AID-1882-32,Anabelle Culmer,Carlow,+62 (837) 273-4017,aculmer9d@disqus.com
LI-8424-99,OPP-2879-72,AID-6845-35,Yves Collison,Carlow,+62 (656) 879-8914,ycollison9e@usnews.com
LI-9546-01,OPP-3499-69,AID-2471-38,Locke Mc Pake,Carlow,+46 (415) 926-1484,lmc9f@blogtalkradio.com
LI-4091-48,OPP-6689-03,AID-3511-59,Zorana Ausher,Carlow,+62 (378) 439-8106,zausher9g@live.com
LI-5605-00,OPP-4738-16,AID-5016-08,Yevette Kenvin,Carlow,+255 (569) 138-2881,ykenvin9h@infoseek.co.jp
LI-4866-32,OPP-7304-83,AID-0262-22,Sharona Flaunier,Shannon,+420 (695) 813-7073,sflaunier9i@indiatimes.com
LI-4668-90,OPP-1557-44,AID-5925-03,Lennard Grimm,Carlow,+63 (486) 815-4154,lgrimm9j@live.com
LI-2115-34,OPP-8670-24,AID-8789-00,Perl Growcott,Carlow,+1 (828) 797-7116,pgrowcott9k@1und1.de
LI-0441-81,OPP-0687-45,AID-8520-01,Clywd Trounson,Carlow,+7 (388) 857-8767,ctrounson9l@hibu.com
LI-9097-47,OPP-1334-47,AID-5268-38,Gwyneth Dibden,Lismore,+86 (831) 397-0355,gdibden9m@msn.com
LI-8263-45,OPP-2165-26,AID-8991-57,Meredithe Jarman,Carlow,+1 (407) 401-9723,mjarman9n@opera.com
LI-8041-47,OPP-0613-08,AID-5382-52,Brooke Klimko,Carlow,+33 (445) 698-3691,bklimko9o@twitpic.com
LI-3878-49,OPP-7898-19,AID-7733-73,Kathie Rosenbush,Carlow,+54 (432) 180-7919,krosenbush9p@youku.com
LI-0474-11,OPP-6508-60,AID-0429-23,Reggie Molineux,Shannon,+992 (459) 888-2399,rmolineux9q@uol.com.br
LI-0290-41,OPP-4686-07,AID-6395-52,Raeann Ondrousek,Carlow,+504 (658) 261-3463,rondrousek9r@netlog.com
LI-7471-32,OPP-4675-32,AID-7899-32,Daphne Boulder,Carlow,+86 (297) 795-0981,dboulder9s@mashable.com
LI-1067-99,OPP-2329-64,AID-4746-79,Hamid O'Flannery,Carlow,+86 (225) 225-1751,hoflannery9t@elpais.com
LI-4768-81,OPP-8699-64,AID-7079-16,Ludwig Wessel,Naas,+66 (880) 468-0787,lwessel9u@dropbox.com
LI-3746-13,OPP-5954-34,AID-8816-23,Udall Diggle,Carlow,+46 (321) 979-5505,udiggle9v@state.tx.us
LI-4836-15,OPP-6493-90,AID-0165-61,Renaldo Izzett,Naas,+98 (181) 199-4182,rizzett9w@latimes.com
LI-6409-81,OPP-1054-60,AID-9110-71,Corbie Demer,Carlow,+86 (239) 998-1346,cdemer9x@washington.edu
LI-9583-49,OPP-6510-28,AID-2607-43,Phillida Faughey,Carlow,+46 (201) 153-9578,pfaughey9y@usda.gov
LI-5319-02,OPP-9000-45,AID-1269-62,Tallou Rohmer,Carlow,+66 (263) 325-9230,trohmer9z@utexas.edu
LI-0460-27,OPP-7084-03,AID-0537-52,Lezley Waterworth,Shannon,+7 (148) 598-4380,lwaterwortha0@dell.com
LI-8753-41,OPP-9108-27,AID-5520-44,Roch Briamo,Carlow,+7 (621) 908-1707,rbriamoa1@phoca.cz
LI-6114-75,OPP-9592-05,AID-7949-99,Xylia Yexley,Carlow,+62 (713) 665-8027,xyexleya2@opensource.org
LI-9881-69,OPP-7651-95,AID-0463-00,Laina Baskerville,Carlow,+62 (635) 224-9909,lbaskervillea3@earthlink.net
LI-1723-61,OPP-2843-36,AID-2818-64,Petra Boyat,Naas,+49 (654) 211-2097,pboyata4@dedecms.com
LI-4315-44,OPP-3258-07,AID-6080-89,Devan Kirkpatrick,Naas,+48 (836) 346-0708,dkirkpatricka5@creativecommons.org
LI-3759-86,OPP-0090-32,AID-7203-00,Itch Haughton,Port Laoise,+86 (874) 196-4666,ihaughtona6@liveinternet.ru
LI-6805-31,OPP-3513-44,AID-5727-14,Reynold Hawksworth,Carlow,+86 (393) 917-4140,rhawkswortha7@skyrock.com
LI-2868-55,OPP-4156-09,AID-1539-64,Bealle Dowsing,Shannon,+86 (867) 496-0849,bdowsinga8@techcrunch.com
LI-3518-70,OPP-6237-40,AID-3606-65,Kristyn Clausen,Shannon,+48 (473) 141-9785,kclausena9@theguardian.com
LI-0188-22,OPP-1807-44,AID-6697-43,Kenneth Pantry,Shannon,+257 (721) 793-6867,kpantryaa@weebly.com
LI-5021-90,OPP-8572-40,AID-8331-91,Walton Bloxsom,Shannon,+86 (634) 540-8041,wbloxsomab@purevolume.com
LI-4715-36,OPP-6183-26,AID-6593-34,Joanne O'Neil,Carlow,+381 (732) 854-4842,joneilac@odnoklassniki.ru
LI-0557-28,OPP-8990-45,AID-8391-69,Honor Tubble,Swords,+62 (844) 588-2025,htubblead@github.com
LI-0455-52,OPP-4580-91,AID-1803-86,Lyndsie Trowl,Carlow,+93 (692) 210-9767,ltrowlae@google.fr
LI-6476-09,OPP-7007-57,AID-7012-27,Agna Baroc,Carlow,+7 (654) 325-5935,abarocaf@mlb.com
LI-0472-16,OPP-5979-33,AID-1145-84,Elna Karolowski,Lismore,+970 (393) 985-9172,ekarolowskiag@1688.com
LI-8838-56,OPP-0384-73,AID-9959-24,Sandra Balnaves,Limerick,+33 (250) 921-3489,sbalnavesah@npr.org
LI-3695-91,OPP-8766-76,AID-8449-95,Gwenny Chadwen,Carlow,+93 (261) 525-2599,gchadwenai@amazon.co.uk
LI-5558-25,OPP-2036-04,AID-2753-40,Maddy Boncoeur,Shannon,+7 (323) 610-1180,mboncoeuraj@lulu.com
LI-2003-87,OPP-3162-85,AID-3987-47,Audi Stoyell,Carlow,+236 (618) 141-6134,astoyellak@earthlink.net
LI-4036-30,OPP-1894-56,AID-9275-79,Abigail Grattage,Naas,+54 (297) 154-7335,agrattageal@loc.gov
LI-9814-30,OPP-3224-88,AID-8152-31,Rowland Billsberry,Shannon,+62 (926) 732-9962,rbillsberryam@sbwire.com
LI-6595-32,OPP-3302-30,AID-9888-92,Jeniffer Hansemann,Carlow,+216 (106) 179-8793,jhansemannan@jugem.jp
LI-4185-52,OPP-0454-28,AID-4478-09,Orsa Bahls,Shannon,+1 (313) 138-2077,obahlsao@typepad.com
LI-4605-95,OPP-0819-03,AID-2404-35,Marlee Woolger,Carlow,+351 (843) 789-0035,mwoolgerap@networkadvertising.org
LI-4084-34,OPP-4890-88,AID-5558-88,Dulce Leal,Naas,+48 (571) 442-3911,dlealaq@berkeley.edu
LI-7819-57,OPP-7347-72,AID-3454-32,Cosetta Clendening,Shannon,+351 (630) 713-1355,cclendeningar@booking.com
LI-6268-36,OPP-0364-67,AID-6438-92,Eddi Puig,Carlow,+54 (859) 110-0073,epuigas@umich.edu
LI-7910-90,OPP-8136-27,AID-4209-57,Ysabel Mattersey,Carlow,+1 (664) 755-6513,ymatterseyat@dropbox.com
LI-0719-06,OPP-9046-88,AID-4468-23,Dael Schmuhl,Carlow,+381 (813) 160-8342,dschmuhlau@abc.net.au
LI-8896-53,OPP-5825-02,AID-0670-32,Timotheus Lintot,Port Laoise,+55 (341) 774-4302,tlintotav@bizjournals.com
LI-8073-11,OPP-0565-56,AID-6985-79,Skell Longhirst,Naas,+377 (316) 956-7855,slonghirstaw@google.fr
LI-5066-85,OPP-7025-60,AID-3542-83,Nerta Naulty,Dublin,+970 (399) 230-1754,nnaultyax@icio.us
LI-9623-23,OPP-9950-88,AID-3223-02,Thomasin Cicco,Carlow,+63 (930) 507-0178,tciccoay@tiny.cc
LI-9380-05,OPP-9970-50,AID-0626-79,Katy McCallum,Carlow,+86 (964) 864-0140,kmccallumaz@dell.com
LI-2304-70,OPP-5058-60,AID-5474-78,Gusta Giottoi,Shannon,+351 (806) 696-5718,ggiottoib0@lycos.com
LI-4953-22,OPP-7099-13,AID-5879-75,Jocelyn Whistlecraft,Carlow,+7 (347) 200-1738,jwhistlecraftb1@sciencedirect.com
LI-6230-64,OPP-2747-76,AID-6415-19,Gerry Caulcutt,Shannon,+595 (142) 836-9298,gcaulcuttb2@wufoo.com
LI-5356-49,OPP-7911-89,AID-0544-19,Ethelind Fishbourn,Carlow,+55 (804) 187-3158,efishbournb3@mlb.com
LI-6645-99,OPP-2999-59,AID-5669-99,Cory Mitchiner,Carlow,+351 (218) 254-9200,cmitchinerb4@360.cn
LI-2052-64,OPP-2521-58,AID-1218-99,Jaquenette Cote,Shannon,+63 (407) 276-5645,jcoteb5@lycos.com
LI-7729-42,OPP-9100-17,AID-3316-08,Melvin Dugdale,Lismore,+380 (834) 207-8218,mdugdaleb6@freewebs.com
LI-8402-36,OPP-3523-45,AID-8548-86,Quent Escale,Shannon,+33 (323) 519-5963,qescaleb7@mayoclinic.com
LI-4775-04,OPP-1503-61,AID-5584-22,Eachelle Stivens,Lismore,+86 (446) 369-1806,estivensb8@topsy.com
LI-5265-46,OPP-1825-09,AID-8482-06,Justino Roydon,Shannon,+55 (277) 500-9170,jroydonb9@wiley.com
LI-0482-16,OPP-3721-38,AID-8143-37,Shepherd Sains,Carlow,+86 (732) 372-1620,ssainsba@paginegialle.it
LI-6349-41,OPP-4014-19,AID-6378-09,Albert Duker,Carlow,+62 (257) 850-4079,adukerbb@bizjournals.com
LI-2016-82,OPP-5027-72,AID-1732-57,Brockie Dawdary,Port Laoise,+48 (545) 217-4128,bdawdarybc@wufoo.com
LI-1677-56,OPP-0486-24,AID-1016-43,Anjanette Olliar,Carlow,+598 (694) 706-4712,aolliarbd@storify.com
LI-7723-22,OPP-1976-36,AID-2113-58,Lauretta Zoppo,Shannon,+233 (883) 432-0295,lzoppobe@list-manage.com
LI-0556-55,OPP-1575-78,AID-0742-17,Ingunna Saynor,Naas,+375 (396) 296-2882,isaynorbf@theguardian.com
LI-3561-27,OPP-4798-50,AID-1301-91,Claiborn Weldrick,Carlow,+63 (827) 134-1665,cweldrickbg@ebay.co.uk
LI-1644-41,OPP-7378-53,AID-9286-96,Lilah Copnell,Carlow,+420 (842) 753-1692,lcopnellbh@exblog.jp
LI-7013-46,OPP-3230-63,AID-5369-49,Elisabeth Christophers,Shannon,+81 (573) 129-4289,echristophersbi@people.com.cn
LI-9117-10,OPP-1099-11,AID-2228-35,Bianka Joinsey,Shannon,+1 (719) 222-1015,bjoinseybj@sfgate.com
LI-8758-09,OPP-1262-57,AID-2412-52,Alessandra Liversage,Carlow,+86 (809) 746-1302,aliversagebk@unblog.fr
LI-4241-57,OPP-7257-51,AID-3756-18,Quintilla Skellion,Carlow,+81 (354) 849-4591,qskellionbl@creativecommons.org
LI-0334-19,OPP-6794-87,AID-7509-43,Rock Robke,Carlow,+62 (725) 495-5744,rrobkebm@redcross.org
LI-6895-83,OPP-7198-20,AID-8582-12,Johnna Folbig,Shannon,+20 (395) 770-0399,jfolbigbn@yellowbook.com
LI-2852-56,OPP-9426-56,AID-7965-80,Christoffer Kamienski,Shannon,+63 (532) 600-7234,ckamienskibo@eventbrite.com
LI-8843-97,OPP-8900-58,AID-8693-20,Sunshine McMurray,Carlow,+352 (172) 208-7917,smcmurraybp@furl.net
LI-5650-10,OPP-5414-00,AID-8432-76,Xenos Bows,Carlow,+86 (446) 202-3831,xbowsbq@dyndns.org
LI-1750-59,OPP-1153-48,AID-1138-19,Ameline Kitchinghan,Shannon,+380 (654) 467-0596,akitchinghanbr@hubpages.com
LI-8077-02,OPP-7756-19,AID-7509-83,Juan Puddifer,Shannon,+380 (779) 174-4783,jpuddiferbs@lycos.com
LI-9253-12,OPP-5353-55,AID-7881-36,Robina Porcas,Carlow,+216 (400) 541-2183,rporcasbt@bloomberg.com
LI-1113-19,OPP-0585-02,AID-7852-55,Norean Debill,Carlow,+55 (968) 118-3958,ndebillbu@tinyurl.com
LI-0196-93,OPP-8191-52,AID-7379-27,Aleen Fleckno,Lismore,+506 (303) 448-6060,aflecknobv@ning.com
LI-5796-84,OPP-3487-32,AID-8805-98,Kaitlynn McGettrick,Naas,+98 (510) 495-2845,kmcgettrickbw@merriam-webster.com
LI-2419-97,OPP-8722-12,AID-1951-40,Minni Bristow,Carlow,+86 (285) 349-2360,mbristowbx@adobe.com
LI-7603-42,OPP-4977-15,AID-4794-91,Tandy Arunowicz,Carlow,+98 (569) 195-9201,tarunowiczby@cargocollective.com
LI-4799-06,OPP-3511-27,AID-6872-13,Emanuel Olkowicz,Carlow,+86 (428) 183-2295,eolkowiczbz@1688.com
LI-4916-84,OPP-3214-94,AID-0523-25,Floyd Dassindale,Naas,+62 (901) 805-4767,fdassindalec0@reverbnation.com
LI-0001-62,OPP-9766-56,AID-4171-75,Jacinda Hannabus,Carlow,+62 (336) 170-8507,jhannabusc1@loc.gov
LI-8655-89,OPP-7279-77,AID-4044-92,Carin Eskriet,Limerick,+52 (274) 100-2604,ceskrietc2@amazon.com
LI-1151-30,OPP-5646-94,AID-8855-10,Edith Bertlin,Carlow,+60 (267) 520-8200,ebertlinc3@house.gov
LI-9920-60,OPP-3036-08,AID-3946-25,Adria Gohier,Carlow,+389 (465) 464-1427,agohierc4@addtoany.com
LI-7838-16,OPP-6799-81,AID-6225-66,Normy Timbridge,Carlow,+230 (646) 664-9728,ntimbridgec5@engadget.com
LI-2409-62,OPP-9975-19,AID-8537-59,Maxine Thomel,Carlow,+976 (398) 597-1521,mthomelc6@vk.com
LI-5831-25,OPP-4090-13,AID-6672-32,Dionis Pottery,Shannon,+66 (199) 981-9935,dpotteryc7@squidoo.com
LI-8450-40,OPP-2337-03,AID-0787-14,Heddi Eteen,Carlow,+998 (356) 125-0246,heteenc8@unblog.fr
LI-3636-77,OPP-2188-29,AID-4872-05,Tab Piegrome,Carlow,+62 (845) 360-1171,tpiegromec9@godaddy.com
LI-8824-51,OPP-6694-62,AID-8865-40,Stearne Kerman,Carlow,+47 (403) 964-4482,skermanca@wisc.edu
LI-2843-44,OPP-7225-68,AID-6078-06,Mathew Zanetto,Carlow,+234 (213) 270-6867,mzanettocb@ucsd.edu
LI-7363-92,OPP-5702-68,AID-3199-76,Marissa Casaccia,Port Laoise,+51 (768) 189-3492,mcasacciacc@nba.com
LI-3949-84,OPP-1899-45,AID-1855-44,Kerr Shurlock,Carlow,+84 (400) 184-9906,kshurlockcd@vistaprint.com
LI-2179-85,OPP-5058-37,AID-6228-31,Rubetta Canero,Dublin,+66 (995) 184-7094,rcaneroce@walmart.com
LI-9028-09,OPP-9519-63,AID-2821-14,Kameko Piell,Limerick,+98 (511) 531-8031,kpiellcf@icq.com
LI-2329-38,OPP-9430-10,AID-8549-92,Garrett Curwood,Shannon,+86 (454) 260-6591,gcurwoodcg@edublogs.org
LI-8149-71,OPP-9659-19,AID-7883-79,Baron Vyse,Shannon,+387 (295) 785-1762,bvysech@tmall.com
LI-6101-98,OPP-3398-54,AID-0421-02,Malissa Koschke,Shannon,+48 (962) 667-6911,mkoschkeci@miitbeian.gov.cn
LI-5766-44,OPP-1065-04,AID-4815-23,Cati Storkes,Carlow,+62 (394) 745-7117,cstorkescj@parallels.com
LI-1711-01,OPP-0454-35,AID-3057-82,Lorinda Hillett,Port Laoise,+62 (140) 916-2044,lhillettck@slideshare.net
LI-1149-64,OPP-1140-62,AID-9828-51,Blisse Kobiera,Carlow,+47 (718) 405-6072,bkobieracl@wikia.com
LI-9313-03,OPP-8489-47,AID-3997-16,Margit Hovell,Lismore,+34 (752) 359-6631,mhovellcm@pagesperso-orange.fr
LI-8997-86,OPP-6249-74,AID-7857-55,Iver Warkup,Carlow,+86 (531) 867-1563,iwarkupcn@networksolutions.com
LI-7637-14,OPP-6118-57,AID-9032-83,Adena Furst,Carlow,+81 (814) 215-8466,afurstco@flickr.com
LI-7041-24,OPP-7590-40,AID-4936-23,Muire Roycroft,Carlow,+62 (989) 472-0991,mroycroftcp@dmoz.org
LI-6208-62,OPP-2569-10,AID-2816-55,Hope Ferrario,Naas,+55 (253) 470-5583,hferrariocq@slideshare.net
LI-3321-54,OPP-3968-85,AID-6673-51,Peder Shevell,Naas,+86 (319) 575-2299,pshevellcr@europa.eu
LI-5094-31,OPP-0273-56,AID-3541-90,Jami Amaya,Shannon,+967 (230) 228-1646,jamayacs@clickbank.net
LI-3087-17,OPP-7158-77,AID-6074-77,Shelby Broadley,Naas,+386 (783) 539-4924,sbroadleyct@com.com
LI-9397-30,OPP-1803-21,AID-8287-01,Nicky Paynes,Carlow,+86 (615) 290-9967,npaynescu@ftc.gov
LI-3918-49,OPP-4587-74,AID-0535-99,Gabriell Ambage,Carlow,+54 (354) 272-9460,gambagecv@blogspot.com
LI-1341-57,OPP-8174-51,AID-1381-79,Lenna Manilow,Carlow,+20 (688) 319-3209,lmanilowcw@jalbum.net
LI-5540-81,OPP-4951-90,AID-0747-61,Nada Priest,Shannon,+30 (923) 906-4435,npriestcx@prweb.com
LI-2888-28,OPP-3323-33,AID-2600-05,Casper Beaston,Shannon,+380 (832) 912-2041,cbeastoncy@globo.com
LI-5890-22,OPP-9817-15,AID-6965-76,Joseph Page,Carlow,+380 (548) 699-4275,jpagecz@washingtonpost.com
LI-1361-28,OPP-1182-44,AID-3259-93,Bernice Pesselt,Naas,+970 (223) 460-7179,bpesseltd0@ted.com
LI-9297-83,OPP-8876-51,AID-4745-12,Tarrah Ditch,Carlow,+86 (215) 242-6252,tditchd1@cam.ac.uk
LI-0854-69,OPP-2807-60,AID-0108-12,Ethelred Whight,Shannon,+86 (711) 619-8604,ewhightd2@amazon.de
LI-7368-61,OPP-3281-37,AID-5868-28,Hedi Berryann,Lismore,+63 (342) 157-2856,hberryannd3@ihg.com
LI-3589-27,OPP-4413-48,AID-9689-73,Alikee Seamons,Carlow,+30 (690) 599-0067,aseamonsd4@bbb.org
LI-0055-00,OPP-0046-70,AID-7418-48,Vale Collie,Lismore,+51 (325) 972-1546,vcollied5@ocn.ne.jp
LI-4234-25,OPP-1154-36,AID-7978-98,Marga Mathivon,Lismore,+30 (233) 267-6097,mmathivond6@addthis.com
LI-1157-76,OPP-6399-65,AID-1832-89,Thorvald Ivers,Shannon,+970 (308) 607-5033,tiversd7@technorati.com
LI-2066-57,OPP-1051-12,AID-0196-68,Brandyn Storms,Carlow,+33 (183) 662-2847,bstormsd8@nasa.gov
LI-0362-39,OPP-6549-99,AID-3057-67,Vic Brentnall,Carlow,+81 (806) 120-5766,vbrentnalld9@columbia.edu
LI-6081-90,OPP-7139-67,AID-9508-74,Renae Hamal,Carlow,+234 (236) 550-2178,rhamalda@usnews.com
LI-9526-29,OPP-6538-52,AID-5529-74,Riordan Caston,Carlow,+20 (746) 354-9188,rcastondb@usnews.com
LI-1670-00,OPP-8193-37,AID-7835-80,Rutter Mulles,Carlow,+86 (535) 660-8886,rmullesdc@blog.com
LI-4515-26,OPP-6756-62,AID-8474-94,Ingar Gladeche,Carlow,+34 (996) 385-7543,igladechedd@wsj.com
LI-0292-88,OPP-0220-09,AID-5477-10,Wyndham Wearne,Carlow,+1 (504) 237-0944,wwearnede@hud.gov
LI-4848-05,OPP-5675-46,AID-5881-84,Margaretha Hacaud,Carlow,+81 (875) 983-6973,mhacauddf@bravesites.com
LI-8763-65,OPP-2396-85,AID-2159-16,Kirk Shaves,Carlow,+420 (850) 821-5982,kshavesdg@hexun.com
LI-8250-62,OPP-2490-61,AID-4020-82,Joanna Beckwith,Shannon,+420 (389) 703-7502,jbeckwithdh@cargocollective.com
LI-6221-35,OPP-7466-35,AID-7631-79,Chase Starrs,Shannon,+62 (455) 422-9278,cstarrsdi@mit.edu
LI-2538-09,OPP-2319-54,AID-0219-74,Elga Malyon,Shannon,+7 (797) 856-7151,emalyondj@bloglovin.com
LI-7302-26,OPP-7579-56,AID-8540-07,Chic Klimuk,Carlow,+51 (700) 803-4485,cklimukdk@cbsnews.com
LI-0287-39,OPP-5456-23,AID-0246-35,Ignazio Claypoole,Naas,+30 (866) 961-5746,iclaypooledl@youku.com
LI-8302-56,OPP-1920-56,AID-7332-82,Lotti De Laci,Carlow,+420 (407) 596-9795,ldedm@independent.co.uk
LI-2556-29,OPP-8981-74,AID-2495-76,Rayshell Barnewall,Shannon,+1 (914) 187-7476,rbarnewalldn@networkadvertising.org
LI-0576-19,OPP-5229-45,AID-2433-34,Hyatt Moraleda,Naas,+46 (593) 413-5521,hmoraledado@addthis.com
LI-8360-57,OPP-5195-27,AID-6957-15,Maud Fadian,Carlow,+62 (464) 447-6273,mfadiandp@usatoday.com
LI-0629-01,OPP-0650-12,AID-4632-08,Ethel Kitter,Shannon,+62 (555) 640-8756,ekitterdq@cargocollective.com
LI-3335-15,OPP-8253-54,AID-6890-13,Nels Haworth,Carlow,+63 (583) 577-9923,nhaworthdr@washingtonpost.com
LI-2256-26,OPP-3161-36,AID-4645-94,Kristopher Chessill,Carlow,+36 (540) 739-2096,kchessillds@huffingtonpost.com
LI-9355-24,OPP-9623-62,AID-0334-66,Ced Hanhard,Lismore,+86 (585) 540-8774,chanharddt@yahoo.co.jp
LI-5343-61,OPP-0531-88,AID-6699-55,Betta Bamforth,Carlow,+86 (956) 744-3710,bbamforthdu@lycos.com
LI-6325-80,OPP-8897-31,AID-2936-74,Iormina Sheraton,Carlow,+351 (111) 479-4717,isheratondv@wix.com
LI-8580-03,OPP-3692-39,AID-1554-91,Tyler Fennelly,Shannon,+358 (405) 427-2391,tfennellydw@hostgator.com
LI-4355-05,OPP-2385-03,AID-0597-10,Blinny Clemoes,Naas,+86 (516) 193-8290,bclemoesdx@goodreads.com
LI-6767-52,OPP-7818-07,AID-4144-52,Sallee Longhi,Shannon,+48 (230) 594-2104,slonghidy@seesaa.net
LI-8797-46,OPP-7817-51,AID-2883-64,Gabby de Castelain,Naas,+55 (454) 556-6177,gdedz@wordpress.com
LI-5934-41,OPP-9609-62,AID-2306-75,Raychel Klisch,Limerick,+46 (704) 129-7882,rklische0@instagram.com
LI-5572-31,OPP-7223-29,AID-2118-46,Dyanne Comelini,Carlow,+351 (773) 461-0748,dcomelinie1@newyorker.com
LI-5222-17,OPP-8653-62,AID-1708-21,Aurie Ismail,Shannon,+86 (552) 680-9306,aismaile2@si.edu
LI-2578-16,OPP-4237-29,AID-9174-33,Ronnie Geratt,Carlow,+46 (834) 991-5529,rgeratte3@webeden.co.uk
LI-5759-40,OPP-9903-31,AID-5228-60,Edith Streatfield,Shannon,+33 (965) 548-3030,estreatfielde4@npr.org
LI-7060-14,OPP-2766-02,AID-2650-70,Ingemar Karolowski,Naas,+62 (583) 164-8140,ikarolowskie5@nymag.com
LI-5046-10,OPP-9607-70,AID-8359-73,Karen Jakubovsky,Naas,+86 (786) 247-8003,kjakubovskye6@rediff.com
LI-0943-47,OPP-9900-84,AID-3170-50,Lucy Mawson,Carlow,+62 (867) 971-0396,lmawsone7@google.com.au
LI-5403-42,OPP-5797-10,AID-1049-88,Richard McLay,Carlow,+420 (708) 723-1725,rmclaye8@wunderground.com
LI-7102-94,OPP-4399-40,AID-2467-61,Nananne Odam,Carlow,+380 (841) 478-1030,nodame9@exblog.jp
LI-9947-55,OPP-9930-55,AID-2877-69,Goldarina Cicconettii,Shannon,+86 (617) 996-1417,gcicconettiiea@yellowpages.com
LI-9697-84,OPP-9399-24,AID-6809-14,Linell Lobe,Limerick,+36 (721) 407-9100,llobeeb@e-recht24.de
LI-5880-36,OPP-7186-01,AID-9067-45,Gram Francom,Carlow,+62 (759) 998-3941,gfrancomec@instagram.com
LI-8756-68,OPP-0056-48,AID-6210-18,Ailbert Cops,Carlow,+86 (397) 906-2153,acopsed@state.gov
LI-9233-43,OPP-7992-78,AID-4027-63,Claudius Alleway,Carlow,+63 (935) 961-0540,callewayee@hostgator.com
LI-4336-35,OPP-0453-85,AID-5480-42,Estele Stot,Carlow,+503 (929) 775-2947,estotef@nba.com
LI-4062-52,OPP-0665-00,AID-2689-87,Fredia Hagergham,Carlow,+591 (109) 286-0670,fhagerghameg@artisteer.com
LI-6695-32,OPP-7314-12,AID-8264-80,Bevon Davidovici,Naas,+62 (264) 376-3698,bdavidovicieh@wikipedia.org
LI-6034-48,OPP-1249-15,AID-6032-11,Gertie Bim,Carlow,+93 (911) 567-1684,gbimei@ovh.net
LI-3072-16,OPP-6056-12,AID-0046-51,Monti Wetherick,Naas,+30 (679) 761-6869,mwetherickej@engadget.com
LI-7430-76,OPP-4784-34,AID-4654-87,Martina Langeren,Carlow,+49 (536) 686-8685,mlangerenek@imdb.com
LI-7176-79,OPP-7420-02,AID-7862-60,Becki Olczak,Carlow,+62 (534) 758-9229,bolczakel@ocn.ne.jp
LI-3365-38,OPP-3862-41,AID-0818-90,Griff Sonnenschein,Carlow,+33 (727) 766-5068,gsonnenscheinem@addtoany.com
LI-3627-73,OPP-0059-23,AID-1119-19,Lynde Chidwick,Shannon,+52 (957) 547-9827,lchidwicken@geocities.com
LI-7615-06,OPP-8454-08,AID-1942-60,Dene Scholar,Naas,+352 (962) 987-7961,dscholareo@issuu.com
LI-6050-01,OPP-3738-90,AID-5064-28,Cristine Paggitt,Naas,+53 (314) 670-6670,cpaggittep@arizona.edu
LI-9523-34,OPP-9886-11,AID-0480-38,Kent Hambling,Carlow,+60 (693) 271-9889,khamblingeq@techcrunch.com
LI-4640-60,OPP-6967-95,AID-7154-02,Teddie Hadgraft,Carlow,+351 (236) 176-3119,thadgrafter@typepad.com
LI-2597-43,OPP-4966-45,AID-9880-30,Jameson Cuel,Carlow,+33 (777) 991-9096,jcueles@un.org
LI-0995-67,OPP-4676-32,AID-8851-25,Cathie Duchesne,Carlow,+385 (664) 168-4991,cduchesneet@globo.com
LI-3457-08,OPP-8446-90,AID-8688-85,Steffie Dearnaley,Carlow,+380 (968) 215-1853,sdearnaleyeu@list-manage.com
LI-3369-78,OPP-1977-80,AID-0905-31,Ramonda Lambshine,Carlow,+385 (949) 867-3424,rlambshineev@bandcamp.com
LI-6721-10,OPP-7239-23,AID-1102-21,Paddy Radolf,Naas,+381 (450) 576-8470,pradolfew@engadget.com
LI-8798-60,OPP-4483-29,AID-9125-43,Beatrix Grene,Carlow,+63 (769) 770-6177,bgreneex@sphinn.com
LI-0394-42,OPP-8530-39,AID-6123-86,Amata Adcocks,Shannon,+57 (943) 334-3022,aadcocksey@myspace.com
LI-0462-59,OPP-9125-92,AID-1499-45,Christin Klagge,Shannon,+62 (439) 459-0134,cklaggeez@ox.ac.uk
LI-8157-72,OPP-7643-74,AID-0657-87,Dre Leckey,Carlow,+351 (375) 475-0052,dleckeyf0@cmu.edu
LI-3456-44,OPP-6841-29,AID-7028-36,Merci Kleinpeltz,Carlow,+54 (206) 242-3386,mkleinpeltzf1@posterous.com
LI-0397-98,OPP-5178-24,AID-3456-14,Corena Cratchley,Shannon,+242 (838) 983-2458,ccratchleyf2@bravesites.com
LI-9916-19,OPP-7705-92,AID-2565-48,Arlyne Brecknall,Carlow,+7 (520) 921-2578,abrecknallf3@mtv.com
LI-5706-23,OPP-4640-24,AID-3803-31,Olga Gooden,Carlow,+234 (451) 557-8665,ogoodenf4@shinystat.com
LI-6667-38,OPP-2003-15,AID-6806-23,Kylynn Wigfield,Carlow,+63 (354) 778-5478,kwigfieldf5@digg.com
LI-9092-43,OPP-3143-48,AID-7689-72,Dorene Iveson,Carlow,+86 (575) 676-6458,divesonf6@quantcast.com
LI-4429-38,OPP-3472-00,AID-4096-95,Patsy Phlippi,Carlow,+258 (499) 285-7355,pphlippif7@issuu.com
LI-0478-90,OPP-8709-93,AID-4531-33,Joelle Balassi,Carlow,+55 (237) 863-7129,jbalassif8@twitter.com
LI-8168-16,OPP-0992-20,AID-4081-03,Sidonia Itzik,Shannon,+1 (646) 494-6433,sitzikf9@csmonitor.com
LI-6731-02,OPP-2581-73,AID-1569-47,Everett Brewse,Carlow,+55 (878) 639-7189,ebrewsefa@yahoo.co.jp
LI-7210-11,OPP-2021-30,AID-9550-57,Leonelle Lamcken,Carlow,+62 (334) 171-5621,llamckenfb@sphinn.com
LI-2010-53,OPP-4866-52,AID-7210-02,Kiley Leverton,Naas,+351 (706) 459-3453,klevertonfc@123-reg.co.uk
LI-2970-19,OPP-4428-03,AID-1975-23,Hamlen Grubbe,Shannon,+94 (962) 545-8447,hgrubbefd@statcounter.com
LI-8704-16,OPP-1953-62,AID-4351-74,Zaccaria Hickisson,Naas,+256 (200) 497-6328,zhickissonfe@slideshare.net
LI-6157-22,OPP-5158-66,AID-3954-61,Powell Augustine,Naas,+504 (400) 584-8223,paugustineff@about.com
LI-0763-50,OPP-0452-80,AID-0701-04,Kristien Scholard,Shannon,+63 (223) 274-1614,kscholardfg@java.com
LI-9565-60,OPP-6397-15,AID-3109-36,Berne MacGorman,Carlow,+62 (603) 652-8236,bmacgormanfh@storify.com
LI-9946-40,OPP-6135-82,AID-8438-93,Clementia Rivalland,Naas,+507 (318) 923-9102,crivallandfi@unesco.org
LI-1443-00,OPP-8148-39,AID-6593-73,Heda Effemy,Carlow,+86 (479) 149-7798,heffemyfj@parallels.com
LI-7419-28,OPP-2298-57,AID-7870-53,Hollyanne Mc Caughan,Swords,+1 (714) 217-6935,hmcfk@businessinsider.com
LI-4327-37,OPP-7941-91,AID-0692-33,Jonas Lardner,Carlow,+27 (486) 756-5954,jlardnerfl@msu.edu
LI-5938-34,OPP-5825-41,AID-3237-72,Imogene O'Dennehy,Lismore,+970 (115) 528-4046,iodennehyfm@wikimedia.org
LI-6679-62,OPP-2653-42,AID-2599-61,Ahmad Lowrie,Carlow,+33 (197) 355-5929,alowriefn@rediff.com
LI-1729-82,OPP-1647-66,AID-5910-09,Brennan Zollner,Carlow,+86 (360) 157-6513,bzollnerfo@unblog.fr
LI-6094-73,OPP-4030-34,AID-2422-78,Boris Rambaut,Shannon,+62 (380) 855-1823,brambautfp@cbsnews.com
LI-4105-38,OPP-2880-27,AID-2219-84,Orlando Overshott,Lismore,+7 (310) 537-4056,oovershottfq@tamu.edu
LI-9616-49,OPP-1604-36,AID-6127-66,Row Stelfax,Shannon,+86 (288) 202-8632,rstelfaxfr@friendfeed.com
LI-5628-91,OPP-5681-73,AID-9241-49,Alia Capell,Carlow,+86 (913) 330-7904,acapellfs@prlog.org
LI-1080-14,OPP-2487-33,AID-0865-19,Taddeo Glowinski,Shannon,+55 (883) 642-6762,tglowinskift@myspace.com
LI-8523-55,OPP-5609-51,AID-4173-84,Lynnea Barehead,Carlow,+62 (292) 162-8407,lbareheadfu@un.org
LI-2101-75,OPP-0795-41,AID-8814-45,Maisie Boumphrey,Naas,+62 (504) 523-7156,mboumphreyfv@columbia.edu
LI-9273-23,OPP-5660-51,AID-0565-74,Kylie Malkinson,Port Laoise,+84 (677) 210-0499,kmalkinsonfw@a8.net
LI-8286-07,OPP-6768-38,AID-0270-07,Natala Frostdick,Naas,+86 (906) 919-0371,nfrostdickfx@wordpress.org
LI-6726-32,OPP-2769-23,AID-4476-18,Sheelah MacCroary,Carlow,+86 (316) 177-6350,smaccroaryfy@ucoz.ru
LI-7400-31,OPP-4632-44,AID-1185-48,Rutger Parken,Shannon,+92 (605) 968-3360,rparkenfz@chron.com
LI-5534-34,OPP-6500-01,AID-8851-79,Claire Dowears,Carlow,+86 (412) 146-1258,cdowearsg0@wikipedia.org
LI-3502-71,OPP-2362-08,AID-2024-09,Jennee Leaf,Carlow,+84 (538) 666-0296,jleafg1@comcast.net
LI-8384-38,OPP-7106-95,AID-4344-30,Gratiana Cavilla,Carlow,+385 (365) 650-8887,gcavillag2@jigsy.com
LI-4676-07,OPP-7306-60,AID-9007-70,Sheffy Leman,Carlow,+86 (270) 985-5313,slemang3@nytimes.com
LI-8059-01,OPP-9981-41,AID-7267-17,Sioux Cavendish,Carlow,+1 (321) 798-3866,scavendishg4@twitter.com
LI-0533-54,OPP-2072-83,AID-8040-83,Chris Jennick,Shannon,+62 (771) 498-4932,cjennickg5@technorati.com
LI-5342-47,OPP-9414-72,AID-0161-13,Urbano Wellesley,Carlow,+62 (904) 121-4227,uwellesleyg6@answers.com
LI-9636-45,OPP-1790-34,AID-2987-55,Robin McCaskill,Shannon,+86 (173) 765-2459,rmccaskillg7@tmall.com
LI-3099-24,OPP-4942-85,AID-8108-44,Beauregard Lamont,Naas,+66 (576) 571-6042,blamontg8@newyorker.com
LI-4118-36,OPP-4264-44,AID-1081-17,June Turford,Naas,+86 (148) 674-8537,jturfordg9@sakura.ne.jp
LI-6510-41,OPP-2963-62,AID-3243-12,Arabelle Paullin,Naas,+381 (293) 968-0977,apaullinga@examiner.com
LI-9257-59,OPP-8747-29,AID-1111-20,Steffen Manis,Carlow,+86 (405) 517-3888,smanisgb@flavors.me
LI-8989-15,OPP-7034-11,AID-7649-78,Ives Filshin,Lismore,+81 (420) 116-7088,ifilshingc@omniture.com
LI-6126-90,OPP-9864-08,AID-5742-64,Shoshana Rablin,Carlow,+81 (333) 573-6541,srablingd@youku.com
LI-5883-83,OPP-9827-36,AID-4847-15,Ambur Crew,Carlow,+86 (159) 382-6003,acrewge@weibo.com
LI-7471-95,OPP-0356-27,AID-0411-25,Bunni Panniers,Carlow,+81 (556) 375-0928,bpanniersgf@addthis.com
LI-2438-06,OPP-2918-64,AID-6657-21,Alasteir Esch,Shannon,+1 (304) 630-5091,aeschgg@slideshare.net
LI-5922-23,OPP-0754-67,AID-6717-57,Belinda Mercik,Carlow,+249 (338) 520-3121,bmercikgh@rambler.ru
LI-4225-49,OPP-6689-35,AID-6326-88,Pandora Deport,Naas,+880 (774) 280-7556,pdeportgi@deliciousdays.com
LI-8695-46,OPP-0038-56,AID-1874-50,Leupold Grundey,Carlow,+385 (655) 926-6056,lgrundeygj@economist.com
LI-5387-52,OPP-2191-93,AID-9593-43,Rivy Ingry,Lismore,+55 (112) 941-8339,ringrygk@microsoft.com
LI-8572-97,OPP-7922-05,AID-2587-97,Byram Hedge,Carlow,+1 (216) 602-0138,bhedgegl@cdbaby.com
LI-5068-98,OPP-1741-79,AID-7145-46,Candis Adds,Carlow,+81 (940) 895-2296,caddsgm@reference.com
LI-3819-09,OPP-8281-79,AID-7401-41,Bennett Ravenscroft,Carlow,+86 (345) 393-3394,bravenscroftgn@japanpost.jp
LI-6714-30,OPP-3558-38,AID-2738-31,Crin O'Coskerry,Naas,+880 (690) 607-5984,cocoskerrygo@a8.net
LI-2469-25,OPP-6330-35,AID-5728-80,Amelie Tomasi,Carlow,+30 (116) 148-1927,atomasigp@netvibes.com
LI-0210-92,OPP-5253-38,AID-3662-04,Paloma Lidden,Carlow,+242 (524) 259-2288,pliddengq@businessweek.com
LI-0044-30,OPP-5059-36,AID-9517-49,Aretha Trewin,Shannon,+86 (414) 177-1598,atrewingr@nytimes.com
LI-2775-61,OPP-5048-32,AID-3813-42,Antonio Keemer,Carlow,+62 (671) 432-0701,akeemergs@zdnet.com
LI-3323-00,OPP-8928-57,AID-3255-54,Gina Balint,Carlow,+86 (425) 880-2193,gbalintgt@opensource.org
LI-6915-37,OPP-9104-59,AID-3087-94,Amy Hoys,Carlow,+62 (374) 227-5566,ahoysgu@oakley.com
LI-9187-48,OPP-8296-11,AID-9868-78,Sula Spellesy,Shannon,+54 (328) 908-4637,sspellesygv@ebay.co.uk
LI-6607-28,OPP-3574-56,AID-0768-38,Sergei Ivashov,Shannon,+962 (815) 544-4678,sivashovgw@typepad.com
LI-5936-17,OPP-7229-81,AID-6117-82,Mateo Roset,Shannon,+507 (437) 946-5692,mrosetgx@hibu.com
LI-7536-76,OPP-1342-66,AID-2676-68,Davey Caunt,Lismore,+351 (978) 973-0019,dcauntgy@youtube.com
LI-9484-30,OPP-2919-11,AID-5297-44,Myra Easeman,Carlow,+7 (282) 860-5916,measemangz@purevolume.com
LI-1371-94,OPP-6464-18,AID-9964-28,Guglielmo Mc Gorley,Carlow,+254 (363) 795-3863,gmch0@stumbleupon.com
LI-2849-77,OPP-8258-73,AID-9503-10,Rafaela Finden,Carlow,+54 (555) 821-7432,rfindenh1@163.com
LI-5927-08,OPP-2316-81,AID-7933-13,Midge Rofe,Shannon,+962 (666) 979-5985,mrofeh2@usa.gov
LI-7328-74,OPP-3164-43,AID-4444-01,Kerwinn Godthaab,Lismore,+62 (800) 969-7000,kgodthaabh3@goo.ne.jp
LI-0492-26,OPP-6974-38,AID-0541-52,Jeramey McGuane,Shannon,+86 (914) 751-0609,jmcguaneh4@typepad.com
LI-6069-38,OPP-4046-34,AID-0947-52,Pasquale Losel,Shannon,+1 (951) 823-5946,ploselh5@bloglovin.com
LI-3276-29,OPP-8372-99,AID-2252-62,Codi Konneke,Carlow,+216 (674) 726-1252,ckonnekeh6@webnode.com
LI-7913-44,OPP-3990-12,AID-2929-22,Juliette Gibben,Carlow,+92 (455) 699-8918,jgibbenh7@parallels.com
LI-9032-09,OPP-3268-41,AID-4963-95,Lotte Croft,Shannon,+46 (430) 228-9287,lcrofth8@multiply.com
LI-7498-56,OPP-1305-56,AID-3949-69,Cchaddie Tester,Naas,+66 (651) 463-8151,ctesterh9@deliciousdays.com
LI-7282-99,OPP-2926-22,AID-9329-37,Mathias Grzegorzewicz,Carlow,+1 (233) 204-6446,mgrzegorzewiczha@ftc.gov
LI-8988-40,OPP-5686-59,AID-2096-31,Margo Woolgar,Shannon,+234 (362) 764-8823,mwoolgarhb@hp.com
LI-2275-04,OPP-5202-91,AID-3099-24,Juieta Mowson,Carlow,+51 (345) 952-5586,jmowsonhc@digg.com
LI-7690-19,OPP-1619-30,AID-8316-83,Randal Summerly,Dublin,+63 (489) 441-7424,rsummerlyhd@google.cn
LI-2193-01,OPP-2128-39,AID-9718-64,Rori Rizzelli,Carlow,+86 (989) 854-4114,rrizzellihe@about.com
LI-1693-39,OPP-9806-63,AID-8545-85,Gaelan Mustard,Carlow,+351 (881) 685-0428,gmustardhf@spiegel.de
LI-9995-59,OPP-8395-20,AID-0147-45,Cindy Lavallie,Carlow,+51 (781) 515-2090,clavalliehg@microsoft.com
LI-5535-46,OPP-9938-08,AID-9798-47,Monique Cade,Carlow,+44 (824) 715-1914,mcadehh@uiuc.edu
LI-3972-75,OPP-1821-38,AID-3845-38,Stephi Fairhurst,Carlow,+48 (328) 248-9135,sfairhursthi@icio.us
LI-3288-07,OPP-5359-01,AID-1046-33,Sergent Speechly,Lismore,+63 (437) 198-4449,sspeechlyhj@e-recht24.de
LI-6526-43,OPP-6991-67,AID-1969-05,Konstanze Biddwell,Shannon,+86 (880) 600-2991,kbiddwellhk@go.com
LI-5952-61,OPP-6992-43,AID-4817-96,Dorian Dundridge,Carlow,+237 (162) 433-3621,ddundridgehl@constantcontact.com
LI-7675-99,OPP-8501-52,AID-5071-18,Jocelyn Duke,Shannon,+886 (493) 905-5718,jdukehm@columbia.edu
LI-9822-61,OPP-9851-57,AID-7971-55,Natty O'Heffernan,Carlow,+48 (706) 424-7335,noheffernanhn@ucla.edu
LI-8237-73,OPP-0785-23,AID-1183-32,Quinlan Goning,Naas,+86 (301) 767-2173,qgoningho@edublogs.org
LI-0923-14,OPP-6917-22,AID-9593-22,Kinsley Rembrandt,Shannon,+237 (727) 136-4899,krembrandthp@sbwire.com
LI-1260-37,OPP-9929-35,AID-0293-27,Aurelia Marfe,Carlow,+62 (468) 326-4311,amarfehq@phoca.cz
LI-9456-21,OPP-9308-18,AID-8925-24,Emmi Pedrocchi,Shannon,+351 (229) 720-1773,epedrocchihr@gravatar.com
LI-1969-15,OPP-7760-26,AID-9873-49,Dari Wisden,Carlow,+970 (351) 578-4244,dwisdenhs@163.com
LI-0325-35,OPP-6058-42,AID-1420-99,Honoria Giffon,Naas,+386 (587) 707-4187,hgiffonht@tuttocitta.it
LI-0192-03,OPP-4670-27,AID-1337-24,Lannie Poundsford,Lismore,+62 (110) 518-8964,lpoundsfordhu@bbc.co.uk
LI-4136-04,OPP-3735-67,AID-2127-82,Ariella Findlater,Carlow,+63 (560) 714-5109,afindlaterhv@berkeley.edu
LI-8254-34,OPP-4989-21,AID-6297-38,Pooh Wisdom,Carlow,+52 (150) 137-5094,pwisdomhw@unc.edu
LI-0764-71,OPP-8616-45,AID-6222-27,Ase Whittock,Carlow,+880 (846) 214-3509,awhittockhx@uiuc.edu
LI-5173-52,OPP-2342-50,AID-1116-27,Alastair Smallcomb,Naas,+33 (585) 106-7478,asmallcombhy@myspace.com
LI-6172-73,OPP-3786-80,AID-4588-62,Shurwood O'Hanlon,Dublin,+33 (843) 692-0299,sohanlonhz@salon.com
LI-2768-46,OPP-8902-30,AID-0975-99,Yancey Gooda,Carlow,+7 (560) 687-5228,ygoodai0@addtoany.com
LI-0766-98,OPP-9307-52,AID-3873-23,Doralynne Liddle,Carlow,+351 (562) 474-3209,dliddlei1@hud.gov
LI-0937-76,OPP-3188-48,AID-7948-08,Griffith Merryweather,Shannon,+238 (456) 798-2028,gmerryweatheri2@miitbeian.gov.cn
LI-4159-52,OPP-4181-50,AID-6827-51,Linet Ramsden,Shannon,+58 (808) 510-1622,lramsdeni3@example.com
LI-0013-89,OPP-7651-59,AID-6129-85,Ursulina Haryngton,Carlow,+31 (420) 873-3830,uharyngtoni4@mtv.com
LI-6133-49,OPP-3254-93,AID-1138-45,Mada Threadgall,Carlow,+30 (800) 157-6216,mthreadgalli5@dropbox.com
LI-6823-43,OPP-0571-34,AID-8952-15,Melisandra Allender,Carlow,+63 (274) 888-4270,mallenderi6@plala.or.jp
LI-5243-07,OPP-5323-22,AID-1106-00,Rhetta Lyptratt,Carlow,+387 (556) 340-4353,rlyptratti7@edublogs.org
LI-4066-92,OPP-4354-02,AID-3091-24,Grissel Bankes,Carlow,+33 (746) 448-2462,gbankesi8@free.fr
LI-1302-35,OPP-1809-61,AID-1274-60,Beulah Loeber,Carlow,+49 (182) 301-0415,bloeberi9@aboutads.info
LI-5637-72,OPP-1774-94,AID-2899-59,Doretta Yair,Naas,+86 (289) 951-5573,dyairia@answers.com
LI-5174-59,OPP-0754-14,AID-7816-32,Linoel Baltrushaitis,Carlow,+66 (566) 161-0309,lbaltrushaitisib@blinklist.com
LI-0553-14,OPP-5616-18,AID-1140-16,Alejandra Ebenezer,Carlow,+86 (969) 461-5409,aebenezeric@arstechnica.com
LI-1687-37,OPP-9545-35,AID-9742-94,Enrica Orehead,Carlow,+86 (994) 337-0184,eoreheadid@linkedin.com
LI-3137-78,OPP-5185-31,AID-5676-60,Evelina Rasch,Lismore,+7 (931) 751-8122,eraschie@wix.com
LI-1637-81,OPP-3134-79,AID-4624-43,Shirley DelaField,Naas,+249 (462) 350-2612,sdelafieldif@infoseek.co.jp
LI-9675-54,OPP-5640-05,AID-5158-69,Stanton Beacom,Carlow,+48 (528) 822-3304,sbeacomig@abc.net.au
LI-4996-78,OPP-9949-99,AID-6486-93,Sibella Defond,Shannon,+52 (495) 378-7383,sdefondih@ihg.com
LI-1267-16,OPP-9652-17,AID-4213-24,Jordain O'Hanley,Carlow,+86 (539) 480-4869,johanleyii@netvibes.com
LI-9620-43,OPP-2221-71,AID-2835-48,Guillermo D'Ruel,Carlow,+48 (616) 514-4867,gdruelij@biglobe.ne.jp
LI-4550-96,OPP-8082-29,AID-6391-12,Rogerio Clementucci,Carlow,+48 (200) 538-5337,rclementucciik@51.la
LI-0092-18,OPP-6977-74,AID-3112-67,Coraline Berthod,Shannon,+370 (386) 670-5823,cberthodil@cornell.edu
LI-7074-91,OPP-9311-26,AID-1911-95,Fifine Costelloe,Carlow,+86 (426) 130-9051,fcostelloeim@networkadvertising.org
LI-8969-16,OPP-0987-38,AID-2204-67,Rozalie Snoding,Carlow,+598 (480) 292-0257,rsnodingin@istockphoto.com
LI-2329-31,OPP-7692-66,AID-9296-45,Maire Boyes,Carlow,+33 (274) 242-7127,mboyesio@sciencedaily.com
LI-8536-65,OPP-3023-99,AID-2250-75,Rosemonde Skevington,Carlow,+48 (103) 303-9121,rskevingtonip@telegraph.co.uk
LI-8290-47,OPP-3520-30,AID-9071-88,Andrey Dandie,Swords,+62 (554) 275-7235,adandieiq@meetup.com
LI-4887-73,OPP-4826-55,AID-6027-63,Jerad Kift,Shannon,+354 (166) 737-3705,jkiftir@histats.com
LI-1160-66,OPP-1344-07,AID-4064-76,Cheslie Aldgate,Shannon,+86 (771) 655-1246,caldgateis@xinhuanet.com
LI-5084-79,OPP-6121-42,AID-0666-88,Ode Cullinan,Shannon,+55 (981) 982-4302,ocullinanit@google.es
LI-4690-63,OPP-4543-58,AID-9546-94,Torre Mariner,Carlow,+86 (125) 820-0989,tmarineriu@artisteer.com
LI-0573-10,OPP-4685-50,AID-8389-30,Erie Critchlow,Carlow,+33 (168) 528-1095,ecritchlowiv@abc.net.au
LI-6787-57,OPP-5360-57,AID-7463-39,Sissie Ledley,Carlow,+505 (258) 603-0133,sledleyiw@techcrunch.com
LI-3291-13,OPP-5097-36,AID-4036-11,Hobart Barreau,Carlow,+62 (928) 997-2359,hbarreauix@unc.edu
LI-9810-15,OPP-9969-25,AID-2478-21,Chanda Chessum,Carlow,+62 (343) 446-2018,cchessumiy@gnu.org
LI-6666-28,OPP-0871-20,AID-9531-34,Kristian Berrill,Shannon,+63 (528) 159-1799,kberrilliz@histats.com
LI-3801-36,OPP-1356-15,AID-2684-18,Lizbeth Crudginton,Carlow,+994 (388) 704-2918,lcrudgintonj0@pcworld.com
LI-7726-16,OPP-3242-25,AID-2086-84,Susy Gertray,Shannon,+81 (590) 385-2672,sgertrayj1@imageshack.us
LI-2965-33,OPP-5444-03,AID-0689-59,Mia Stichel,Carlow,+86 (538) 444-1887,mstichelj2@springer.com
LI-4434-91,OPP-6041-62,AID-5683-28,Addy Mars,Carlow,+1 (571) 742-9431,amarsj3@bbb.org
LI-6443-39,OPP-2939-35,AID-2898-49,Norrie Gasker,Carlow,+86 (748) 385-4146,ngaskerj4@1und1.de
LI-4983-42,OPP-4073-77,AID-4908-99,Ellette Thornborrow,Shannon,+258 (301) 372-3657,ethornborrowj5@github.com
LI-1675-21,OPP-4102-07,AID-9967-76,Evyn Hamerton,Carlow,+86 (443) 284-2587,ehamertonj6@e-recht24.de
LI-2600-22,OPP-2863-36,AID-6875-76,Kalie Caccavella,Carlow,+254 (698) 234-3644,kcaccavellaj7@cornell.edu
LI-8038-75,OPP-0105-05,AID-7033-33,Ailyn Longford,Shannon,+46 (830) 403-8783,alongfordj8@tumblr.com
LI-2287-15,OPP-0952-07,AID-8539-65,Madalena Fraschetti,Lismore,+591 (464) 457-3196,mfraschettij9@spiegel.de
LI-9643-07,OPP-4982-34,AID-0181-35,Lane Dimock,Shannon,+966 (272) 590-3158,ldimockja@cargocollective.com
LI-0942-89,OPP-0979-02,AID-8591-01,Gibbie Gashion,Carlow,+48 (253) 504-0036,ggashionjb@nhs.uk
LI-5569-43,OPP-1676-77,AID-2868-69,Issiah Stirman,Carlow,+420 (890) 984-1547,istirmanjc@unicef.org
LI-6599-31,OPP-1693-32,AID-2325-32,Winfield Jouanot,Port Laoise,+86 (755) 988-0251,wjouanotjd@indiatimes.com
LI-9579-90,OPP-9795-51,AID-0309-81,Lutero Westney,Carlow,+54 (881) 456-7914,lwestneyje@sakura.ne.jp
LI-2478-94,OPP-9054-66,AID-7233-87,Berni Ambrosetti,Carlow,+98 (942) 104-3215,bambrosettijf@springer.com
LI-8267-35,OPP-9324-75,AID-8822-21,Abbi Hunnicutt,Carlow,+54 (444) 312-4730,ahunnicuttjg@feedburner.com
LI-4505-82,OPP-0203-23,AID-0204-18,Arty Stockton,Naas,+33 (831) 353-3000,astocktonjh@live.com
LI-9177-85,OPP-2230-11,AID-3429-24,Catina Schwandermann,Carlow,+86 (310) 530-8095,cschwandermannji@topsy.com
LI-9954-99,OPP-8553-93,AID-0271-78,Tymon Dabling,Lismore,+62 (185) 978-0008,tdablingjj@woothemes.com
LI-6389-68,OPP-2030-83,AID-4157-59,Elysee Tomasello,Carlow,+7 (212) 992-6065,etomasellojk@drupal.org
LI-8456-14,OPP-1414-87,AID-8688-52,Rickard Conochie,Limerick,+48 (125) 973-5501,rconochiejl@rediff.com
LI-0970-12,OPP-6902-63,AID-5802-19,Robb Bulfoy,Carlow,+7 (491) 247-0601,rbulfoyjm@imgur.com
LI-8016-42,OPP-6722-71,AID-3383-62,Paton Bridgement,Shannon,+66 (264) 660-5470,pbridgementjn@slashdot.org
LI-2271-14,OPP-8376-64,AID-1889-90,Ebony Pilipets,Carlow,+57 (578) 315-9543,epilipetsjo@pagesperso-orange.fr
LI-6370-03,OPP-6248-89,AID-5519-39,Sonnie Jarrad,Lismore,+86 (541) 182-1989,sjarradjp@google.it
LI-7561-60,OPP-3191-24,AID-6124-59,Ashien Dutch,Shannon,+995 (553) 874-3705,adutchjq@barnesandnoble.com
LI-8048-79,OPP-2707-04,AID-0057-23,Burnard Baldacchino,Shannon,+86 (463) 502-1648,bbaldacchinojr@tuttocitta.it
LI-2681-21,OPP-3061-53,AID-3664-66,Bordy Arsnell,Naas,+886 (293) 909-1656,barsnelljs@reuters.com
LI-8551-85,OPP-9711-13,AID-5362-51,Vallie Risson,Carlow,+970 (189) 892-9518,vrissonjt@domainmarket.com
LI-0892-36,OPP-0990-58,AID-3154-50,Mirilla Shenfisch,Carlow,+372 (324) 709-8965,mshenfischju@nbcnews.com
LI-8545-62,OPP-5139-43,AID-3306-72,Margarethe Duckitt,Naas,+62 (358) 322-1006,mduckittjv@geocities.jp
LI-4789-01,OPP-8537-00,AID-3136-89,Delmer Spendley,Shannon,+7 (596) 966-6177,dspendleyjw@howstuffworks.com
LI-1711-55,OPP-3506-89,AID-9410-40,Farrand Sivior,Carlow,+255 (420) 164-0961,fsiviorjx@ibm.com
LI-4790-60,OPP-5082-60,AID-7644-53,Kory Sunderland,Carlow,+420 (366) 219-6929,ksunderlandjy@prweb.com
LI-3894-10,OPP-7951-81,AID-4186-36,Tera Warde,Port Laoise,+47 (559) 195-5507,twardejz@jugem.jp
LI-8566-56,OPP-7891-46,AID-7657-41,Micah Jannex,Shannon,+86 (657) 878-3736,mjannexk0@sfgate.com
LI-6650-87,OPP-1522-99,AID-2960-52,Kipp Clegg,Carlow,+57 (586) 223-5180,kcleggk1@webeden.co.uk
LI-0693-42,OPP-6981-98,AID-1993-07,Paulette Dryden,Naas,+62 (802) 337-2442,pdrydenk2@dropbox.com
LI-6793-94,OPP-9338-04,AID-9973-02,Abbye Leask,Carlow,+48 (661) 972-2690,aleaskk3@ebay.com
LI-8168-32,OPP-0164-31,AID-9475-14,Shina Gaskoin,Carlow,+33 (646) 878-4076,sgaskoink4@berkeley.edu
LI-8408-46,OPP-6613-38,AID-1199-14,Caterina Pechard,Carlow,+52 (355) 698-7584,cpechardk5@usda.gov
LI-7240-63,OPP-3463-05,AID-9716-22,Caldwell Scatcher,Carlow,+62 (292) 525-2618,cscatcherk6@mapy.cz
LI-8399-50,OPP-5351-47,AID-3676-58,Curcio Playford,Carlow,+374 (575) 169-8827,cplayfordk7@qq.com
LI-7854-67,OPP-3602-85,AID-1833-86,Carmelita Vinker,Naas,+420 (236) 684-6327,cvinkerk8@census.gov
LI-3905-07,OPP-9927-10,AID-6766-25,Chrysa Turbefield,Naas,+389 (744) 510-9008,cturbefieldk9@dedecms.com
LI-0153-83,OPP-2469-45,AID-1048-43,Porty Laffin,Carlow,+51 (295) 303-2576,plaffinka@unesco.org
LI-2535-04,OPP-9180-53,AID-1043-63,Gannon Foakes,Carlow,+504 (646) 197-7916,gfoakeskb@sogou.com
LI-7262-79,OPP-3706-75,AID-0976-26,Domeniga Duffitt,Carlow,+62 (743) 408-4987,dduffittkc@bigcartel.com
LI-3800-11,OPP-2455-94,AID-2132-87,Belicia Gurnett,Naas,+62 (875) 282-3457,bgurnettkd@soup.io
LI-6136-53,OPP-0193-68,AID-9232-65,Rriocard Blaase,Carlow,+7 (463) 821-7934,rblaaseke@cargocollective.com
LI-4402-83,OPP-8153-23,AID-5128-27,Rubina Gullis,Shannon,+55 (266) 463-1463,rgulliskf@baidu.com
LI-3821-39,OPP-3050-31,AID-8708-23,Caz Drohun,Carlow,+351 (441) 295-0235,cdrohunkg@canalblog.com
LI-5665-67,OPP-4867-20,AID-6577-48,Brewer Ubee,Naas,+86 (107) 246-0622,bubeekh@army.mil
LI-9090-40,OPP-8750-68,AID-7588-87,Munroe Puleque,Carlow,+86 (826) 406-2326,mpulequeki@github.io
LI-1013-68,OPP-2127-75,AID-1829-63,Ilyssa Ockwell,Carlow,+63 (230) 734-6003,iockwellkj@yale.edu
LI-4770-23,OPP-8847-19,AID-8250-59,Amberly Potts,Lismore,+351 (672) 726-9751,apottskk@globo.com
LI-1313-11,OPP-8844-79,AID-4728-17,Niles Bauldry,Carlow,+48 (114) 574-5351,nbauldrykl@europa.eu
LI-1663-29,OPP-7069-17,AID-2568-68,Wilhelm Mattingson,Shannon,+975 (761) 890-9974,wmattingsonkm@desdev.cn
LI-3599-51,OPP-7560-83,AID-1473-15,Giulio Sirey,Lismore,+86 (858) 672-8405,gsireykn@bloglines.com
LI-1284-56,OPP-0803-80,AID-5864-70,Ruy Staker,Naas,+1 (590) 617-1820,rstakerko@xrea.com
LI-3727-34,OPP-0663-81,AID-7848-41,Helen Castanares,Carlow,+7 (528) 318-0554,hcastanareskp@studiopress.com
LI-4474-81,OPP-8878-07,AID-6417-66,Chrissy Tuppeny,Carlow,+86 (467) 547-4672,ctuppenykq@unicef.org
LI-0056-57,OPP-9419-18,AID-9310-84,Zared Goodsell,Shannon,+51 (335) 629-6700,zgoodsellkr@sphinn.com
LI-5067-38,OPP-0853-54,AID-7091-47,Lanette Blazek,Shannon,+86 (371) 169-1443,lblazekks@harvard.edu
LI-4969-17,OPP-6164-33,AID-5577-55,Alphard Coucha,Naas,+33 (378) 155-0124,acouchakt@marketwatch.com
LI-9697-44,OPP-6587-04,AID-2550-56,Ettie Izkovicz,Carlow,+385 (927) 164-5929,eizkoviczku@princeton.edu
LI-8522-56,OPP-6221-11,AID-6190-17,Winthrop Sloam,Shannon,+55 (948) 911-0970,wsloamkv@vimeo.com
LI-2208-94,OPP-8867-21,AID-1440-13,Wynn Elsmore,Carlow,+86 (523) 101-4894,welsmorekw@yahoo.co.jp
LI-9319-07,OPP-5089-06,AID-8977-49,Hansiain Lie,Carlow,+58 (632) 303-3139,hliekx@ask.com
LI-7456-38,OPP-6403-91,AID-7198-57,Zedekiah Aleksankov,Shannon,+46 (735) 713-1730,zaleksankovky@constantcontact.com
LI-6503-69,OPP-9515-00,AID-5893-76,Bernie Bartalin,Carlow,+34 (596) 206-5484,bbartalinkz@histats.com
LI-6178-27,OPP-5081-65,AID-6057-93,Constantia Laite,Carlow,+52 (971) 404-9678,claitel0@hp.com
LI-9974-91,OPP-4572-57,AID-5053-49,Prescott Weins,Carlow,+420 (443) 869-6165,pweinsl1@nsw.gov.au
LI-0410-27,OPP-6796-18,AID-3244-02,Liane De la croix,Naas,+1 (360) 729-1528,ldel2@networksolutions.com
LI-4399-46,OPP-6805-86,AID-7405-06,Jena Quaintance,Carlow,+62 (678) 622-5757,jquaintancel3@plala.or.jp
LI-1232-30,OPP-1454-00,AID-9138-07,Lyle Navarre,Shannon,+382 (443) 535-4836,lnavarrel4@nifty.com
LI-6079-59,OPP-0952-98,AID-4158-99,Linette Moizer,Carlow,+49 (500) 427-1111,lmoizerl5@hud.gov
LI-0229-61,OPP-3836-92,AID-7194-66,Charlot Zimmerman,Carlow,+62 (343) 481-8547,czimmermanl6@chron.com
LI-6705-33,OPP-2406-06,AID-7527-74,Tyson Spiring,Lismore,+7 (360) 272-9005,tspiringl7@mashable.com
LI-0981-26,OPP-9297-64,AID-8910-08,Lela Giovanazzi,Carlow,+351 (746) 436-2696,lgiovanazzil8@time.com
LI-4245-08,OPP-7161-19,AID-7016-68,Leonard Colisbe,Carlow,+86 (303) 172-4396,lcolisbel9@photobucket.com
LI-9406-18,OPP-5122-20,AID-4048-12,Lisle Gherardesci,Shannon,+355 (631) 259-3972,lgherardescila@com.com
LI-9158-86,OPP-8878-99,AID-0060-37,Rolland Selland,Shannon,+33 (101) 722-5249,rsellandlb@sciencedaily.com
LI-7458-84,OPP-7671-20,AID-3042-27,Will Kment,Carlow,+62 (339) 102-1416,wkmentlc@digg.com
LI-4077-03,OPP-7848-43,AID-0592-20,Nanine Forson,Naas,+55 (173) 422-2026,nforsonld@reddit.com
LI-7037-39,OPP-8891-74,AID-7153-95,Maggi Domsalla,Shannon,+385 (186) 537-5583,mdomsallale@google.com.hk
LI-4438-51,OPP-8629-32,AID-0184-42,Abbie Luebbert,Carlow,+62 (583) 846-2868,aluebbertlf@discuz.net
LI-7514-38,OPP-5072-67,AID-3721-73,Marice Bletso,Lismore,+357 (303) 150-2599,mbletsolg@weibo.com
LI-2386-69,OPP-6051-40,AID-1151-10,Tammy Douthwaite,Naas,+7 (803) 670-4924,tdouthwaitelh@ft.com
LI-3234-81,OPP-9926-19,AID-7642-58,Peri Gotling,Carlow,+371 (414) 429-1818,pgotlingli@gov.uk
LI-2086-20,OPP-5172-20,AID-4311-95,Gaylor Pougher,Carlow,+237 (279) 465-2722,gpougherlj@imgur.com
LI-2453-55,OPP-6558-91,AID-2583-50,Magdaia Burgoin,Carlow,+55 (254) 766-7366,mburgoinlk@acquirethisname.com
LI-1808-71,OPP-8294-08,AID-3272-70,Martynne Richardeau,Carlow,+7 (540) 369-1983,mrichardeaull@boston.com
LI-9986-99,OPP-2566-83,AID-4684-54,Mozes Adaway,Lismore,+63 (716) 606-8238,madawaylm@ow.ly
LI-0088-69,OPP-6145-49,AID-8465-49,Colette Wurz,Carlow,+62 (812) 195-1829,cwurzln@springer.com
LI-4387-94,OPP-1575-59,AID-7798-06,Eveline Belf,Shannon,+56 (440) 169-9112,ebelflo@fema.gov
LI-4031-46,OPP-2979-41,AID-1830-85,Aron Juggins,Naas,+86 (384) 973-1565,ajugginslp@creativecommons.org
LI-9765-70,OPP-9483-16,AID-4272-32,Marabel MacGiolla,Carlow,+7 (360) 345-2749,mmacgiollalq@t.co
LI-2823-93,OPP-6487-88,AID-8959-28,Wald Cesco,Carlow,+57 (684) 968-4851,wcescolr@senate.gov
LI-8988-51,OPP-7370-77,AID-1806-02,Dionne Spinnace,Carlow,+504 (393) 591-6932,dspinnacels@china.com.cn
LI-9744-82,OPP-7845-02,AID-5044-99,Rolph Tourville,Carlow,+62 (408) 935-5107,rtourvillelt@dailymotion.com
LI-5261-15,OPP-0809-30,AID-0722-27,Linette Anneslie,Shannon,+86 (922) 979-1994,lanneslielu@blogtalkradio.com
LI-2066-49,OPP-3074-27,AID-9694-90,Brooks Woolcocks,Carlow,+55 (642) 530-3946,bwoolcockslv@deviantart.com
LI-1919-04,OPP-2495-05,AID-1260-92,Hersch Penreth,Shannon,+1 (301) 465-8477,hpenrethlw@comsenz.com
LI-0450-39,OPP-7575-38,AID-0389-43,Cordelie Hulbert,Carlow,+504 (619) 107-5631,chulbertlx@fc2.com
LI-0285-95,OPP-7931-92,AID-7789-03,Sancho Darmody,Carlow,+86 (194) 743-7970,sdarmodyly@latimes.com
LI-7227-95,OPP-5769-22,AID-8565-95,Paulie Park,Shannon,+850 (502) 548-8033,pparklz@parallels.com
LI-2642-76,OPP-7888-85,AID-3335-00,Danielle Augie,Naas,+86 (315) 896-4588,daugiem0@shop-pro.jp
LI-6342-83,OPP-3145-92,AID-5467-52,Kimbra Persse,Carlow,+86 (664) 559-6469,kperssem1@nymag.com
LI-2325-80,OPP-9637-81,AID-2936-58,Ronalda Paolino,Carlow,+242 (967) 168-2549,rpaolinom2@elegantthemes.com
LI-6661-87,OPP-0849-60,AID-3054-51,Vinnie Deares,Shannon,+33 (723) 703-4925,vdearesm3@networksolutions.com
LI-4424-74,OPP-9467-12,AID-2637-47,Raffaello Rittelmeyer,Naas,+92 (939) 953-5726,rrittelmeyerm4@reuters.com
LI-5436-00,OPP-8802-94,AID-1285-28,Katerine Broomfield,Carlow,+381 (654) 290-9077,kbroomfieldm5@dion.ne.jp
LI-0297-76,OPP-3494-54,AID-7883-02,Alisander Fannon,Shannon,+20 (495) 207-3231,afannonm6@istockphoto.com
LI-9953-75,OPP-3867-15,AID-9896-33,Angelita Hanna,Swords,+86 (984) 157-6112,ahannam7@yale.edu
LI-3590-48,OPP-1147-37,AID-4477-52,Aurilia Sahnow,Naas,+55 (382) 713-9415,asahnowm8@apple.com
LI-7365-47,OPP-0068-14,AID-7625-18,Carmel Oxterby,Carlow,+48 (791) 438-6067,coxterbym9@exblog.jp
LI-6017-80,OPP-9399-42,AID-5443-29,Arlen Simpole,Carlow,+57 (433) 390-2253,asimpolema@ucoz.ru
LI-7498-08,OPP-6184-65,AID-7114-52,Lonna Brookhouse,Carlow,+234 (628) 339-7234,lbrookhousemb@joomla.org
LI-2386-06,OPP-2350-68,AID-9251-33,Kessiah Mullins,Shannon,+86 (477) 700-8969,kmullinsmc@tuttocitta.it
LI-7769-01,OPP-8608-03,AID-0330-88,Rabi Jamblin,Carlow,+358 (410) 941-8865,rjamblinmd@mac.com
LI-6768-29,OPP-2643-32,AID-6382-65,Jed Chettle,Carlow,+55 (740) 484-6689,jchettleme@uiuc.edu
LI-4523-18,OPP-8966-48,AID-0366-91,Heddi Deeves,Naas,+30 (729) 112-1956,hdeevesmf@barnesandnoble.com
LI-3426-12,OPP-4165-68,AID-8290-40,Teddi Forrestor,Carlow,+509 (234) 213-0421,tforrestormg@goo.gl
LI-0062-26,OPP-0791-73,AID-3983-24,Micky Korlat,Shannon,+63 (255) 953-3146,mkorlatmh@tamu.edu
LI-2151-77,OPP-6679-38,AID-9935-32,Lenna Lanchester,Carlow,+52 (177) 519-0142,llanchestermi@cdbaby.com
LI-5570-83,OPP-3173-17,AID-0886-01,Benedikta Nunns,Carlow,+86 (213) 685-3912,bnunnsmj@barnesandnoble.com
LI-5994-78,OPP-4586-34,AID-5580-25,Phebe Dammarell,Carlow,+54 (626) 819-0899,pdammarellmk@mit.edu
LI-0330-46,OPP-8965-03,AID-7372-64,Abby Rowlings,Carlow,+27 (359) 118-5999,arowlingsml@hao123.com
LI-4230-26,OPP-7829-80,AID-1555-42,Corney Roscher,Shannon,+351 (254) 903-3002,croschermm@arstechnica.com
LI-6066-86,OPP-9000-52,AID-6813-96,Lurlene Covelle,Shannon,+86 (928) 115-2414,lcovellemn@squidoo.com
LI-0976-41,OPP-6724-66,AID-8195-54,Lacey Selwin,Shannon,+1 (620) 906-7200,lselwinmo@hugedomains.com
LI-1500-74,OPP-5354-03,AID-9945-98,Reginald Frisdick,Carlow,+81 (416) 871-5054,rfrisdickmp@linkedin.com
LI-2817-69,OPP-0929-42,AID-8057-90,Pepe Soonhouse,Carlow,+7 (312) 825-7043,psoonhousemq@eepurl.com
LI-8233-73,OPP-8370-37,AID-1676-45,Alphard Craxford,Shannon,+63 (866) 299-4440,acraxfordmr@youtu.be
LI-7740-58,OPP-5835-65,AID-1354-89,Renault Turmell,Carlow,+54 (486) 750-2764,rturmellms@free.fr
LI-3408-03,OPP-6759-02,AID-7649-84,Vail Gremain,Lismore,+371 (835) 186-9949,vgremainmt@friendfeed.com
LI-1488-17,OPP-0559-03,AID-2232-84,Crystie Davidovits,Shannon,+261 (337) 740-3233,cdavidovitsmu@sourceforge.net
LI-5591-61,OPP-6968-76,AID-4212-25,Avis Saunderson,Carlow,+86 (201) 128-9496,asaundersonmv@digg.com
LI-0483-81,OPP-0968-63,AID-1351-40,Alvina McGarel,Dublin,+86 (864) 351-7687,amcgarelmw@craigslist.org
LI-8139-82,OPP-7713-41,AID-0236-86,Barby Popeley,Lismore,+7 (367) 722-6254,bpopeleymx@exblog.jp
LI-9912-60,OPP-5856-75,AID-9931-58,Tybi Hopewell,Carlow,+234 (270) 497-4341,thopewellmy@ifeng.com
LI-2764-66,OPP-6580-93,AID-3463-76,Candra Legion,Carlow,+880 (847) 759-5943,clegionmz@prlog.org
LI-6141-92,OPP-3488-90,AID-2027-69,Nikola Nott,Naas,+33 (711) 851-3062,nnottn0@4shared.com
LI-6348-24,OPP-3941-76,AID-8997-65,Frederic Karlsen,Lismore,+63 (387) 107-8755,fkarlsenn1@npr.org
LI-5767-87,OPP-3641-21,AID-2632-27,Schuyler Ellse,Carlow,+977 (192) 720-2460,sellsen2@de.vu
LI-7500-28,OPP-3381-16,AID-3831-25,Savina Tremblot,Naas,+57 (517) 420-4844,stremblotn3@google.ca
LI-3598-84,OPP-8272-66,AID-0285-03,Parsifal Eginton,Shannon,+30 (744) 456-9443,pegintonn4@ucoz.com
LI-9170-61,OPP-7346-89,AID-9567-94,Gavan Beggin,Carlow,+998 (306) 371-5618,gbegginn5@reverbnation.com
LI-4743-71,OPP-0729-78,AID-5420-59,Jarred Dressel,Carlow,+52 (769) 521-3647,jdresseln6@ebay.com
LI-7912-49,OPP-0567-34,AID-7320-88,Drusilla McFee,Carlow,+62 (673) 547-1130,dmcfeen7@state.gov
LI-4889-91,OPP-1864-44,AID-8730-69,Elena Portugal,Shannon,+964 (236) 462-2106,eportugaln8@tinypic.com
LI-8304-22,OPP-6642-42,AID-9433-20,Amabelle Eppson,Shannon,+62 (184) 896-8506,aeppsonn9@dell.com
LI-5706-44,OPP-5995-44,AID-8947-75,Malena Bulfield,Shannon,+31 (147) 540-4467,mbulfieldna@usgs.gov
LI-9575-34,OPP-5611-09,AID-1472-15,Zia Clipston,Carlow,+86 (601) 219-4979,zclipstonnb@studiopress.com
LI-1611-59,OPP-7891-63,AID-3983-78,Johnath Donnel,Shannon,+82 (120) 907-3144,jdonnelnc@indiatimes.com
LI-5083-63,OPP-7991-48,AID-6189-35,Wanids Lamb-shine,Shannon,+62 (297) 418-1490,wlambshinend@dedecms.com
LI-7187-94,OPP-9394-22,AID-8139-08,Roland Gullen,Shannon,+62 (640) 406-6938,rgullenne@yahoo.com
LI-3099-85,OPP-3137-52,AID-5243-72,Chrisy Schirak,Carlow,+52 (842) 580-3285,cschiraknf@fastcompany.com
LI-7650-03,OPP-4759-03,AID-3369-95,Randi Begin,Carlow,+63 (502) 219-4209,rbeginng@rediff.com
LI-8335-58,OPP-4089-66,AID-1745-68,Tamiko Ainscough,Carlow,+55 (552) 962-2335,tainscoughnh@cbc.ca
LI-3975-95,OPP-7322-61,AID-8560-05,Josephina MacNamee,Carlow,+62 (606) 338-5245,jmacnameeni@uol.com.br
LI-3455-94,OPP-0325-89,AID-0174-19,Milena Daubney,Carlow,+1 (608) 380-4640,mdaubneynj@wikipedia.org
LI-2774-57,OPP-5787-37,AID-5447-03,Sofie Langsbury,Carlow,+385 (766) 607-4922,slangsburynk@nhs.uk
LI-8293-43,OPP-6203-78,AID-5929-90,Agathe Ridding,Limerick,+51 (633) 122-9615,ariddingnl@altervista.org
LI-2264-75,OPP-7868-51,AID-4272-63,Levon Littlejohn,Swords,+33 (701) 360-3589,llittlejohnnm@wikimedia.org
LI-5763-99,OPP-2679-56,AID-3111-34,Lewie Ivakhnov,Shannon,+977 (699) 579-6552,livakhnovnn@sciencedaily.com
LI-3767-09,OPP-5567-29,AID-8921-75,Harris Adey,Shannon,+86 (183) 899-4121,hadeyno@theguardian.com
LI-6934-56,OPP-9313-00,AID-3093-68,Brianne Narducci,Carlow,+7 (350) 552-9105,bnarduccinp@harvard.edu
LI-5586-64,OPP-2048-74,AID-1969-58,Dolores Studman,Carlow,+351 (624) 477-6658,dstudmannq@hc360.com
LI-8621-04,OPP-1278-16,AID-6725-43,Vincenz Gavaran,Lismore,+48 (211) 968-0175,vgavarannr@google.com.br
LI-3207-60,OPP-6335-11,AID-2637-35,Jeanelle Baldi,Naas,+351 (914) 522-6532,jbaldins@japanpost.jp
LI-6806-89,OPP-3306-55,AID-1930-60,Liv Topling,Shannon,+55 (899) 486-4901,ltoplingnt@gizmodo.com
LI-2088-79,OPP-4224-22,AID-5732-20,Rutledge Getsham,Lismore,+380 (260) 800-8963,rgetshamnu@storify.com
LI-4446-42,OPP-8716-62,AID-2892-42,Fredra Flew,Carlow,+86 (152) 112-5774,fflewnv@google.ca
LI-7154-92,OPP-7093-48,AID-0164-23,Cristen Borman,Dublin,+372 (480) 139-0672,cbormannw@parallels.com
LI-1302-72,OPP-8955-84,AID-3144-50,Si Flewan,Naas,+7 (547) 960-8023,sflewannx@yandex.ru
LI-7949-34,OPP-2052-02,AID-3246-95,Mariette Graves,Carlow,+48 (688) 420-5730,mgravesny@nhs.uk
LI-4618-10,OPP-1740-81,AID-0437-74,Isidoro Vaan,Carlow,+86 (947) 934-0396,ivaannz@msu.edu
LI-3402-34,OPP-9256-32,AID-6165-40,Brittan McDiarmid,Carlow,+591 (864) 358-1295,bmcdiarmido0@tuttocitta.it
LI-0808-73,OPP-8149-46,AID-8509-14,Bobbie Sykes,Carlow,+46 (959) 824-3328,bsykeso1@vkontakte.ru
LI-9596-80,OPP-2496-68,AID-7957-09,Cecilia Trussman,Lismore,+81 (347) 195-0196,ctrussmano2@prlog.org
LI-1137-51,OPP-3023-08,AID-1187-92,Barbara Bescoby,Carlow,+62 (190) 399-3547,bbescobyo3@unc.edu
LI-0393-92,OPP-2367-63,AID-5781-11,Westleigh Baudi,Swords,+86 (172) 518-6279,wbaudio4@hao123.com
LI-6467-96,OPP-8328-75,AID-0211-65,Papagena Stoffersen,Lismore,+1 (941) 211-1539,pstofferseno5@reddit.com
LI-9708-46,OPP-7984-42,AID-5123-18,Mimi Scrinage,Naas,+234 (677) 129-0424,mscrinageo6@timesonline.co.uk
LI-5668-27,OPP-5950-69,AID-1943-34,Pat Bluschke,Carlow,+53 (735) 571-0792,pbluschkeo7@list-manage.com
LI-9935-52,OPP-0324-04,AID-5575-03,Kathlin Gorthy,Carlow,+66 (665) 670-7718,kgorthyo8@canalblog.com
LI-8510-02,OPP-3317-22,AID-9535-61,Rinaldo Heskins,Carlow,+62 (381) 841-8614,rheskinso9@exblog.jp
LI-6281-60,OPP-2934-93,AID-9368-25,Barbara-anne Craise,Carlow,+86 (401) 562-5805,bcraiseoa@huffingtonpost.com
LI-3028-10,OPP-4667-62,AID-2093-79,Roselia Rays,Carlow,+351 (955) 742-6059,rraysob@joomla.org
LI-9832-95,OPP-6500-55,AID-1456-39,Blayne Ditter,Lismore,+30 (308) 604-4915,bditteroc@newsvine.com
LI-5912-05,OPP-0220-46,AID-2534-78,Myranda Kingsnorth,Carlow,+86 (508) 128-3666,mkingsnorthod@hexun.com
LI-4494-99,OPP-3930-42,AID-7256-83,Prisca Eastman,Carlow,+86 (457) 113-9475,peastmanoe@163.com
LI-0158-75,OPP-0644-88,AID-8452-94,Mattias Bogies,Shannon,+36 (374) 816-2521,mbogiesof@go.com
LI-1327-79,OPP-2963-45,AID-5420-75,Stacee Antwis,Carlow,+57 (876) 745-7768,santwisog@statcounter.com
LI-2468-15,OPP-1946-07,AID-8253-26,Leah Joysey,Carlow,+48 (629) 752-7277,ljoyseyoh@go.com
LI-5778-02,OPP-9442-43,AID-4122-91,Skipp Elce,Carlow,+62 (174) 107-0679,selceoi@vistaprint.com
LI-7260-07,OPP-1344-68,AID-4363-53,Kerri Clericoates,Carlow,+86 (581) 963-7279,kclericoatesoj@gmpg.org
LI-8704-08,OPP-4277-69,AID-2992-60,Cosmo Andrichak,Lismore,+420 (921) 357-7501,candrichakok@wikia.com
LI-8717-42,OPP-2787-18,AID-4739-88,Chane Allabarton,Lismore,+62 (901) 991-9263,callabartonol@edublogs.org
LI-5334-42,OPP-5695-66,AID-0187-82,Elisabeth Skim,Carlow,+86 (245) 800-1550,eskimom@sphinn.com
LI-5525-64,OPP-3638-07,AID-1406-55,Candis Debenham,Naas,+254 (632) 954-3249,cdebenhamon@mashable.com
LI-5692-53,OPP-5610-94,AID-6685-37,Derick Strivens,Carlow,+52 (587) 208-8207,dstrivensoo@springer.com
LI-2008-04,OPP-9282-75,AID-8953-68,Joshuah Winchcum,Port Laoise,+66 (959) 521-3541,jwinchcumop@ted.com
LI-6561-55,OPP-4315-84,AID-0998-49,Trace Hissie,Carlow,+56 (381) 494-0188,thissieoq@uiuc.edu
LI-5457-56,OPP-3997-12,AID-0060-57,Aldwin Cordrey,Carlow,+63 (928) 704-0807,acordreyor@usnews.com
LI-6926-80,OPP-8339-67,AID-0757-64,Donia Gledstane,Carlow,+373 (327) 107-2970,dgledstaneos@facebook.com
LI-8416-15,OPP-7578-62,AID-6317-14,Melvyn Behn,Lismore,+62 (142) 863-9161,mbehnot@meetup.com
LI-6837-76,OPP-9645-08,AID-6408-93,Bride Quartermaine,Shannon,+7 (468) 904-0912,bquartermaineou@jugem.jp
LI-4397-34,OPP-7356-23,AID-7660-18,Ida McCraw,Carlow,+86 (307) 571-6464,imccrawov@myspace.com
LI-0546-05,OPP-4964-31,AID-6731-27,Aldus Hebble,Carlow,+54 (527) 568-2853,ahebbleow@jigsy.com
LI-0571-28,OPP-1615-91,AID-1061-48,Valaria Preshaw,Carlow,+381 (302) 586-2290,vpreshawox@salon.com
LI-8061-78,OPP-9666-82,AID-9170-11,Weber Maevela,Carlow,+63 (886) 393-5857,wmaevelaoy@europa.eu
LI-2422-40,OPP-3418-95,AID-5480-46,Grata Steels,Shannon,+967 (920) 810-7370,gsteelsoz@wordpress.com
LI-4019-61,OPP-8249-48,AID-5116-76,Jethro Cockitt,Carlow,+86 (358) 898-2988,jcockittp0@adobe.com
LI-4024-84,OPP-6070-39,AID-7729-54,Micaela Barham,Naas,+63 (141) 421-6371,mbarhamp1@bluehost.com
LI-9373-28,OPP-8226-07,AID-8932-03,Kori McMoyer,Shannon,+260 (596) 420-4850,kmcmoyerp2@whitehouse.gov
LI-5831-03,OPP-5821-83,AID-5216-43,Merrily Bessant,Carlow,+380 (861) 784-6207,mbessantp3@utexas.edu
LI-4234-60,OPP-0204-54,AID-1992-98,Sky Barttrum,Shannon,+86 (410) 669-3460,sbarttrump4@printfriendly.com
LI-0343-98,OPP-8327-03,AID-6386-93,Zorah Josilevich,Naas,+351 (153) 426-4831,zjosilevichp5@scribd.com
LI-9664-81,OPP-3877-10,AID-2341-26,Koral Blagden,Carlow,+351 (196) 837-1939,kblagdenp6@opensource.org
LI-9671-25,OPP-5583-82,AID-9174-49,Herold Darwent,Shannon,+81 (160) 933-3052,hdarwentp7@tuttocitta.it
LI-1290-82,OPP-3203-49,AID-1218-56,Silvio Pearlman,Carlow,+27 (910) 597-1917,spearlmanp8@youku.com
LI-3512-85,OPP-0900-83,AID-0552-18,Karyn Mears,Shannon,+86 (323) 595-5143,kmearsp9@mail.ru
LI-5068-37,OPP-5502-73,AID-4490-64,Aleksandr Gaskins,Carlow,+1 (501) 253-8518,agaskinspa@live.com
LI-0400-37,OPP-5125-89,AID-6465-31,Hayyim Olney,Shannon,+55 (209) 489-7237,holneypb@phoca.cz
LI-4253-43,OPP-3522-88,AID-9165-17,Ollie Tonn,Shannon,+63 (787) 919-8586,otonnpc@ftc.gov
LI-0962-04,OPP-7982-78,AID-9937-40,Petunia Wapple,Carlow,+51 (966) 896-9903,pwapplepd@tinyurl.com
LI-3877-33,OPP-8184-35,AID-9541-41,Barry Chavrin,Shannon,+51 (556) 115-7087,bchavrinpe@indiegogo.com
LI-5096-45,OPP-1989-26,AID-3062-61,Marsiella Luberti,Carlow,+98 (225) 230-8926,mlubertipf@craigslist.org
LI-2732-27,OPP-2178-15,AID-1419-82,Junina Capron,Limerick,+86 (621) 210-5254,jcapronpg@feedburner.com
LI-6569-69,OPP-1082-62,AID-6354-50,Boniface Menendes,Shannon,+30 (212) 171-1834,bmenendesph@bloglovin.com
LI-3100-04,OPP-4421-35,AID-0459-64,Marlyn Salter,Lismore,+33 (993) 959-4856,msalterpi@virginia.edu
LI-2554-70,OPP-9904-02,AID-4549-02,Con Coyish,Carlow,+81 (725) 917-9152,ccoyishpj@ebay.co.uk
LI-5619-11,OPP-9571-34,AID-8512-92,Hobart Ajsik,Carlow,+86 (805) 177-5251,hajsikpk@intel.com
LI-4310-33,OPP-3879-49,AID-7475-30,Miller Conant,Shannon,+7 (102) 800-3952,mconantpl@sitemeter.com
LI-9375-34,OPP-4305-80,AID-8578-79,Natka Havile,Naas,+86 (210) 696-6660,nhavilepm@go.com
LI-2267-18,OPP-7853-08,AID-0536-91,Lenci Spellman,Naas,+57 (967) 404-2513,lspellmanpn@dion.ne.jp
LI-4145-85,OPP-2937-03,AID-4570-99,Idaline Sarfat,Carlow,+98 (361) 577-3456,isarfatpo@statcounter.com
LI-9749-51,OPP-1692-25,AID-1514-59,Maison Kummerlowe,Shannon,+47 (497) 622-5402,mkummerlowepp@facebook.com
LI-2946-73,OPP-1372-08,AID-3992-24,Pepito MacAughtrie,Carlow,+7 (752) 245-8459,pmacaughtriepq@liveinternet.ru
LI-2983-30,OPP-5698-03,AID-5441-22,Darryl Dovermann,Naas,+351 (724) 694-4525,ddovermannpr@wikispaces.com
LI-2604-37,OPP-7398-84,AID-9734-52,Inness Aslum,Shannon,+62 (358) 124-3816,iaslumps@multiply.com
LI-9995-65,OPP-8621-04,AID-7329-06,David Coltart,Carlow,+51 (606) 768-1463,dcoltartpt@hugedomains.com
LI-5584-43,OPP-1207-74,AID-1465-24,Blondelle Aleksankov,Shannon,+57 (648) 446-6752,baleksankovpu@auda.org.au
LI-4887-36,OPP-7600-07,AID-1164-60,Betsy Gooda,Shannon,+230 (763) 240-1150,bgoodapv@bbb.org
LI-4951-12,OPP-2041-05,AID-2501-84,Kata Trolley,Lismore,+27 (762) 123-8498,ktrolleypw@imageshack.us
LI-2568-81,OPP-4077-84,AID-1910-51,Inna Trevor,Lismore,+56 (946) 275-6645,itrevorpx@biblegateway.com
LI-8501-64,OPP-5051-12,AID-9941-02,Parry Gulston,Carlow,+380 (828) 343-4131,pgulstonpy@blogtalkradio.com
LI-0302-21,OPP-8384-13,AID-4760-33,Engracia Joubert,Carlow,+57 (938) 756-7918,ejoubertpz@wikia.com
LI-3116-17,OPP-0154-12,AID-9133-69,Cleopatra Fearney,Carlow,+55 (435) 826-6155,cfearneyq0@illinois.edu
LI-5162-67,OPP-7214-79,AID-5105-25,Florian Labba,Shannon,+7 (125) 910-1942,flabbaq1@shareasale.com
LI-9175-96,OPP-2735-85,AID-5476-44,Philippe Matysiak,Shannon,+976 (922) 773-0726,pmatysiakq2@sciencedaily.com
LI-2411-16,OPP-3306-18,AID-7559-24,Tani Leguay,Carlow,+55 (134) 791-0078,tleguayq3@icq.com
LI-6524-78,OPP-4375-09,AID-3147-86,Standford Izkovici,Shannon,+63 (271) 251-5122,sizkoviciq4@imgur.com
LI-5781-33,OPP-0196-08,AID-4120-52,Micah Dursley,Lismore,+86 (594) 672-2711,mdursleyq5@nydailynews.com
LI-4999-32,OPP-9730-00,AID-5979-13,Andrej Rielly,Shannon,+7 (232) 590-9057,ariellyq6@smh.com.au
LI-4120-71,OPP-6618-65,AID-3868-21,Marla Allibon,Carlow,+46 (105) 623-8003,mallibonq7@stumbleupon.com
LI-4458-51,OPP-3560-36,AID-8936-71,Billie Hayselden,Carlow,+1 (464) 594-5715,bhayseldenq8@mashable.com
LI-9384-49,OPP-6079-82,AID-2911-91,Aymer Klimkin,Shannon,+82 (619) 617-5314,aklimkinq9@google.co.uk
LI-6771-44,OPP-8027-71,AID-4730-93,Hally Bartholomew,Carlow,+62 (796) 624-8099,hbartholomewqa@aol.com
LI-9787-95,OPP-6077-13,AID-2193-13,Tamra McQuorkel,Shannon,+351 (421) 596-3823,tmcquorkelqb@is.gd
LI-9297-75,OPP-9767-78,AID-9285-61,Hillel Witchard,Port Laoise,+62 (852) 848-8258,hwitchardqc@pcworld.com
LI-5947-95,OPP-5611-01,AID-3203-58,Robinetta Coulling,Carlow,+7 (470) 982-8281,rcoullingqd@typepad.com
LI-0076-79,OPP-5855-01,AID-2304-66,Philis Gooday,Carlow,+351 (863) 724-2351,pgoodayqe@histats.com
LI-0595-44,OPP-7850-20,AID-9913-83,Dorey Rispen,Carlow,+86 (794) 505-2089,drispenqf@timesonline.co.uk
LI-4184-74,OPP-2186-86,AID-4557-85,Jeniffer Gentile,Carlow,+81 (936) 149-9563,jgentileqg@t.co
LI-2836-45,OPP-5883-22,AID-5063-52,Nance Retallick,Carlow,+86 (250) 839-1232,nretallickqh@nymag.com
LI-5290-47,OPP-5478-45,AID-8356-96,Delcine MacAnulty,Naas,+86 (646) 206-0500,dmacanultyqi@php.net
LI-4971-58,OPP-8009-65,AID-3159-21,Katie Marcam,Carlow,+62 (584) 274-0337,kmarcamqj@go.com
LI-1861-47,OPP-6125-00,AID-6209-54,Milena Scholtis,Shannon,+27 (498) 343-9684,mscholtisqk@ask.com
LI-5715-78,OPP-0870-08,AID-0000-84,Bel Braunes,Carlow,+86 (466) 392-7053,bbraunesql@blogspot.com
LI-0689-84,OPP-1793-67,AID-2126-90,Lawton MacRierie,Carlow,+48 (920) 777-4691,lmacrierieqm@surveymonkey.com
LI-2982-01,OPP-0408-48,AID-2531-51,Hester Fincken,Lismore,+380 (228) 745-9426,hfinckenqn@free.fr
LI-1374-65,OPP-4422-06,AID-5976-73,Ethelin Whitehair,Carlow,+1 (616) 327-9805,ewhitehairqo@storify.com
LI-9005-32,OPP-9008-88,AID-8639-89,Chrissie Joubert,Carlow,+236 (873) 922-2303,cjoubertqp@purevolume.com
LI-5573-13,OPP-5521-31,AID-3905-38,Davita Meanwell,Naas,+48 (810) 453-8975,dmeanwellqq@opensource.org
LI-3379-52,OPP-3245-76,AID-1620-33,Urban Camelli,Carlow,+55 (166) 200-7525,ucamelliqr@oracle.com
LI-7531-51,OPP-2385-43,AID-9015-65,Shayna Sive,Naas,+55 (319) 430-6244,ssiveqs@google.ru
LI-9881-65,OPP-9332-18,AID-6036-72,Rustie Burniston,Carlow,+86 (388) 946-5623,rburnistonqt@economist.com
LI-3570-90,OPP-7139-88,AID-4995-48,Kasper Spittle,Limerick,+86 (434) 284-8746,kspittlequ@yelp.com
LI-6956-02,OPP-9170-13,AID-1519-38,Caron Burbage,Carlow,+86 (699) 729-2212,cburbageqv@google.fr
LI-0659-96,OPP-2426-02,AID-4285-79,Kiah Rosellini,Carlow,+86 (219) 681-0624,kroselliniqw@hibu.com
LI-8845-58,OPP-1055-94,AID-2891-82,Pascale Regan,Carlow,+57 (650) 516-3545,preganqx@bigcartel.com
LI-9852-32,OPP-5674-18,AID-4063-34,Gearard Barhem,Shannon,+62 (756) 225-1103,gbarhemqy@wiley.com
LI-6785-22,OPP-6004-75,AID-1370-79,Grayce Chrstine,Shannon,+86 (931) 923-9302,gchrstineqz@weibo.com
LI-3363-66,OPP-8075-68,AID-6199-04,Free Bodle,Lismore,+33 (962) 353-4178,fbodler0@jiathis.com
LI-6791-89,OPP-2164-08,AID-9719-40,De Mc Trusty,Carlow,+7 (122) 867-9548,dmcr1@reverbnation.com
LI-3251-83,OPP-0502-54,AID-3168-83,Law Bigglestone,Shannon,+269 (279) 807-5138,lbigglestoner2@odnoklassniki.ru
LI-6241-62,OPP-2607-90,AID-5990-50,Barbabas Catterill,Lismore,+263 (990) 981-9798,bcatterillr3@php.net
LI-1809-19,OPP-2799-51,AID-8503-85,Benn Ghio,Shannon,+46 (528) 631-0854,bghior4@time.com
LI-9365-87,OPP-0486-06,AID-0684-01,Reina O'Donnelly,Carlow,+48 (957) 635-4048,rodonnellyr5@reuters.com
LI-4876-93,OPP-3055-24,AID-0504-41,Genni Durdle,Carlow,+420 (596) 626-6815,gdurdler6@deliciousdays.com
LI-3527-73,OPP-7592-98,AID-7089-37,Aloysius McAvaddy,Carlow,+352 (402) 975-1673,amcavaddyr7@dailymail.co.uk
LI-6240-77,OPP-6175-71,AID-1211-04,Vikki Bratcher,Carlow,+1 (605) 759-4920,vbratcherr8@bloomberg.com
LI-4957-22,OPP-5651-41,AID-8020-95,Delcine Rove,Carlow,+86 (646) 687-7690,drover9@gmpg.org
LI-8976-34,OPP-6021-28,AID-5329-15,Gaston Chape,Shannon,+502 (687) 476-1555,gchapera@google.de
LI-4549-95,OPP-6652-93,AID-6506-81,Jeremias Creevy,Carlow,+216 (890) 834-0879,jcreevyrb@patch.com
LI-8591-34,OPP-8796-70,AID-7656-83,Nell Safe,Shannon,+55 (912) 774-9135,nsaferc@theguardian.com
LI-9964-46,OPP-0051-54,AID-5047-74,Winna Jurisic,Naas,+86 (126) 823-6334,wjurisicrd@csmonitor.com
LI-5141-31,OPP-7236-76,AID-4222-53,Margaux Carnegie,Shannon,+380 (164) 143-1600,mcarnegiere@tripadvisor.com
LI-4006-52,OPP-8878-30,AID-3000-41,Reynard Gerrie,Carlow,+27 (233) 739-0340,rgerrierf@odnoklassniki.ru
LI-0436-80,OPP-2368-94,AID-3709-76,Teresa Geeraert,Carlow,+62 (247) 758-1861,tgeeraertrg@alibaba.com
LI-4075-39,OPP-6418-22,AID-5150-43,Tilly McKim,Carlow,+55 (343) 623-3499,tmckimrh@bloomberg.com
LI-4419-29,OPP-8138-55,AID-3930-46,Andrea Attenborrow,Shannon,+60 (159) 910-0719,aattenborrowri@usa.gov
LI-2168-40,OPP-6466-36,AID-9002-62,Peg Paye,Shannon,+62 (917) 740-9527,ppayerj@hp.com
LI-8466-74,OPP-7682-44,AID-6756-33,Tersina Sedcole,Shannon,+30 (939) 826-4753,tsedcolerk@themeforest.net
LI-8948-26,OPP-9934-89,AID-4390-99,Tanya Durnall,Naas,+63 (309) 424-1389,tdurnallrl@umn.edu
LI-2091-82,OPP-6776-14,AID-3908-36,Ileana Hewertson,Carlow,+98 (371) 903-1723,ihewertsonrm@domainmarket.com
LI-3132-05,OPP-2413-29,AID-9149-49,Josefa Sprackling,Shannon,+86 (240) 365-1258,jspracklingrn@harvard.edu
LI-3811-84,OPP-5465-29,AID-5637-54,Cecilius Jobbings,Shannon,+380 (331) 223-2924,cjobbingsro@techcrunch.com
LI-9626-64,OPP-5945-15,AID-6488-70,Saxe Macveigh,Carlow,+351 (518) 341-9003,smacveighrp@wikimedia.org
LI-3854-63,OPP-4652-00,AID-4709-60,Milli Roughley,Carlow,+86 (570) 946-0197,mroughleyrq@patch.com
LI-7994-50,OPP-3591-15,AID-1758-65,Niles Rendle,Carlow,+55 (296) 121-9434,nrendlerr@cocolog-nifty.com
