,Lead_ID,Opportunity_ID,Account_ID,Full_Name,City,Phone,Email_address,Status
0,LI-5995-48,OPP-4691-16,AID-6876-77,Dusty Babbage,Cork,467-146-5229,dbabbage0@state.gov,Inactive
1,LI-5127-86,OPP-2731-23,AID-3660-87,Dawn McMorran,Cork,290-337-4647,dmcmorran1@msu.edu,Active
2,LI-3012-05,OPP-7145-55,AID-1752-56,Starr Isherwood,Galway,780-330-9172,sisherwood2@springer.com,Active
3,LI-7562-77,OPP-5728-87,AID-4549-14,Jeramie Juett,Galway,983-455-2951,jjuett3@pcworld.com,Active
4,LI-9767-35,OPP-3606-21,AID-6978-11,Cyrill Sellars,Cork,411-255-1439,csellars4@yellowbook.com,Active
5,LI-9085-17,OPP-7561-40,AID-7801-96,Euell Gates,Swords,359-800-6485,egates5@addtoany.com,Active
6,LI-5335-42,OPP-0218-55,AID-1178-59,Raleigh Werendell,Cork,185-836-2417,rwerendell6@washington.edu,Inactive
7,LI-4258-95,OPP-1978-47,AID-0350-67,Stefan Gautrey,Swords,780-549-3978,sgautrey7@irs.gov,Inactive
8,LI-0927-66,OPP-2295-91,AID-1058-88,Corissa Devereux,Cork,889-763-0929,cdevereux8@aboutads.info,Active
9,LI-7869-76,OPP-5377-45,AID-2380-24,Koo Tallis,Cork,827-844-9936,ktallis9@slashdot.org,Inactive
10,LI-3084-53,OPP-8211-47,AID-9242-64,Katee Segge,Dublin,415-519-2202,kseggea@behance.net,Inactive
11,LI-6390-61,OPP-5891-52,AID-9039-96,Merrie Drinkhall,Swords,456-338-0292,mdrinkhallb@qq.com,Active
12,LI-3042-40,OPP-4168-27,AID-3139-43,Concordia McGaugan,Galway,476-448-2542,cmcgauganc@reverbnation.com,Active
13,LI-6988-68,OPP-7567-29,AID-6405-57,Kelley Rourke,Cork,368-901-2857,krourked@w3.org,Active
14,LI-5393-37,OPP-8439-46,AID-5146-07,Chester Gummory,Cork,511-939-0239,cgummorye@accuweather.com,Active
15,LI-0480-01,OPP-4560-91,AID-0889-25,Temp Walch,Cork,724-146-3748,twalchf@walmart.com,Active
16,LI-1409-14,OPP-2273-56,AID-7648-68,Augustin Savary,Cork,893-282-3731,asavaryg@home.pl,Active
17,LI-9058-24,OPP-6126-33,AID-1588-94,Eve Wudeland,Cork,670-894-3277,ewudelandh@phoca.cz,Active
18,LI-4330-76,OPP-5765-14,AID-9389-61,Rhonda Hadley,Dublin,482-775-5369,rhadleyi@nymag.com,Active
19,LI-6025-43,OPP-0509-33,AID-3911-19,Valli Pursey,Swords,448-695-6160,vpurseyj@oracle.com,Active
20,LI-8668-39,OPP-0374-37,AID-0362-65,Lynsey Davidovitch,Limerick,694-579-7925,ldavidovitchk@dagondesign.com,Active
21,LI-2539-30,OPP-5248-54,AID-4609-97,Myca Steinham,Cork,999-396-0308,msteinhaml@artisteer.com,Active
22,LI-0200-40,OPP-1003-76,AID-8863-01,Renee Tregunna,Galway,987-974-8362,rtregunnam@omniture.com,Active
23,LI-9995-83,OPP-4269-08,AID-2921-45,Brynn Brotherick,Cork,859-351-6484,bbrotherickn@weebly.com,Active
24,LI-8622-94,OPP-6130-63,AID-9733-37,Marilin Bagot,Galway,324-386-5295,mbagoto@nytimes.com,Active
25,LI-2244-81,OPP-8506-38,AID-4862-60,Philomena Clyant,Cork,288-403-7623,pclyantp@twitter.com,Active
26,LI-9060-38,OPP-7464-06,AID-2467-58,Gale Judd,Cork,477-611-6270,gjuddq@washingtonpost.com,Active
27,LI-6482-59,OPP-9249-64,AID-3002-87,Louisette Stoltz,Cork,964-521-8568,lstoltzr@google.com,Active
28,LI-7278-16,OPP-5741-85,AID-6603-02,Homerus Gonnelly,Galway,692-263-8590,hgonnellys@si.edu,Active
29,LI-9545-30,OPP-6892-05,AID-0311-44,Travis Lexa,Dublin,948-509-9859,tlexat@surveymonkey.com,Active
30,LI-0847-05,OPP-0737-40,AID-3521-69,Shaun Caskie,Galway,105-435-8798,scaskieu@pagesperso-orange.fr,Active
31,LI-3729-38,OPP-4142-75,AID-9604-62,Keely Dreschler,Swords,280-407-5340,kdreschlerv@t.co,Active
32,LI-8709-86,OPP-4884-20,AID-8799-78,Caprice Hasney,Cork,561-768-1585,chasneyw@altervista.org,Active
33,LI-2228-67,OPP-7726-75,AID-3348-57,Arnuad Roches,Cork,380-764-0305,arochesx@wordpress.com,Active
34,LI-9404-84,OPP-0761-35,AID-4677-20,Gelya Janowski,Dublin,223-178-5753,gjanowskiy@fda.gov,Active
35,LI-1952-97,OPP-7901-02,AID-0680-91,Klemens Bonavia,Swords,517-108-5782,kbonaviaz@51.la,Active
36,LI-1062-67,OPP-7036-89,AID-4558-92,Bendix Sherburn,Dublin,223-221-9597,bsherburn10@disqus.com,Active
37,LI-8895-54,OPP-5091-77,AID-1134-14,Shelli Plante,Cork,759-654-1319,splante11@imageshack.us,Active
38,LI-2899-58,OPP-2727-35,AID-4485-99,Zorina Petche,Swords,102-373-2579,zpetche12@csmonitor.com,Active
39,LI-5685-69,OPP-6637-94,AID-6683-99,Elbertina Christofol,Galway,149-108-3909,echristofol13@ucla.edu,Active
40,LI-7457-05,OPP-7838-90,AID-7702-32,Trev Flieger,Galway,176-233-1463,tflieger14@reference.com,Active
41,LI-3669-92,OPP-7921-69,AID-1903-06,Linoel Cannaway,Galway,191-372-7151,lcannaway15@jugem.jp,Active
42,LI-5210-95,OPP-2780-91,AID-8887-00,Stanwood Heaviside,Cork,934-406-8003,sheaviside16@netlog.com,Active
43,LI-8595-61,OPP-7282-74,AID-1329-40,Chaddie Wolland,Galway,119-324-5768,cwolland17@hostgator.com,Active
44,LI-3524-71,OPP-1706-89,AID-7169-65,Goraud Hackelton,Dublin,383-746-2101,ghackelton18@mozilla.com,Active
45,LI-8108-53,OPP-6017-26,AID-0250-29,Beulah Seary,Galway,613-781-8506,bseary19@epa.gov,Active
46,LI-7481-97,OPP-9796-99,AID-5347-75,Ram Scrane,Galway,522-187-0202,rscrane1a@google.com.br,Active
47,LI-3399-16,OPP-1056-76,AID-8063-78,Liane Mayho,Swords,519-641-5342,lmayho1b@ifeng.com,Active
48,LI-7845-08,OPP-3321-77,AID-8959-60,Bianka Schurcke,Dublin,768-336-0279,bschurcke1c@prnewswire.com,Active
49,LI-5004-75,OPP-4105-18,AID-7221-23,Delbert Baldry,Cork,945-857-4792,dbaldry1d@bloglines.com,Active
50,LI-4668-37,OPP-4989-23,AID-7549-59,Robbie Pieter,Galway,917-236-6382,rpieter1e@theguardian.com,Active
51,LI-8439-65,OPP-6900-91,AID-3339-74,Ruby Dungay,Dublin,233-992-7890,rdungay1f@msu.edu,Active
52,LI-8580-29,OPP-2498-54,AID-4883-60,Hadlee Asson,Galway,416-907-1643,hasson1g@google.cn,Active
53,LI-3967-74,OPP-3608-71,AID-3151-64,Cirilo Mammatt,Cork,518-914-3313,cmammatt1h@umn.edu,Active
54,LI-7768-46,OPP-8524-15,AID-1185-39,Jamaal Saunders,Port Laoise,361-158-7117,jsaunders1i@ning.com,Active
55,LI-4344-71,OPP-8082-11,AID-3160-85,Cristina Jeannet,Cork,540-293-4875,cjeannet1j@about.com,Active
56,LI-6368-93,OPP-0624-70,AID-5718-74,Gale Asipenko,Cork,205-202-2605,gasipenko1k@friendfeed.com,Active
57,LI-1509-79,OPP-7039-97,AID-2889-65,Obediah Sansum,Galway,378-181-7421,osansum1l@phpbb.com,Active
58,LI-8063-03,OPP-8412-67,AID-8806-31,Christie Lehrmann,Galway,260-157-8578,clehrmann1m@cornell.edu,Active
59,LI-7933-96,OPP-9517-99,AID-3236-09,Parker Janos,Swords,616-949-3137,pjanos1n@bandcamp.com,Active
60,LI-2014-75,OPP-5399-27,AID-6281-67,Marylinda Easey,Cork,182-742-6565,measey1o@networksolutions.com,Active
61,LI-3504-25,OPP-1825-83,AID-5231-19,Kirstin Cardoe,Lismore,832-865-1345,kcardoe1p@facebook.com,Active
62,LI-2941-83,OPP-1942-89,AID-4993-01,Cart Bover,Cork,348-416-6603,cbover1q@phoca.cz,Active
63,LI-7084-02,OPP-8598-13,AID-4076-04,Raff Dalmon,Cork,309-999-1639,rdalmon1r@ibm.com,Active
64,LI-1196-14,OPP-0571-06,AID-7401-71,Blondie Fearnley,Galway,627-181-4646,bfearnley1s@bbb.org,Active
65,LI-8479-38,OPP-8234-19,AID-0941-89,Birgit Brogan,Dublin,569-969-4726,bbrogan1t@vk.com,Active
66,LI-2743-99,OPP-8766-88,AID-0145-73,Seka Venners,Dublin,757-716-7274,svenners1u@ca.gov,Active
67,LI-5770-11,OPP-9839-74,AID-7142-51,Ray Torre,Swords,425-671-3495,rtorre1v@opensource.org,Active
68,LI-8148-25,OPP-0531-31,AID-7227-62,Roana Thuillier,Cork,462-892-1553,rthuillier1w@tumblr.com,Active
69,LI-7074-70,OPP-8130-35,AID-2222-86,Iago Duffitt,Cork,266-363-0877,iduffitt1x@ocn.ne.jp,Active
70,LI-4951-99,OPP-8504-64,AID-0515-74,Mannie Opfer,Cork,580-816-8258,mopfer1y@edublogs.org,Active
71,LI-6804-51,OPP-4872-66,AID-6424-29,Cordie Brandenburg,Galway,415-145-0716,cbrandenburg1z@squidoo.com,Active
72,LI-3582-78,OPP-9414-69,AID-4832-20,Missie Wellesley,Dublin,291-569-4794,mwellesley20@pen.io,Active
73,LI-6353-45,OPP-9293-96,AID-1476-84,Chadd Gudgen,Cork,744-642-6409,cgudgen21@paginegialle.it,Active
74,LI-8110-97,OPP-8654-46,AID-4532-52,Estrellita Sealove,Galway,711-555-0632,esealove22@shutterfly.com,Active
75,LI-1179-91,OPP-0834-49,AID-4828-13,Ermengarde Quarrie,Cork,841-767-0279,equarrie23@list-manage.com,Active
76,LI-1476-34,OPP-0516-78,AID-2376-63,Lyndsey Antuoni,Cork,431-624-3178,lantuoni24@livejournal.com,Active
77,LI-9871-44,OPP-7260-02,AID-8960-57,Carmelle Formie,Galway,359-147-5777,cformie25@angelfire.com,Active
78,LI-2566-80,OPP-1818-18,AID-1605-91,Dusty Habble,Cork,197-958-8392,dhabble26@globo.com,Active
79,LI-0215-68,OPP-9996-70,AID-9283-30,Emelita Clougher,Cork,368-890-6334,eclougher27@printfriendly.com,Active
80,LI-7102-81,OPP-5539-57,AID-1418-35,Melessa Shillabear,Cork,876-391-7927,mshillabear28@vistaprint.com,Active
81,LI-7011-51,OPP-1391-54,AID-7197-70,Skip Driver,Dublin,570-963-7319,sdriver29@topsy.com,Active
82,LI-2868-29,OPP-9955-19,AID-2032-58,Jenelle Masser,Cork,680-633-7033,jmasser2a@merriam-webster.com,Active
83,LI-1756-44,OPP-0920-83,AID-4090-19,Sorcha Corballis,Cork,922-447-1826,scorballis2b@g.co,Active
84,LI-1008-69,OPP-3622-83,AID-3578-52,Toni Searle,Galway,852-367-9914,tsearle2c@eventbrite.com,Active
85,LI-5150-39,OPP-4266-95,AID-0299-42,Kim Kirtland,Cork,991-561-4985,kkirtland2d@behance.net,Active
86,LI-1389-22,OPP-8055-69,AID-0353-66,Elli Essex,Cork,220-730-4378,eessex2e@merriam-webster.com,Active
87,LI-6066-27,OPP-6068-68,AID-6381-18,Claire Diaper,Galway,347-958-2961,cdiaper2f@nature.com,Active
88,LI-1661-62,OPP-1392-25,AID-0672-70,Alyce Horley,Dublin,813-111-6039,ahorley2g@ovh.net,Active
89,LI-6248-32,OPP-2238-32,AID-2902-68,Marsha Epgrave,Limerick,595-830-7579,mepgrave2h@addtoany.com,Active
90,LI-6071-91,OPP-6606-43,AID-5221-64,Val Hulkes,Cork,610-738-2596,vhulkes2i@creativecommons.org,Active
91,LI-4158-79,OPP-7297-27,AID-3326-18,Guillemette Seago,Dublin,357-420-9176,gseago2j@reddit.com,Active
92,LI-1338-30,OPP-9522-30,AID-4711-03,Adeline Tredwell,Swords,662-682-1822,atredwell2k@huffingtonpost.com,Active
93,LI-0359-86,OPP-2298-97,AID-0319-29,Giffy Jacobsz,Limerick,936-661-8407,gjacobsz2l@netlog.com,Active
94,LI-0206-87,OPP-7739-91,AID-6179-41,Nanni Morris,Cork,257-798-8820,nmorris2m@ehow.com,Active
95,LI-8987-63,OPP-0992-77,AID-3389-21,Dael Weare,Galway,502-170-3529,dweare2n@wikia.com,Active
96,LI-8330-86,OPP-9505-20,AID-3169-81,Matthew Joul,Galway,216-730-6555,mjoul2o@w3.org,Active
97,LI-1191-42,OPP-3630-12,AID-8213-08,Reba Donhardt,Cork,748-424-7693,rdonhardt2p@smugmug.com,Active
98,LI-0703-81,OPP-4005-09,AID-2229-91,Christabella Penhalurick,Dublin,104-527-3785,cpenhalurick2q@paypal.com,Active
99,LI-8086-22,OPP-5440-44,AID-6598-74,Gib Eminson,Swords,557-164-1519,geminson2r@wsj.com,Active
100,LI-5420-54,OPP-4656-50,AID-8934-93,Debbi Duval,Galway,520-181-3059,dduval2s@odnoklassniki.ru,Active
101,LI-7314-16,OPP-6466-50,AID-8322-94,Angelika Towse,Naas,906-585-7868,atowse2t@sourceforge.net,Active
102,LI-2800-54,OPP-6359-88,AID-2043-61,Corbet Wackly,Swords,410-925-9105,cwackly2u@apple.com,Active
103,LI-4802-28,OPP-5715-85,AID-8329-36,Orazio Hultberg,Cork,643-263-4025,ohultberg2v@ted.com,Active
104,LI-1756-08,OPP-2313-17,AID-7655-56,Emily Wilbud,Cork,762-642-3277,ewilbud2w@ft.com,Active
105,LI-1204-14,OPP-1192-95,AID-6256-21,Dede Todman,Galway,717-475-1309,dtodman2x@fema.gov,Active
106,LI-9059-04,OPP-8906-20,AID-2941-44,Johnath Whitney,Galway,396-196-3777,jwhitney2y@comsenz.com,Active
107,LI-6866-55,OPP-7323-57,AID-2859-59,Etti Meader,Galway,477-265-2017,emeader2z@vinaora.com,Active
108,LI-8505-14,OPP-0600-39,AID-2759-92,Cammie Beccero,Galway,968-553-3380,cbeccero30@google.pl,Active
109,LI-4330-33,OPP-0461-34,AID-5741-32,Edee Kilborn,Cork,341-513-1232,ekilborn31@ted.com,Active
110,LI-1238-12,OPP-4580-47,AID-8118-70,Kearney Prudence,Cork,358-326-2459,kprudence32@livejournal.com,Active
111,LI-1638-43,OPP-1080-80,AID-1028-56,Howard Spaight,Cork,765-889-6221,hspaight33@people.com.cn,Active
112,LI-4026-34,OPP-4596-89,AID-7867-64,Lisle Simione,Cork,197-321-7890,lsimione34@accuweather.com,Active
113,LI-9376-24,OPP-5804-32,AID-2833-44,Jo-anne Gratland,Cork,473-462-0001,jgratland35@trellian.com,Active
114,LI-3824-85,OPP-5701-28,AID-4501-15,Shea Sempill,Cork,901-842-3941,ssempill36@dion.ne.jp,Active
115,LI-2964-97,OPP-4684-80,AID-1098-63,Rozamond Brydson,Dublin,951-977-7946,rbrydson37@biblegateway.com,Active
116,LI-1464-31,OPP-2487-23,AID-1630-46,Locke Parmby,Galway,868-714-5251,lparmby38@soundcloud.com,Active
117,LI-2512-08,OPP-1828-38,AID-7246-83,Ddene Betton,Cork,901-651-8171,dbetton39@tamu.edu,Active
118,LI-8885-98,OPP-3174-76,AID-8373-77,Port Stayte,Cork,773-751-7703,pstayte3a@prlog.org,Active
119,LI-8315-22,OPP-5246-34,AID-0039-51,Vito O'Feeny,Cork,852-685-6165,vofeeny3b@guardian.co.uk,Active
120,LI-9242-87,OPP-4744-44,AID-0197-35,Rivy Barents,Swords,808-167-9383,rbarents3c@hc360.com,Active
121,LI-4707-60,OPP-5451-91,AID-5809-57,Tremayne Gantzer,Cork,577-520-4719,tgantzer3d@reddit.com,Active
122,LI-0127-64,OPP-5899-96,AID-9304-39,Myrilla Duckit,Swords,415-173-4593,mduckit3e@buzzfeed.com,Active
123,LI-1442-15,OPP-2723-63,AID-4054-10,Glenden Prevett,Cork,930-836-3835,gprevett3f@jiathis.com,Active
124,LI-5480-58,OPP-0424-29,AID-9513-29,Lethia Kliemann,Cork,219-535-4078,lkliemann3g@businessinsider.com,Active
125,LI-2899-49,OPP-8956-28,AID-2858-43,Hersch Kingsmill,Naas,939-447-5567,hkingsmill3h@go.com,Active
126,LI-7377-44,OPP-1169-66,AID-6215-46,Stavros Tommasuzzi,Cork,586-406-3235,stommasuzzi3i@feedburner.com,Active
127,LI-5300-27,OPP-3874-28,AID-3164-06,Mara Bastock,Cork,110-352-2842,mbastock3j@mysql.com,Active
128,LI-8412-57,OPP-6461-96,AID-0098-72,Brew Woodyear,Shannon,545-102-5724,bwoodyear3k@google.it,Active
129,LI-8853-23,OPP-8069-63,AID-6187-15,Hollyanne Biaggioli,Galway,335-808-6428,hbiaggioli3l@a8.net,Active
130,LI-4156-27,OPP-0440-17,AID-2794-38,Kaspar Rajchert,Cork,668-614-7777,krajchert3m@com.com,Active
131,LI-8197-92,OPP-3504-51,AID-0806-04,Viola Spafford,Cork,214-730-2204,vspafford3n@github.com,Active
132,LI-9130-34,OPP-2250-10,AID-2993-32,Modesta Bearne,Cork,219-138-4602,mbearne3o@cisco.com,Active
133,LI-6756-10,OPP-2304-32,AID-4684-17,Alfie Crucetti,Galway,770-885-1767,acrucetti3p@so-net.ne.jp,Active
134,LI-9497-11,OPP-8901-02,AID-7943-13,Deni Oldnall,Cork,333-429-9418,doldnall3q@reddit.com,Active
135,LI-1861-95,OPP-1173-94,AID-4814-13,Jocelyn Grosvener,Dublin,401-771-1551,jgrosvener3r@wp.com,Active
136,LI-7423-64,OPP-7669-77,AID-4834-63,Sandye Gorstidge,Cork,200-323-1178,sgorstidge3s@yolasite.com,Active
137,LI-6271-71,OPP-8251-89,AID-2839-81,Elbertina O'Reilly,Cork,446-832-1286,eoreilly3t@mozilla.org,Active
138,LI-7967-32,OPP-9634-66,AID-6030-24,Jenna Dyer,Galway,295-757-4151,jdyer3u@ovh.net,Active
139,LI-3369-83,OPP-5397-83,AID-6051-79,Polly Wattins,Cork,210-614-6438,pwattins3v@un.org,Active
140,LI-8840-89,OPP-8728-87,AID-8204-23,Ebeneser Smurfitt,Galway,209-716-8052,esmurfitt3w@odnoklassniki.ru,Active
141,LI-5697-56,OPP-5084-61,AID-1871-64,Heida Suatt,Cork,362-634-2924,hsuatt3x@pbs.org,Active
142,LI-5518-80,OPP-9559-06,AID-2787-95,Rosa Benezet,Cork,495-459-6595,rbenezet3y@moonfruit.com,Active
143,LI-8161-82,OPP-4584-00,AID-0864-41,Kial Frugier,Cork,621-804-5550,kfrugier3z@histats.com,Active
144,LI-3635-32,OPP-8865-10,AID-1697-74,Marilee Chessman,Dublin,200-659-8839,mchessman40@dailymotion.com,Active
145,LI-0955-99,OPP-2108-20,AID-5153-22,Johnathon McClurg,Naas,973-738-8523,jmcclurg41@disqus.com,Active
146,LI-1370-72,OPP-6432-75,AID-1217-82,Florinda Curme,Galway,178-955-4578,fcurme42@vk.com,Active
147,LI-2441-96,OPP-3059-38,AID-7287-65,Ewen Donaldson,Galway,921-521-1164,edonaldson43@jimdo.com,Active
148,LI-3152-80,OPP-4242-50,AID-9582-25,Sofie Weare,Galway,218-891-1518,sweare44@wufoo.com,Active
149,LI-6029-64,OPP-8586-35,AID-6778-43,Skyler Clorley,Cork,781-384-4893,sclorley45@cdbaby.com,Active
150,LI-5298-55,OPP-6765-00,AID-8011-86,Boone Skeels,Cork,200-948-0460,bskeels46@auda.org.au,Active
151,LI-3571-28,OPP-1967-44,AID-3526-78,Aubree Mc Trusty,Cork,166-787-8440,amc47@quantcast.com,Active
152,LI-9562-71,OPP-4929-54,AID-6923-22,Winny McFaul,Cork,310-752-9483,wmcfaul48@umn.edu,Active
153,LI-5884-80,OPP-2917-63,AID-4391-76,Inna Lepper,Galway,144-779-8506,ilepper49@pagesperso-orange.fr,Active
154,LI-9468-92,OPP-2409-42,AID-2667-91,Hyacinthie Dax,Cork,935-433-2366,hdax4a@163.com,Active
155,LI-8133-01,OPP-9283-37,AID-2186-08,Alice Worthy,Cork,434-166-1045,aworthy4b@economist.com,Active
156,LI-0793-09,OPP-4343-32,AID-9638-09,Wendeline Pray,Galway,247-192-8546,wpray4c@kickstarter.com,Active
157,LI-4922-38,OPP-5577-09,AID-9768-46,Weidar De Marchi,Galway,914-757-3910,wde4d@blogs.com,Active
158,LI-1536-31,OPP-9447-71,AID-6702-22,Clement Brahan,Swords,659-104-1141,cbrahan4e@alexa.com,Active
159,LI-2133-03,OPP-8352-31,AID-1716-21,Sullivan Cham,Cork,534-314-6504,scham4f@tumblr.com,Active
160,LI-6802-89,OPP-9503-95,AID-9753-15,Yehudi Crampsey,Dublin,253-229-6724,ycrampsey4g@pcworld.com,Active
161,LI-0929-27,OPP-8788-24,AID-9826-61,Aldrich Thaxter,Cork,500-738-6056,athaxter4h@bbb.org,Active
162,LI-4440-89,OPP-1366-29,AID-9882-21,Clare Dawtrey,Cork,424-972-1802,cdawtrey4i@weather.com,Active
163,LI-3001-60,OPP-4853-78,AID-2183-59,Raviv Baggott,Cork,877-664-8868,rbaggott4j@yandex.ru,Active
164,LI-9716-00,OPP-8105-50,AID-7258-97,Toddie Bragginton,Cork,966-673-0230,tbragginton4k@mashable.com,Active
165,LI-6905-32,OPP-9751-46,AID-5245-29,Ailbert Bedbrough,Galway,871-174-6691,abedbrough4l@comcast.net,Active
166,LI-7242-70,OPP-2657-87,AID-9858-41,Valma Foggarty,Cork,735-177-1984,vfoggarty4m@ucoz.com,Active
167,LI-8839-90,OPP-5150-05,AID-4641-34,Jaimie Bellord,Naas,904-284-0670,jbellord4n@blogger.com,Active
168,LI-2223-78,OPP-9688-67,AID-2744-55,Babara Stirman,Cork,302-464-1478,bstirman4o@nbcnews.com,Active
169,LI-4398-05,OPP-5128-89,AID-3738-47,Bertie Golley,Cork,647-361-1464,bgolley4p@odnoklassniki.ru,Active
170,LI-9421-27,OPP-1924-84,AID-8274-76,Kelsy Landor,Galway,315-252-3617,klandor4q@amazon.com,Active
171,LI-2507-27,OPP-9344-37,AID-8988-93,Staffard Shave,Naas,879-670-8594,sshave4r@businessweek.com,Active
172,LI-9899-08,OPP-6747-86,AID-6571-73,Jimmy De Mico,Dublin,858-220-7173,jde4s@addtoany.com,Active
173,LI-4380-05,OPP-8024-50,AID-8727-03,Waverly Spawell,Dublin,623-657-0498,wspawell4t@php.net,Active
174,LI-9568-98,OPP-8957-84,AID-6637-32,Forrester Hardman,Galway,579-250-0394,fhardman4u@uiuc.edu,Active
175,LI-6590-31,OPP-7565-74,AID-4318-89,Elvis Petrolli,Cork,101-233-0670,epetrolli4v@amazon.de,Active
176,LI-7371-24,OPP-4550-29,AID-2133-04,Marja Eastway,Cork,136-759-1635,meastway4w@bloomberg.com,Active
177,LI-1521-18,OPP-1111-14,AID-4078-36,Wake Kynder,Cork,144-312-5898,wkynder4x@xing.com,Active
178,LI-4130-66,OPP-6895-78,AID-9122-00,Rudolph Ghiotto,Cork,436-183-5844,rghiotto4y@whitehouse.gov,Active
179,LI-5681-21,OPP-2392-06,AID-1891-57,Doug Dehn,Swords,193-850-8673,ddehn4z@friendfeed.com,Active
180,LI-2299-12,OPP-2066-99,AID-0693-25,Rollie Carmichael,Galway,532-383-3583,rcarmichael50@boston.com,Active
181,LI-4329-28,OPP-4421-05,AID-5795-95,Amata Arnaut,Cork,320-587-7782,aarnaut51@google.fr,Active
182,LI-3893-57,OPP-7084-10,AID-7146-40,Catlee Chamley,Dublin,915-175-2117,cchamley52@cornell.edu,Active
183,LI-9052-79,OPP-8406-88,AID-4431-65,Ashli Backhouse,Dublin,351-124-8869,abackhouse53@artisteer.com,Active
184,LI-9563-15,OPP-3504-56,AID-5731-42,Wyatan Douce,Limerick,221-701-8780,wdouce54@bigcartel.com,Active
185,LI-2868-63,OPP-1990-62,AID-4087-37,Eadie Vakhlov,Swords,575-736-7470,evakhlov55@berkeley.edu,Active
186,LI-4527-34,OPP-0549-63,AID-3548-73,Teena Pochon,Cork,290-154-1697,tpochon56@nba.com,Active
187,LI-1911-59,OPP-4571-05,AID-2667-85,Inga Bever,Dublin,189-144-8422,ibever57@bbc.co.uk,Active
188,LI-2156-20,OPP-6264-44,AID-6215-26,Therese Venediktov,Cork,865-802-5024,tvenediktov58@hhs.gov,Active
189,LI-0244-22,OPP-9567-83,AID-5370-71,Robinett Bevans,Cork,230-474-1555,rbevans59@va.gov,Active
190,LI-0540-62,OPP-7172-65,AID-2820-66,Llywellyn McLaggan,Cork,344-611-4141,lmclaggan5a@timesonline.co.uk,Active
191,LI-5951-67,OPP-5924-81,AID-2608-92,Florette Gamlen,Dublin,605-277-2293,fgamlen5b@apache.org,Active
192,LI-1363-89,OPP-0911-98,AID-9103-51,Anstice Gwyneth,Galway,327-117-0601,agwyneth5c@imageshack.us,Active
193,LI-5843-05,OPP-7665-78,AID-5881-98,Ruth Loft,Cork,324-182-1449,rloft5d@wikispaces.com,Active
194,LI-4202-17,OPP-2449-47,AID-3944-03,Rik Hansana,Cork,502-871-0605,rhansana5e@google.com.hk,Active
195,LI-7429-63,OPP-3588-79,AID-9234-62,Danell Armell,Galway,254-414-9716,darmell5f@bbc.co.uk,Active
196,LI-4596-68,OPP-4144-95,AID-5866-11,Danette Izakoff,Cork,946-522-4088,dizakoff5g@list-manage.com,Active
197,LI-3938-75,OPP-0369-83,AID-6602-10,Lorita Legan,Cork,412-977-4201,llegan5h@apache.org,Active
198,LI-0722-74,OPP-2216-92,AID-2088-14,Loralyn Coffin,Cork,807-665-1945,lcoffin5i@ftc.gov,Active
199,LI-2870-03,OPP-7274-52,AID-3268-18,Sheelah Hatje,Galway,744-290-0732,shatje5j@youtube.com,Active
200,LI-4714-16,OPP-5361-10,AID-4453-57,Thomasin Boswood,Cork,627-279-3180,tboswood5k@kickstarter.com,Active
201,LI-3880-50,OPP-4137-91,AID-1482-08,Edithe Gedney,Dublin,792-989-8103,egedney5l@stumbleupon.com,Active
202,LI-5305-64,OPP-4155-91,AID-7690-25,Loraine Janko,Galway,848-583-6024,ljanko5m@meetup.com,Active
203,LI-5954-73,OPP-0370-53,AID-5990-49,Teodora Hamprecht,Galway,652-394-1979,thamprecht5n@soundcloud.com,Active
204,LI-1930-06,OPP-4834-31,AID-9679-58,Stacia Pettet,Cork,940-717-8859,spettet5o@spotify.com,Active
205,LI-5175-17,OPP-1369-00,AID-0466-52,Aloin Ramel,Galway,761-913-5867,aramel5p@php.net,Active
206,LI-5968-20,OPP-6186-47,AID-8118-59,Braden Scothern,Cork,158-176-3794,bscothern5q@w3.org,Active
207,LI-6745-75,OPP-7609-89,AID-6168-81,Delora Rebert,Cork,975-362-6305,drebert5r@opera.com,Active
208,LI-3607-17,OPP-4163-92,AID-1125-13,Hallsy Gain,Cork,819-877-2394,hgain5s@tiny.cc,Active
209,LI-7079-48,OPP-0505-05,AID-4701-00,Levon Aikin,Cork,916-702-9135,laikin5t@edublogs.org,Active
210,LI-4737-82,OPP-3578-66,AID-0868-77,Filide Petrecz,Galway,348-999-7107,fpetrecz5u@berkeley.edu,Active
211,LI-7472-60,OPP-0490-39,AID-5978-24,Marlin Kasting,Naas,787-240-8507,mkasting5v@slashdot.org,Active
212,LI-7678-35,OPP-9868-98,AID-4680-92,Aldus Clemetts,Galway,626-751-1261,aclemetts5w@comcast.net,Active
213,LI-2536-14,OPP-2730-74,AID-8337-54,Trueman Kneaphsey,Cork,199-545-8156,tkneaphsey5x@cloudflare.com,Active
214,LI-9612-21,OPP-1573-04,AID-8228-04,Amanda Bolesma,Naas,119-735-5593,abolesma5y@a8.net,Active
215,LI-7921-12,OPP-0184-15,AID-4900-62,Else Corhard,Galway,138-892-4982,ecorhard5z@cocolog-nifty.com,Active
216,LI-0499-60,OPP-6536-13,AID-5703-63,David Carefull,Dublin,880-414-5114,dcarefull60@dailymail.co.uk,Active
217,LI-6632-36,OPP-7538-58,AID-3039-45,Danna Vasilechko,Cork,483-388-6067,dvasilechko61@blogspot.com,Active
218,LI-0376-48,OPP-4939-43,AID-1543-76,Filip Buddington,Galway,815-774-4992,fbuddington62@sina.com.cn,Active
219,LI-4509-34,OPP-0562-28,AID-1936-10,Maire Summons,Dublin,853-762-4246,msummons63@theguardian.com,Active
220,LI-4655-63,OPP-5969-07,AID-9827-43,Lottie Kasper,Galway,363-261-1777,lkasper64@ted.com,Active
221,LI-4663-79,OPP-2966-90,AID-1462-81,Allsun Welford,Galway,742-953-2583,awelford65@t.co,Active
222,LI-3841-04,OPP-5473-55,AID-6324-56,Fawne Fane,Galway,956-427-7017,ffane66@noaa.gov,Active
223,LI-5420-97,OPP-0042-70,AID-9487-56,Lindy Sandison,Cork,596-893-7106,lsandison67@nydailynews.com,Active
224,LI-5840-85,OPP-3065-21,AID-8156-79,Corena Tonner,Cork,298-932-7484,ctonner68@slideshare.net,Active
225,LI-4535-94,OPP-5757-18,AID-3404-14,Gayel Flement,Cork,200-195-3132,gflement69@wikipedia.org,Active
226,LI-7340-55,OPP-4510-08,AID-5466-86,Reider Huguet,Cork,146-748-2123,rhuguet6a@blinklist.com,Active
227,LI-3897-11,OPP-8061-40,AID-2041-11,Anselma Philot,Dublin,735-192-5161,aphilot6b@redcross.org,Active
228,LI-4036-24,OPP-9328-27,AID-3367-02,Frasco Pover,Dublin,850-318-3025,fpover6c@mapquest.com,Active
229,LI-8982-27,OPP-4007-36,AID-3905-77,Ives Daviot,Galway,894-589-5085,idaviot6d@businessweek.com,Active
230,LI-7131-89,OPP-7715-83,AID-6828-29,Zola Basham,Galway,955-769-9772,zbasham6e@ucoz.ru,Active
231,LI-3394-00,OPP-8199-40,AID-5083-92,Annabelle Khoter,Cork,586-343-2457,akhoter6f@xinhuanet.com,Active
232,LI-9497-11,OPP-4591-77,AID-0464-92,Tod Driscoll,Cork,806-665-8503,tdriscoll6g@fema.gov,Active
233,LI-2558-92,OPP-3874-87,AID-4731-93,Terri-jo Swepson,Limerick,352-934-9462,tswepson6h@vimeo.com,Active
234,LI-0129-36,OPP-2134-47,AID-8833-16,Linn Murkitt,Cork,421-921-9452,lmurkitt6i@vkontakte.ru,Active
235,LI-5123-40,OPP-1691-14,AID-2261-06,Melosa Flockhart,Swords,816-254-5383,mflockhart6j@dropbox.com,Active
236,LI-9203-21,OPP-9071-95,AID-7148-74,Grannie Speariett,Galway,235-609-7363,gspeariett6k@cam.ac.uk,Active
237,LI-2432-70,OPP-2165-61,AID-3026-85,Kerri Stean,Galway,569-322-4089,kstean6l@indiatimes.com,Active
238,LI-0123-47,OPP-0825-05,AID-6872-36,Henry Pinchin,Galway,246-534-2253,hpinchin6m@dailymail.co.uk,Active
239,LI-9701-11,OPP-4053-82,AID-3273-53,Briny Itzcovichch,Swords,140-713-9145,bitzcovichch6n@state.gov,Active
240,LI-1819-06,OPP-8039-44,AID-2380-44,Hyacinthie Ingray,Cork,702-435-0566,hingray6o@cnn.com,Active
241,LI-2553-96,OPP-4548-57,AID-7915-36,Pippa Christensen,Galway,333-505-9754,pchristensen6p@github.io,Active
242,LI-2414-61,OPP-8500-00,AID-3819-57,Emery Blomefield,Cork,787-771-3463,eblomefield6q@naver.com,Active
243,LI-8499-35,OPP-3929-93,AID-2494-65,Noll Jantel,Cork,199-925-8502,njantel6r@weather.com,Active
244,LI-0150-71,OPP-2542-54,AID-8356-30,Davina Fripps,Cork,774-193-2439,dfripps6s@sfgate.com,Active
245,LI-7491-91,OPP-9071-35,AID-1610-22,Grantham Jenne,Cork,188-516-2524,gjenne6t@pcworld.com,Active
246,LI-2936-04,OPP-6773-81,AID-5225-37,Reina Skin,Swords,555-865-3340,rskin6u@engadget.com,Active
247,LI-6576-71,OPP-0839-51,AID-9906-57,Wren Streater,Dublin,630-890-5043,wstreater6v@sohu.com,Active
248,LI-3390-07,OPP-4187-14,AID-3968-91,Vitoria Ellacombe,Cork,344-623-2206,vellacombe6w@ovh.net,Active
249,LI-4852-19,OPP-6508-62,AID-1553-08,Siffre Clorley,Cork,119-757-3207,sclorley6x@harvard.edu,Active
250,LI-8090-48,OPP-7411-73,AID-0182-61,Giraud Ravenhill,Cork,928-876-9634,gravenhill6y@home.pl,Active
251,LI-9671-50,OPP-4634-66,AID-1151-59,Huntlee Timlin,Cork,442-569-6953,htimlin6z@ted.com,Active
252,LI-5363-52,OPP-0769-67,AID-3574-06,Temp Gusney,Cork,545-688-3424,tgusney70@rambler.ru,Active
253,LI-2817-91,OPP-7440-46,AID-8349-35,Cesare Damrell,Swords,461-836-8294,cdamrell71@clickbank.net,Active
254,LI-3105-76,OPP-6681-63,AID-9446-91,Gussy Jewis,Galway,552-634-1541,gjewis72@engadget.com,Active
255,LI-7243-38,OPP-5097-41,AID-4204-81,Peggie Edowes,Galway,791-801-9422,pedowes73@hostgator.com,Active
256,LI-5920-38,OPP-7360-39,AID-7344-17,Jedd McCord,Dublin,818-303-7752,jmccord74@princeton.edu,Active
257,LI-0148-58,OPP-5749-45,AID-7468-84,Daven Edlyn,Cork,755-292-7621,dedlyn75@tiny.cc,Active
258,LI-8663-44,OPP-1498-99,AID-5242-04,Susette Goodger,Cork,195-156-3046,sgoodger76@wsj.com,Active
259,LI-0588-01,OPP-7987-48,AID-3288-99,Livvie O'Coskerry,Shannon,323-406-8183,locoskerry77@japanpost.jp,Active
260,LI-8798-81,OPP-7066-32,AID-9720-98,Ag Fenge,Naas,283-472-3210,afenge78@dmoz.org,Active
261,LI-0514-26,OPP-2471-30,AID-4234-08,Orelee Niese,Cork,701-622-3684,oniese79@unc.edu,Active
262,LI-3090-68,OPP-6308-83,AID-7409-13,Verne Matherson,Galway,458-952-0021,vmatherson7a@mac.com,Active
263,LI-9194-88,OPP-6025-62,AID-3268-57,Anthia Martins,Cork,629-825-7459,amartins7b@oaic.gov.au,Active
264,LI-1282-27,OPP-6927-94,AID-2336-60,Malanie Spain-Gower,Naas,498-452-6216,mspaingower7c@fastcompany.com,Active
265,LI-5431-54,OPP-7816-64,AID-3527-90,Gertie Lopez,Dublin,966-578-0746,glopez7d@4shared.com,Active
266,LI-3858-01,OPP-8445-07,AID-9743-70,Laural Vella,Cork,709-281-7820,lvella7e@whitehouse.gov,Active
267,LI-8457-40,OPP-4118-82,AID-2959-44,Killie Conigsby,Dublin,866-912-1126,kconigsby7f@wikipedia.org,Active
268,LI-6825-11,OPP-3889-87,AID-0039-50,Veronika Cowx,Cork,773-175-9010,vcowx7g@hp.com,Active
269,LI-1793-80,OPP-4190-58,AID-0112-06,Mack Tattersall,Cork,985-863-3996,mtattersall7h@businessinsider.com,Active
270,LI-2972-06,OPP-9769-78,AID-9778-19,Hayward Bragger,Swords,416-106-0742,hbragger7i@sciencedirect.com,Active
271,LI-1885-00,OPP-7938-98,AID-8325-11,Kristin Behning,Swords,131-993-7121,kbehning7j@discuz.net,Active
272,LI-8171-11,OPP-0350-98,AID-3411-98,Alta Hemphall,Cork,385-234-9487,ahemphall7k@nydailynews.com,Active
273,LI-3497-98,OPP-2399-01,AID-8162-90,Joby Buckleigh,Cork,649-650-6435,jbuckleigh7l@ning.com,Active
274,LI-2144-37,OPP-3847-72,AID-3217-92,Trisha Vannet,Cork,830-248-4285,tvannet7m@pbs.org,Active
275,LI-1048-85,OPP-7748-82,AID-6695-51,Lucine Jentzsch,Galway,324-522-2822,ljentzsch7n@state.gov,Active
276,LI-2858-71,OPP-7493-54,AID-1829-01,Jody Scardifield,Cork,215-461-6212,jscardifield7o@google.it,Active
277,LI-3756-50,OPP-5637-86,AID-1762-38,Courtenay Vedikhov,Cork,205-222-3037,cvedikhov7p@cloudflare.com,Active
278,LI-2191-82,OPP-8778-93,AID-9706-11,Karry Elbourne,Cork,494-338-8568,kelbourne7q@mapquest.com,Active
279,LI-7090-31,OPP-9247-41,AID-1553-63,Rainer Harrold,Cork,196-274-8972,rharrold7r@nydailynews.com,Active
280,LI-4394-44,OPP-8459-08,AID-0552-27,Nola Mousley,Dublin,584-855-3229,nmousley7s@nationalgeographic.com,Active
281,LI-5973-99,OPP-6354-59,AID-7423-60,Zaccaria Skilbeck,Cork,803-796-1826,zskilbeck7t@wufoo.com,Active
282,LI-8316-44,OPP-5362-34,AID-2532-54,Yvon Mourant,Cork,767-275-2279,ymourant7u@spotify.com,Active
283,LI-3005-52,OPP-7261-98,AID-1422-10,Thorvald Cockrill,Cork,691-465-6302,tcockrill7v@wufoo.com,Active
284,LI-1168-88,OPP-4483-18,AID-6546-79,Anabelle Murrhardt,Galway,464-156-7945,amurrhardt7w@dyndns.org,Active
285,LI-0934-01,OPP-1537-14,AID-3252-14,Ronna Maddy,Galway,547-877-9315,rmaddy7x@goodreads.com,Active
286,LI-4795-38,OPP-7239-13,AID-4869-53,Alexis Keysel,Dublin,191-112-2793,akeysel7y@naver.com,Active
287,LI-2089-35,OPP-7973-68,AID-3421-45,Elden Mathevet,Cork,536-775-5784,emathevet7z@chicagotribune.com,Active
288,LI-5327-40,OPP-2852-35,AID-0179-92,Anastasie Skerritt,Cork,709-445-9393,askerritt80@rambler.ru,Active
289,LI-4961-70,OPP-7992-36,AID-7400-01,Amargo MacCartair,Cork,409-523-5702,amaccartair81@linkedin.com,Active
290,LI-7784-78,OPP-7357-54,AID-4433-52,Halsy Ricks,Galway,149-774-6776,hricks82@paginegialle.it,Active
291,LI-4152-51,OPP-7474-42,AID-1961-63,Zachary Rawe,Galway,722-842-2122,zrawe83@yale.edu,Active
292,LI-4349-38,OPP-8765-21,AID-1526-71,Osborne Muggleston,Limerick,516-334-9045,omuggleston84@last.fm,Active
293,LI-2466-49,OPP-1327-13,AID-0071-14,Marne Govett,Galway,320-170-0561,mgovett85@ehow.com,Active
294,LI-2465-29,OPP-5333-17,AID-8305-29,Carlita Patterfield,Shannon,292-731-4538,cpatterfield86@jigsy.com,Active
295,LI-6167-60,OPP-7678-76,AID-1986-79,Ninnette Shutte,Limerick,542-527-0506,nshutte87@wordpress.com,Active
296,LI-5848-78,OPP-9457-67,AID-9331-74,Lemmie Bracer,Galway,158-148-9525,lbracer88@deliciousdays.com,Active
297,LI-4173-36,OPP-9355-81,AID-5852-80,Julian Fleet,Galway,159-457-7477,jfleet89@homestead.com,Active
298,LI-6953-06,OPP-0070-34,AID-0082-34,Marvin Slatford,Galway,406-238-4585,mslatford8a@yale.edu,Active
299,LI-8225-45,OPP-8261-95,AID-4109-50,Electra Warratt,Cork,170-664-1594,ewarratt8b@omniture.com,Active
300,LI-5389-92,OPP-5628-56,AID-7397-92,Clarita Grier,Cork,713-656-8450,cgrier8c@booking.com,Active
301,LI-6439-78,OPP-0564-77,AID-9138-22,Fulvia Suddock,Limerick,290-959-5548,fsuddock8d@gravatar.com,Active
302,LI-9863-14,OPP-9584-24,AID-2057-74,Griswold Wederell,Naas,914-613-8031,gwederell8e@psu.edu,Active
303,LI-8882-01,OPP-2043-27,AID-5574-20,Ronnie Kidby,Cork,669-383-0565,rkidby8f@artisteer.com,Active
304,LI-5841-09,OPP-3052-94,AID-7869-35,Vic Ties,Limerick,320-644-4226,vties8g@instagram.com,Active
305,LI-6835-06,OPP-4236-74,AID-6937-01,Karon Cartmel,Dublin,208-814-4389,kcartmel8h@imgur.com,Active
306,LI-9096-40,OPP-0090-80,AID-3834-98,Carlotta Pau,Galway,469-744-4199,cpau8i@instagram.com,Active
307,LI-6143-48,OPP-6266-81,AID-6557-63,Bob Stitcher,Shannon,218-963-2307,bstitcher8j@msu.edu,Active
308,LI-1161-83,OPP-2980-78,AID-5988-57,Roosevelt Call,Cork,743-695-5547,rcall8k@berkeley.edu,Active
309,LI-0749-12,OPP-8356-90,AID-5563-36,Analise Sarath,Galway,754-147-2331,asarath8l@mayoclinic.com,Active
310,LI-1658-49,OPP-6101-75,AID-7827-77,Cris Rickcord,Cork,162-933-5734,crickcord8m@ocn.ne.jp,Active
311,LI-8752-74,OPP-2152-99,AID-1036-07,Ofelia Haydock,Cork,875-753-6097,ohaydock8n@odnoklassniki.ru,Active
312,LI-9501-98,OPP-3678-31,AID-6036-20,Benny Catherick,Dublin,697-868-0002,bcatherick8o@lycos.com,Active
313,LI-9239-59,OPP-9994-36,AID-7552-29,Feodor Cranmore,Galway,404-462-4831,fcranmore8p@ucoz.ru,Active
314,LI-2796-44,OPP-7825-54,AID-1771-58,Alysa Hubach,Galway,766-914-9232,ahubach8q@sogou.com,Active
315,LI-8909-82,OPP-1969-99,AID-7385-87,Reeta Battrum,Cork,850-750-5664,rbattrum8r@last.fm,Active
316,LI-8151-02,OPP-9983-86,AID-1534-75,Daisey Dentith,Dublin,486-172-2373,ddentith8s@apache.org,Active
317,LI-1217-85,OPP-8769-37,AID-2653-90,Chiquita Kegley,Galway,587-912-4497,ckegley8t@wordpress.com,Active
318,LI-6842-40,OPP-2866-72,AID-5502-55,Analise Tallant,Cork,393-186-8273,atallant8u@census.gov,Active
319,LI-0136-24,OPP-6623-61,AID-1001-83,Maxine Andreini,Cork,128-790-0962,mandreini8v@aboutads.info,Active
320,LI-1213-82,OPP-6784-27,AID-1812-53,Blake Rodman,Galway,424-857-5815,brodman8w@bbc.co.uk,Active
321,LI-5946-07,OPP-4166-10,AID-0229-08,Charlotta Whiffen,Cork,674-180-9295,cwhiffen8x@friendfeed.com,Active
322,LI-0699-99,OPP-6081-03,AID-0311-30,Jannel Schule,Cork,168-580-7791,jschule8y@hostgator.com,Active
323,LI-1332-55,OPP-1125-18,AID-6929-35,Devin Kenson,Dublin,754-723-7735,dkenson8z@csmonitor.com,Active
324,LI-6085-10,OPP-4274-85,AID-1027-30,Lucie Cestard,Cork,851-522-5736,lcestard90@amazonaws.com,Active
325,LI-0976-29,OPP-6333-57,AID-5228-30,Hale Chisholm,Cork,379-485-6988,hchisholm91@omniture.com,Active
326,LI-2115-95,OPP-6236-62,AID-8465-77,Davida Grishakov,Cork,915-842-2273,dgrishakov92@loc.gov,Active
327,LI-6456-14,OPP-9141-17,AID-8244-42,Valentin Goroni,Dublin,353-926-2205,vgoroni93@bravesites.com,Active
328,LI-6504-88,OPP-8627-46,AID-7501-75,Bernelle Biddy,Cork,956-566-6785,bbiddy94@abc.net.au,Active
329,LI-7137-00,OPP-3129-14,AID-2830-72,Devon Kearton,Cork,467-794-4789,dkearton95@prweb.com,Active
330,LI-8160-08,OPP-3508-24,AID-5512-82,Jayne Lacroix,Swords,675-661-2335,jlacroix96@adobe.com,Active
331,LI-5933-21,OPP-3335-59,AID-4145-80,Fidole Wilcockes,Naas,895-105-0704,fwilcockes97@linkedin.com,Active
332,LI-5787-51,OPP-3952-44,AID-5870-79,Idaline Bullock,Galway,641-403-6875,ibullock98@sciencedaily.com,Active
333,LI-0205-55,OPP-9874-28,AID-7547-60,Yoko Westmerland,Dublin,350-347-0562,ywestmerland99@disqus.com,Active
334,LI-3231-63,OPP-1353-56,AID-2928-57,Philly Grigorio,Galway,438-770-2787,pgrigorio9a@nsw.gov.au,Active
335,LI-8406-08,OPP-2621-01,AID-8344-21,Mercie Bengough,Dublin,978-629-6662,mbengough9b@tmall.com,Active
336,LI-4057-25,OPP-5314-86,AID-9451-22,Cariotta Jarmyn,Cork,259-759-4705,cjarmyn9c@tinyurl.com,Active
337,LI-7677-60,OPP-3604-41,AID-9591-06,Earlie Goretti,Cork,774-261-8631,egoretti9d@sbwire.com,Active
338,LI-0340-03,OPP-0039-68,AID-5303-26,Katey Gerrels,Galway,381-292-0850,kgerrels9e@trellian.com,Active
339,LI-3649-78,OPP-9964-58,AID-7098-00,Kristian Jorg,Galway,496-339-9639,kjorg9f@parallels.com,Active
340,LI-6168-50,OPP-2105-73,AID-7577-67,Billy ffrench Beytagh,Galway,752-193-8897,bffrench9g@dell.com,Active
341,LI-1895-75,OPP-5519-40,AID-7285-03,Jessalyn Popelay,Galway,739-584-6818,jpopelay9h@jalbum.net,Active
342,LI-9340-41,OPP-7310-77,AID-5381-89,Ximenez Liversidge,Cork,478-492-0981,xliversidge9i@wikipedia.org,Active
343,LI-4405-15,OPP-3425-57,AID-0666-81,Sonnnie Garnam,Galway,737-622-3615,sgarnam9j@youtube.com,Active
344,LI-8052-77,OPP-8348-44,AID-4067-65,Rance Clausen,Cork,771-729-6541,rclausen9k@dmoz.org,Active
345,LI-8329-65,OPP-3394-22,AID-5989-28,Zaneta Mileham,Limerick,174-767-0020,zmileham9l@google.com.au,Active
346,LI-0112-22,OPP-9351-72,AID-8910-06,Merle Applewhite,Cork,999-510-1347,mapplewhite9m@nydailynews.com,Active
347,LI-9200-16,OPP-4383-77,AID-0999-72,Joana Halshaw,Dublin,331-129-5236,jhalshaw9n@tiny.cc,Active
348,LI-0567-31,OPP-1638-77,AID-4548-37,Alford Stoeck,Cork,597-658-0490,astoeck9o@wix.com,Active
349,LI-5125-83,OPP-0337-06,AID-5059-07,Rhett Lenton,Galway,212-179-9900,rlenton9p@ox.ac.uk,Active
350,LI-7820-63,OPP-4220-34,AID-0910-49,Roderic Scorer,Galway,667-134-9412,rscorer9q@cyberchimps.com,Active
351,LI-3597-77,OPP-3719-08,AID-9432-05,Amy Chiddy,Galway,910-764-3154,achiddy9r@rediff.com,Active
352,LI-9213-57,OPP-6830-69,AID-7140-51,Beth Caldayrou,Cork,675-537-2629,bcaldayrou9s@acquirethisname.com,Active
353,LI-1156-69,OPP-9043-03,AID-5573-38,Margeaux Stedson,Cork,701-432-9982,mstedson9t@admin.ch,Active
354,LI-7357-26,OPP-6711-57,AID-4795-62,Valaree Hudel,Cork,548-249-0790,vhudel9u@behance.net,Active
355,LI-6522-98,OPP-4889-97,AID-6953-02,Korry Marians,Galway,481-553-8972,kmarians9v@csmonitor.com,Active
356,LI-0808-62,OPP-8327-62,AID-9282-44,Shaine Urry,Cork,589-153-4284,surry9w@google.com.au,Active
357,LI-9057-98,OPP-1817-64,AID-2351-52,Bili Ricciardo,Galway,509-217-9314,bricciardo9x@who.int,Active
358,LI-8775-04,OPP-1406-86,AID-2997-45,Agneta Brumfitt,Galway,391-495-8319,abrumfitt9y@cpanel.net,Active
359,LI-3656-30,OPP-0717-72,AID-4102-54,Alvira Pass,Cork,943-492-3980,apass9z@amazon.de,Active
360,LI-7153-85,OPP-0018-70,AID-0489-48,Lonnie Axworthy,Galway,668-658-9676,laxworthya0@mediafire.com,Active
361,LI-7443-07,OPP-8221-85,AID-2706-06,Elisabeth Truckett,Galway,404-811-4396,etrucketta1@friendfeed.com,Active
362,LI-5193-68,OPP-3061-69,AID-4945-52,Arturo Cornford,Galway,375-224-4020,acornforda2@smugmug.com,Active
363,LI-6753-51,OPP-7020-33,AID-3120-75,Rona Redmille,Galway,816-509-2688,rredmillea3@ifeng.com,Active
364,LI-6116-93,OPP-0904-24,AID-6412-94,Barby Janout,Naas,445-806-5247,bjanouta4@hhs.gov,Active
365,LI-2048-27,OPP-2635-95,AID-2821-02,Gennie Maving,Galway,588-634-9462,gmavinga5@slate.com,Active
366,LI-3377-94,OPP-5084-33,AID-0915-99,Dacie Craigie,Cork,756-384-3232,dcraigiea6@nih.gov,Active
367,LI-1468-27,OPP-9790-77,AID-2776-71,Archie Clurow,Cork,501-440-2354,aclurowa7@google.com,Active
368,LI-9759-98,OPP-5932-21,AID-2398-55,Josh Enriques,Naas,782-997-7200,jenriquesa8@wordpress.com,Active
369,LI-7619-95,OPP-5426-49,AID-0371-40,Matias McNeillie,Cork,216-628-3658,mmcneilliea9@oracle.com,Active
370,LI-4608-04,OPP-8263-56,AID-2153-94,Shanta Wimes,Dublin,375-515-1256,swimesaa@tinyurl.com,Active
371,LI-6770-90,OPP-3523-71,AID-5012-75,Evie Genny,Cork,500-477-7653,egennyab@bandcamp.com,Active
372,LI-4594-93,OPP-4826-03,AID-2348-72,Jeannie Straker,Cork,105-507-4824,jstrakerac@creativecommons.org,Active
373,LI-2174-61,OPP-1669-10,AID-3016-43,Adriana Dinneges,Cork,513-379-0448,adinnegesad@wiley.com,Active
374,LI-0583-71,OPP-0100-38,AID-2712-57,Jacobo Andreini,Swords,717-302-2449,jandreiniae@nih.gov,Active
375,LI-2461-31,OPP-6129-96,AID-6778-27,Rockwell Brahm,Galway,236-246-7985,rbrahmaf@reuters.com,Active
376,LI-9242-67,OPP-1138-42,AID-1307-59,Barton Laidel,Galway,470-678-7345,blaidelag@macromedia.com,Active
377,LI-0568-61,OPP-7049-60,AID-3314-89,Jacinta Kempstone,Cork,817-124-2344,jkempstoneah@weebly.com,Active
378,LI-4124-77,OPP-2323-86,AID-5937-62,Averil Lacey,Galway,975-777-4206,alaceyai@biblegateway.com,Active
379,LI-6877-89,OPP-6938-37,AID-4151-81,Dewey Godbolt,Swords,527-859-6467,dgodboltaj@google.co.uk,Active
380,LI-5537-73,OPP-5853-29,AID-9912-28,Shamus Vlasenko,Galway,323-101-6190,svlasenkoak@digg.com,Active
381,LI-7296-72,OPP-6090-87,AID-2733-52,Hazlett McVicker,Cork,467-979-3691,hmcvickeral@yellowbook.com,Active
382,LI-6173-77,OPP-5677-61,AID-5740-37,Parrnell Mandal,Galway,150-874-4602,pmandalam@jigsy.com,Active
383,LI-4323-10,OPP-9947-00,AID-0739-57,Myrle Hardistry,Cork,488-324-0054,mhardistryan@mashable.com,Active
384,LI-8723-36,OPP-4050-79,AID-8769-18,Meggy Yitzhok,Cork,998-927-1275,myitzhokao@cbslocal.com,Active
385,LI-7854-90,OPP-0318-27,AID-3511-80,Keenan Pretti,Galway,354-640-7447,kprettiap@nba.com,Active
386,LI-3721-72,OPP-2308-34,AID-9818-12,Madalyn Filyukov,Cork,943-225-4965,mfilyukovaq@gravatar.com,Active
387,LI-4249-24,OPP-5623-72,AID-3508-54,Eddy Yurygyn,Cork,455-410-4035,eyurygynar@tripod.com,Active
388,LI-8216-50,OPP-6812-94,AID-8391-64,Golda Sevin,Swords,165-474-7900,gsevinas@bloglines.com,Active
389,LI-6659-53,OPP-0465-17,AID-9016-29,Linnet Hartill,Cork,772-564-8176,lhartillat@biglobe.ne.jp,Active
390,LI-9945-67,OPP-7753-57,AID-5175-77,Lindsey Hellmore,Cork,695-614-8297,lhellmoreau@blog.com,Active
391,LI-8075-83,OPP-3163-27,AID-7406-57,Katie Blair,Dublin,825-359-6870,kblairav@blogs.com,Active
392,LI-8630-36,OPP-7877-80,AID-6207-01,Candice Sparrow,Galway,791-127-1411,csparrowaw@abc.net.au,Active
393,LI-4468-66,OPP-2016-98,AID-6780-72,Hobart Sowersby,Dublin,641-933-6838,hsowersbyax@google.fr,Active
394,LI-4825-68,OPP-5625-71,AID-5022-73,Rosalinda Stevens,Cork,979-807-2946,rstevensay@scientificamerican.com,Active
395,LI-6175-54,OPP-7473-30,AID-6177-56,Berkeley Greenin,Dublin,539-117-5179,bgreeninaz@prnewswire.com,Active
396,LI-5297-97,OPP-8768-03,AID-4302-06,Myra Phillp,Cork,816-162-0066,mphillpb0@cisco.com,Active
397,LI-8506-37,OPP-3046-72,AID-3518-76,Gwyneth Olivo,Galway,963-954-4943,golivob1@state.tx.us,Active
398,LI-6367-01,OPP-0719-30,AID-7340-26,Silvio Coade,Galway,309-335-9168,scoadeb2@wiley.com,Active
399,LI-8337-77,OPP-0226-68,AID-8899-00,Gard Diviney,Cork,478-239-1038,gdivineyb3@studiopress.com,Active
400,LI-2255-82,OPP-4556-37,AID-0362-22,Arnoldo Beresford,Cork,798-641-7747,aberesfordb4@about.me,Active
401,LI-8669-79,OPP-4896-63,AID-6126-96,Trenna Armfield,Cork,527-173-2805,tarmfieldb5@noaa.gov,Active
402,LI-3198-49,OPP-1046-09,AID-4238-23,Lavina Virgin,Dublin,266-788-8603,lvirginb6@last.fm,Active
403,LI-4649-04,OPP-0972-45,AID-3309-45,Ollie Taffee,Galway,170-752-5533,otaffeeb7@prweb.com,Active
404,LI-5105-57,OPP-7588-25,AID-6595-30,Obed O'Corrane,Cork,407-866-8211,oocorraneb8@time.com,Active
405,LI-2153-57,OPP-5457-45,AID-2547-44,Scot Badder,Galway,234-258-1383,sbadderb9@bloglovin.com,Active
406,LI-4651-98,OPP-8300-89,AID-6561-37,Golda Lindman,Dublin,953-301-9377,glindmanba@si.edu,Active
407,LI-0200-12,OPP-7124-21,AID-6387-79,Gussi Alpin,Swords,847-489-3857,galpinbb@acquirethisname.com,Active
408,LI-0778-22,OPP-4300-91,AID-0910-05,Kristofer O'Nions,Galway,203-921-4781,konionsbc@nsw.gov.au,Active
409,LI-4360-45,OPP-7879-50,AID-2968-74,Aurilia Boundy,Cork,194-321-1974,aboundybd@storify.com,Active
410,LI-1930-23,OPP-6244-70,AID-2908-10,Merrili Sands,Cork,607-932-7492,msandsbe@goodreads.com,Active
411,LI-4107-88,OPP-5677-31,AID-7100-60,Keriann Dalwood,Cork,456-968-9731,kdalwoodbf@yelp.com,Active
412,LI-1983-30,OPP-2518-94,AID-5675-80,Melissa Casebourne,Galway,487-496-7825,mcasebournebg@wikispaces.com,Active
413,LI-7470-55,OPP-4563-09,AID-9597-08,Martie Minihan,Cork,454-452-8915,mminihanbh@fotki.com,Active
414,LI-2163-23,OPP-3784-58,AID-6244-94,Rivy Iwaszkiewicz,Galway,147-273-0293,riwaszkiewiczbi@techcrunch.com,Active
415,LI-8987-53,OPP-3300-55,AID-8389-70,Sharyl Jolliff,Cork,139-867-0658,sjolliffbj@hc360.com,Active
416,LI-8742-34,OPP-4745-27,AID-6789-88,Dore Rengger,Cork,448-440-6195,drenggerbk@yolasite.com,Active
417,LI-6446-43,OPP-7220-29,AID-7042-30,Claudius Di Meo,Dublin,876-759-4651,cdibl@sourceforge.net,Active
418,LI-3083-62,OPP-1527-45,AID-9538-74,Stillman Strivens,Galway,904-313-6001,sstrivensbm@cbslocal.com,Active
419,LI-0792-92,OPP-1393-25,AID-4415-51,Brietta Bold,Cork,201-584-9561,bboldbn@ucsd.edu,Active
420,LI-0144-12,OPP-0264-72,AID-2042-52,Isabella Heindrick,Swords,357-248-1035,iheindrickbo@arstechnica.com,Active
421,LI-6826-34,OPP-7557-54,AID-6609-01,Israel Steet,Galway,237-673-0614,isteetbp@goo.ne.jp,Active
422,LI-4115-04,OPP-9228-18,AID-1853-28,Marylinda Bergeon,Galway,848-364-1105,mbergeonbq@ucoz.com,Active
423,LI-4013-92,OPP-7659-35,AID-6787-83,Zia Greasty,Galway,679-506-4634,zgreastybr@si.edu,Active
424,LI-1639-35,OPP-6658-34,AID-0547-10,Almeria Kurt,Cork,151-322-2926,akurtbs@xrea.com,Active
425,LI-3376-84,OPP-0532-15,AID-2162-45,Petronia Linnane,Cork,170-599-0086,plinnanebt@nps.gov,Active
426,LI-8170-94,OPP-0718-02,AID-5567-93,Lucita Tristram,Naas,616-150-3914,ltristrambu@blogspot.com,Active
427,LI-1776-23,OPP-7967-86,AID-3729-64,Hurleigh Duckworth,Swords,782-356-7621,hduckworthbv@sfgate.com,Active
428,LI-7147-41,OPP-4934-25,AID-0583-21,Shane Guerrin,Cork,503-960-4975,sguerrinbw@apple.com,Active
429,LI-9892-64,OPP-4142-45,AID-8542-71,Geraldine Boycott,Cork,536-321-7642,gboycottbx@seattletimes.com,Active
430,LI-4443-70,OPP-4878-73,AID-0181-25,Nonie Quare,Dublin,397-123-1177,nquareby@slate.com,Active
431,LI-8351-26,OPP-7329-18,AID-8878-63,Tawsha Moar,Cork,160-652-0343,tmoarbz@histats.com,Active
432,LI-1026-15,OPP-8766-39,AID-8927-83,Waldemar Spedding,Galway,933-417-7223,wspeddingc0@constantcontact.com,Active
433,LI-2789-43,OPP-1737-10,AID-6373-35,Jazmin Hullot,Swords,704-510-7672,jhullotc1@quantcast.com,Active
434,LI-2929-43,OPP-0159-56,AID-8781-37,Hubey Whyley,Galway,730-479-3916,hwhyleyc2@moonfruit.com,Active
435,LI-6469-28,OPP-7259-53,AID-4078-38,Vlad Greenaway,Dublin,147-682-1951,vgreenawayc3@lulu.com,Active
436,LI-2428-62,OPP-1181-06,AID-5142-54,Hymie Mitcham,Galway,575-758-2942,hmitchamc4@arstechnica.com,Active
437,LI-2335-01,OPP-0249-13,AID-9405-91,Vern Jaxon,Galway,894-510-4807,vjaxonc5@gizmodo.com,Active
438,LI-0340-23,OPP-2882-65,AID-4803-43,Chlo Ofen,Swords,713-923-6978,cofenc6@tuttocitta.it,Active
439,LI-8010-24,OPP-3552-15,AID-3079-78,Hunter Croad,Galway,282-656-0693,hcroadc7@sbwire.com,Active
440,LI-2914-57,OPP-4892-60,AID-5905-75,Hercule Budd,Galway,260-395-9032,hbuddc8@sciencedaily.com,Active
441,LI-0272-80,OPP-7233-81,AID-3132-85,Lenna Camidge,Cork,527-770-6822,lcamidgec9@webnode.com,Active
442,LI-1232-54,OPP-9145-95,AID-3392-45,Felice Sinson,Cork,292-943-7434,fsinsonca@fc2.com,Active
443,LI-4237-10,OPP-5572-50,AID-5682-91,Gene Bunton,Galway,276-940-7929,gbuntoncb@toplist.cz,Active
444,LI-1295-70,OPP-5371-86,AID-3395-69,Clayton Richings,Cork,130-853-2346,crichingscc@desdev.cn,Active
445,LI-4049-95,OPP-6478-96,AID-7179-88,Lisetta Franceschino,Cork,453-791-5088,lfranceschinocd@istockphoto.com,Active
446,LI-2375-76,OPP-0079-82,AID-6986-30,Gaylord O' Markey,Galway,807-710-8389,goce@studiopress.com,Active
447,LI-0840-03,OPP-1172-36,AID-8104-17,Darice Schneider,Cork,556-304-4409,dschneidercf@usa.gov,Active
448,LI-3002-60,OPP-8871-86,AID-6153-17,Emogene Hambatch,Galway,392-861-5031,ehambatchcg@rakuten.co.jp,Active
449,LI-0928-46,OPP-7453-11,AID-3344-07,Mechelle Clouston,Dublin,774-532-1972,mcloustonch@chron.com,Active
450,LI-5623-00,OPP-2068-63,AID-7451-61,Alberta Kleinstub,Cork,528-588-8437,akleinstubci@nature.com,Active
451,LI-2037-82,OPP-9638-75,AID-2868-94,Kaia Lainton,Cork,422-303-8682,klaintoncj@163.com,Active
452,LI-5193-96,OPP-8786-35,AID-2928-80,Alvy Willcox,Cork,757-616-2897,awillcoxck@bloglovin.com,Active
453,LI-4544-29,OPP-4822-00,AID-2156-39,Alphonse Castle,Galway,253-126-4623,acastlecl@wiley.com,Active
454,LI-9842-74,OPP-6266-18,AID-2165-99,Dion Laxson,Cork,205-896-3682,dlaxsoncm@washingtonpost.com,Active
455,LI-3245-22,OPP-6625-86,AID-5289-73,Emilie Delagnes,Galway,945-838-4079,edelagnescn@usatoday.com,Active
456,LI-3265-41,OPP-7342-29,AID-8551-92,Marnia Satteford,Dublin,407-309-8605,msattefordco@addthis.com,Active
457,LI-0438-25,OPP-6595-18,AID-3282-94,Catlee Allcott,Cork,907-955-3208,callcottcp@mapy.cz,Active
458,LI-8461-23,OPP-6113-22,AID-1914-56,Kelwin Ferschke,Galway,111-653-7810,kferschkecq@yahoo.com,Active
459,LI-3829-09,OPP-9120-13,AID-6599-40,Germaine Sturt,Cork,430-862-5370,gsturtcr@omniture.com,Active
460,LI-2375-63,OPP-0684-84,AID-3470-17,Thorpe Boc,Cork,810-981-4175,tboccs@accuweather.com,Active
461,LI-6207-58,OPP-2379-41,AID-7274-89,Kissiah Keher,Galway,247-391-4815,kkeherct@angelfire.com,Active
462,LI-7621-71,OPP-7814-84,AID-1577-65,Kirstyn Maidstone,Carlow,186-485-1180,kmaidstonecu@gmpg.org,Active
463,LI-1906-85,OPP-4618-63,AID-8303-90,Vilhelmina Siemianowicz,Cork,220-153-3091,vsiemianowiczcv@opensource.org,Active
464,LI-3056-87,OPP-0093-16,AID-9489-83,Flemming Brocket,Dublin,592-141-9876,fbrocketcw@soup.io,Active
465,LI-8974-04,OPP-5953-93,AID-7868-37,Latisha Baigent,Cork,617-762-0638,lbaigentcx@cbslocal.com,Active
466,LI-3276-53,OPP-2457-83,AID-7717-64,Vince Boschmann,Galway,117-734-9418,vboschmanncy@apple.com,Active
467,LI-0772-96,OPP-7956-48,AID-8851-78,Kaylee Matteacci,Dublin,182-187-4772,kmatteaccicz@lulu.com,Active
468,LI-1341-38,OPP-8387-68,AID-0376-76,Romonda Bernier,Cork,708-168-6953,rbernierd0@fastcompany.com,Active
469,LI-1023-85,OPP-7817-57,AID-6607-38,Raleigh Rebbeck,Galway,136-435-4298,rrebbeckd1@kickstarter.com,Active
470,LI-8397-07,OPP-9804-61,AID-4678-28,Georg Frantz,Cork,173-616-6342,gfrantzd2@wordpress.org,Active
471,LI-7706-91,OPP-4666-42,AID-4203-46,Ulberto Kort,Swords,426-476-9302,ukortd3@sphinn.com,Active
472,LI-1720-92,OPP-6035-81,AID-3268-45,Angelico Muddimer,Cork,758-405-0325,amuddimerd4@acquirethisname.com,Active
473,LI-5407-32,OPP-6654-85,AID-9326-75,Kimmy Geldard,Cork,968-158-2900,kgeldardd5@forbes.com,Active
474,LI-7716-70,OPP-2912-39,AID-5975-62,De witt Spowart,Galway,428-852-9354,dwittd6@addthis.com,Active
475,LI-1903-40,OPP-1020-27,AID-7015-27,Emmalee Fenlon,Dublin,945-613-3754,efenlond7@globo.com,Active
476,LI-0622-20,OPP-2706-09,AID-1324-42,Sunny Kingsley,Limerick,891-609-8118,skingsleyd8@deliciousdays.com,Active
477,LI-5016-43,OPP-2095-85,AID-8249-74,Heall Coiley,Galway,411-968-9953,hcoileyd9@berkeley.edu,Active
478,LI-5644-32,OPP-3777-19,AID-2716-47,Mellisa Tedder,Cork,955-496-3994,mtedderda@photobucket.com,Active
479,LI-9401-46,OPP-1907-47,AID-9917-30,Griff Feria,Limerick,655-587-3594,gferiadb@opera.com,Active
480,LI-4737-16,OPP-7450-12,AID-8132-08,Libby Gilding,Galway,167-275-7094,lgildingdc@woothemes.com,Active
481,LI-5605-84,OPP-4994-88,AID-5661-81,Willey Cowton,Dublin,583-123-8459,wcowtondd@cargocollective.com,Active
482,LI-8530-48,OPP-5900-53,AID-6715-56,Bordy Rimington,Galway,545-541-9247,brimingtonde@google.nl,Active
483,LI-7801-27,OPP-1764-74,AID-4880-61,Pierce Miskin,Galway,949-778-8642,pmiskindf@yahoo.com,Active
484,LI-3244-99,OPP-4501-98,AID-0723-81,Suzanna Chesters,Galway,590-479-2633,schestersdg@taobao.com,Active
485,LI-6020-09,OPP-6011-77,AID-4230-32,Peadar Gavigan,Cork,281-193-0687,pgavigandh@un.org,Active
486,LI-1617-88,OPP-7449-50,AID-4432-42,Jerrilee Warnock,Naas,378-881-4630,jwarnockdi@tamu.edu,Active
487,LI-2609-52,OPP-4966-73,AID-2498-69,Tann Airds,Galway,885-142-4629,tairdsdj@uol.com.br,Active
488,LI-2126-01,OPP-3333-38,AID-1964-31,Darcie Dryburgh,Cork,740-202-8851,ddryburghdk@dyndns.org,Active
489,LI-8058-67,OPP-0792-07,AID-4175-93,Felice Presnail,Cork,776-502-5864,fpresnaildl@virginia.edu,Active
490,LI-3423-81,OPP-8946-54,AID-0861-27,Dre Deverick,Galway,834-318-2617,ddeverickdm@live.com,Active
491,LI-6151-02,OPP-6793-53,AID-7947-71,Zilvia Yule,Cork,661-248-3018,zyuledn@cnn.com,Active
492,LI-2062-09,OPP-4138-30,AID-6451-77,Gabby Ravenshear,Galway,978-226-0567,gravensheardo@bizjournals.com,Active
493,LI-7700-00,OPP-8479-13,AID-8413-71,Janina Guerner,Galway,167-764-8859,jguernerdp@yandex.ru,Active
494,LI-4384-06,OPP-9912-33,AID-1801-24,Akim Tiery,Swords,591-738-5536,atierydq@accuweather.com,Active
495,LI-3500-98,OPP-3493-24,AID-4653-58,Roda Meak,Dublin,901-156-8494,rmeakdr@godaddy.com,Active
496,LI-7362-94,OPP-3157-43,AID-3212-48,Ulrica Pilbeam,Dublin,788-140-8206,upilbeamds@so-net.ne.jp,Active
497,LI-0231-09,OPP-7875-81,AID-0889-76,Edvard Gheorghe,Cork,694-221-5101,egheorghedt@disqus.com,Active
498,LI-2407-50,OPP-4824-26,AID-3615-23,Piggy Lashford,Galway,637-909-1090,plashforddu@alibaba.com,Active
499,LI-2941-78,OPP-9730-80,AID-0614-77,Kordula Leile,Cork,843-799-8224,kleiledv@skyrock.com,Active
500,LI-5249-53,OPP-6911-90,AID-9553-78,Fabian Rentalll,Cork,544-251-4325,frentallldw@tinyurl.com,Active
501,LI-8697-45,OPP-3331-28,AID-4486-56,Beverley Hebburn,Cork,805-581-5757,bhebburndx@un.org,Active
502,LI-1959-06,OPP-3579-73,AID-0637-57,Wileen Barnby,Cork,446-420-6022,wbarnbydy@comcast.net,Active
503,LI-6351-66,OPP-7568-87,AID-2912-28,Reggy Carslake,Cork,692-944-7027,rcarslakedz@devhub.com,Active
504,LI-9917-83,OPP-4316-13,AID-7017-18,Jarvis Prigmore,Cork,824-809-6624,jprigmoree0@wsj.com,Active
505,LI-3359-70,OPP-1490-55,AID-9361-87,Hatti Tolerton,Galway,426-201-6386,htolertone1@ask.com,Active
506,LI-6426-90,OPP-6043-06,AID-2368-59,Friedrick Macoun,Galway,173-306-7716,fmacoune2@miibeian.gov.cn,Active
507,LI-5127-09,OPP-2598-54,AID-0563-94,Darla Barnish,Galway,612-455-8745,dbarnishe3@stumbleupon.com,Active
508,LI-5687-77,OPP-7264-65,AID-0449-39,Olivia Ratnage,Cork,124-283-0543,oratnagee4@nps.gov,Active
509,LI-1103-11,OPP-2447-77,AID-8535-37,Yuri Falk,Dublin,605-804-5819,yfalke5@vk.com,Active
510,LI-8386-50,OPP-9620-20,AID-6305-14,Gabbey O'Carrol,Cork,697-387-4372,gocarrole6@vimeo.com,Active
511,LI-9178-50,OPP-1497-07,AID-2223-23,Wilfrid Marchi,Cork,644-209-5020,wmarchie7@google.com,Active
512,LI-9614-70,OPP-7693-34,AID-5313-81,Wells Sheasby,Galway,952-642-7522,wsheasbye8@scribd.com,Active
513,LI-9588-65,OPP-7005-70,AID-5329-83,Andie de Chastelain,Cork,249-944-6499,adee9@myspace.com,Active
514,LI-1826-83,OPP-4927-26,AID-2186-09,Letti McConachie,Cork,766-616-4889,lmcconachieea@csmonitor.com,Active
515,LI-7837-29,OPP-5775-73,AID-1060-58,Isis Gerler,Swords,989-216-9095,igerlereb@wikispaces.com,Active
516,LI-1854-52,OPP-1187-57,AID-9722-47,Bron Rubberts,Galway,137-291-1556,brubbertsec@exblog.jp,Active
517,LI-2893-00,OPP-0554-63,AID-5031-84,Jerry Snawden,Cork,580-749-0914,jsnawdened@youtube.com,Active
518,LI-3350-39,OPP-7612-27,AID-5455-76,Melli Coultass,Galway,695-113-8579,mcoultassee@hao123.com,Active
519,LI-3256-37,OPP-0461-86,AID-8433-74,Randa Stearn,Dublin,253-920-6268,rstearnef@whitehouse.gov,Active
520,LI-8856-36,OPP-7727-17,AID-4438-92,Elane Slipper,Cork,436-387-9869,eslippereg@domainmarket.com,Active
521,LI-8909-86,OPP-4499-31,AID-4884-78,Basilio Bolver,Cork,141-830-5814,bbolvereh@nature.com,Active
522,LI-4188-55,OPP-2203-33,AID-8625-59,Franni Battleson,Cork,640-784-5013,fbattlesonei@eepurl.com,Active
523,LI-9547-08,OPP-5258-23,AID-9096-10,Codie Vasyukov,Cork,118-975-2751,cvasyukovej@noaa.gov,Active
524,LI-0407-33,OPP-7821-20,AID-1579-22,Leena Pontefract,Cork,367-134-0419,lpontefractek@state.tx.us,Active
525,LI-0184-23,OPP-7427-07,AID-2790-99,Pat Peizer,Lismore,968-604-0666,ppeizerel@yahoo.com,Active
526,LI-3600-28,OPP-1616-10,AID-5281-94,Helen-elizabeth Mitchard,Cork,271-130-7085,hmitchardem@msn.com,Active
527,LI-6273-00,OPP-6859-88,AID-9880-65,Broderic Pawlyn,Swords,385-959-9940,bpawlynen@mashable.com,Active
528,LI-3988-81,OPP-3443-47,AID-7146-13,Toiboid Evens,Cork,123-826-2319,tevenseo@tripod.com,Active
529,LI-0188-97,OPP-0315-08,AID-5537-96,Gusella Dallimore,Galway,888-732-0473,gdallimoreep@dailymail.co.uk,Active
530,LI-5805-15,OPP-8212-34,AID-0983-31,Kermit Whorlton,Naas,625-235-6075,kwhorltoneq@deliciousdays.com,Active
531,LI-6809-71,OPP-7176-51,AID-6262-59,Jody Starling,Cork,740-441-0557,jstarlinger@globo.com,Active
532,LI-9892-60,OPP-3791-84,AID-9790-55,Lorry Kidd,Dublin,838-656-8226,lkiddes@dagondesign.com,Active
533,LI-9011-10,OPP-1925-67,AID-5072-82,Colby Gurg,Cork,993-747-8160,cgurget@elegantthemes.com,Active
534,LI-7664-13,OPP-8457-83,AID-1650-93,Nefen Dyster,Cork,805-118-2445,ndystereu@instagram.com,Active
535,LI-1230-36,OPP-9489-11,AID-8245-04,Russell Body,Dublin,680-858-6171,rbodyev@webs.com,Active
536,LI-5195-74,OPP-1804-68,AID-3990-91,Ronna Graver,Galway,666-593-8549,rgraverew@scientificamerican.com,Active
537,LI-2556-47,OPP-0581-82,AID-1730-15,Dick Dumbleton,Cork,444-989-6087,ddumbletonex@hao123.com,Active
538,LI-0037-35,OPP-5181-35,AID-0652-56,Pinchas Pettipher,Galway,261-936-5875,ppettipherey@ehow.com,Active
539,LI-2235-50,OPP-2777-74,AID-6604-60,Tucky Slaney,Galway,601-206-5274,tslaneyez@eepurl.com,Active
540,LI-9157-75,OPP-5722-42,AID-3665-34,Pierre Hunnaball,Galway,264-950-0962,phunnaballf0@noaa.gov,Active
541,LI-7019-27,OPP-7353-47,AID-4599-67,Marigold Somerlie,Cork,665-521-5101,msomerlief1@fda.gov,Active
542,LI-7074-74,OPP-1043-97,AID-7155-67,Eada Rene,Cork,860-405-2037,erenef2@cnn.com,Active
543,LI-7778-77,OPP-6190-37,AID-9638-84,Agatha Ilchenko,Cork,156-948-7909,ailchenkof3@symantec.com,Active
544,LI-2975-75,OPP-0710-56,AID-7852-49,Faustine Larking,Dublin,861-219-9896,flarkingf4@odnoklassniki.ru,Active
545,LI-4454-59,OPP-1222-62,AID-8006-71,Denny Gredden,Cork,413-955-5971,dgreddenf5@cafepress.com,Active
546,LI-9875-83,OPP-4621-79,AID-7961-26,Virgina Woodes,Cork,111-478-6466,vwoodesf6@arizona.edu,Active
547,LI-2518-03,OPP-6788-65,AID-3649-14,Krysta Pietrowicz,Lismore,844-954-3590,kpietrowiczf7@yelp.com,Active
548,LI-1651-11,OPP-4169-95,AID-9061-06,Lanie Wardington,Swords,319-321-1703,lwardingtonf8@cdbaby.com,Active
549,LI-0568-89,OPP-1080-87,AID-2642-68,Jim Guarin,Swords,506-323-5854,jguarinf9@bravesites.com,Active
550,LI-1806-26,OPP-0578-43,AID-7685-30,Sherilyn Dooman,Cork,195-198-4491,sdoomanfa@webmd.com,Active
551,LI-3692-66,OPP-9063-74,AID-0965-33,Alyse Tolomei,Cork,302-421-7313,atolomeifb@msu.edu,Active
552,LI-9940-22,OPP-7966-92,AID-9359-21,Valentia Normaville,Galway,422-990-1610,vnormavillefc@google.com,Active
553,LI-3649-38,OPP-9957-26,AID-9232-05,Donielle Saberton,Swords,213-369-5273,dsabertonfd@umich.edu,Active
554,LI-9730-18,OPP-9122-91,AID-7441-49,Hyacinth Phizacklea,Cork,623-145-7704,hphizackleafe@infoseek.co.jp,Active
555,LI-4876-60,OPP-0169-63,AID-8597-79,Estrellita List,Dublin,938-126-6954,elistff@indiegogo.com,Active
556,LI-0063-74,OPP-8534-98,AID-0333-96,Keir Vasey,Galway,273-333-9043,kvaseyfg@ezinearticles.com,Active
557,LI-9652-05,OPP-2398-39,AID-1848-09,Griffith McEvilly,Galway,723-842-6177,gmcevillyfh@shinystat.com,Active
558,LI-6434-40,OPP-6111-35,AID-9540-41,Kalindi Hamshar,Swords,582-966-1082,khamsharfi@hugedomains.com,Active
559,LI-2885-25,OPP-9866-37,AID-5149-52,Audrie Eake,Cork,168-373-7510,aeakefj@webeden.co.uk,Active
560,LI-4474-12,OPP-6675-60,AID-5205-13,Atalanta Morson,Cork,917-774-0444,amorsonfk@smugmug.com,Active
561,LI-7289-70,OPP-7026-02,AID-6259-50,Davis Tovey,Naas,305-893-8345,dtoveyfl@state.gov,Active
562,LI-7217-43,OPP-5278-92,AID-7960-99,Otto Scholey,Cork,896-835-6578,oscholeyfm@hostgator.com,Active
563,LI-8075-49,OPP-2446-44,AID-8216-60,Bev Clissell,Cork,207-128-0036,bclissellfn@opensource.org,Active
564,LI-5051-98,OPP-8857-72,AID-8077-05,Wayland Heymann,Galway,822-945-9353,wheymannfo@1und1.de,Active
565,LI-1515-11,OPP-8917-48,AID-4263-58,Yance Aynscombe,Galway,299-642-1685,yaynscombefp@ezinearticles.com,Active
566,LI-4352-16,OPP-2463-53,AID-0756-46,Elmore Ledamun,Galway,159-818-4615,eledamunfq@discuz.net,Active
567,LI-1882-03,OPP-4194-35,AID-6926-65,Phedra Symon,Cork,174-237-0420,psymonfr@comcast.net,Active
568,LI-5783-19,OPP-8997-22,AID-8547-04,Lyndsey Meritt,Galway,818-195-7677,lmerittfs@hao123.com,Active
569,LI-2762-88,OPP-2828-62,AID-3050-99,Dara Wickwar,Cork,638-174-0013,dwickwarft@ask.com,Active
570,LI-6379-16,OPP-0856-71,AID-7934-90,Henri Kleinerman,Galway,387-582-1412,hkleinermanfu@tiny.cc,Active
571,LI-1268-96,OPP-3562-40,AID-4516-98,Edna Volks,Cork,290-415-3428,evolksfv@vimeo.com,Active
572,LI-2181-10,OPP-6032-31,AID-7989-29,Jaclin Brearley,Cork,857-303-4920,jbrearleyfw@timesonline.co.uk,Active
573,LI-7481-53,OPP-0242-77,AID-3884-87,Crawford Bottrill,Cork,804-313-7836,cbottrillfx@china.com.cn,Active
574,LI-0484-89,OPP-3157-43,AID-0655-15,Lay Crangle,Swords,949-171-2770,lcranglefy@constantcontact.com,Active
575,LI-9194-51,OPP-1158-39,AID-0216-49,Sorcha Wornham,Cork,832-734-6469,swornhamfz@shop-pro.jp,Active
576,LI-6551-48,OPP-5685-81,AID-4225-93,Dorelia Pirrie,Galway,296-432-6650,dpirrieg0@photobucket.com,Active
577,LI-7868-58,OPP-4902-19,AID-1388-18,Sollie Gateley,Limerick,899-368-9765,sgateleyg1@oakley.com,Active
578,LI-0879-08,OPP-6153-66,AID-1352-55,Mildrid Lutwyche,Cork,418-684-6555,mlutwycheg2@blogger.com,Active
579,LI-9054-39,OPP-2134-71,AID-4370-34,Keith Barkas,Cork,442-882-9863,kbarkasg3@webeden.co.uk,Active
580,LI-7295-43,OPP-1226-08,AID-3060-56,Noami O'Shaughnessy,Cork,451-735-4087,noshaughnessyg4@narod.ru,Active
581,LI-7478-71,OPP-2959-90,AID-6807-91,Saunderson Mallord,Cork,995-668-1562,smallordg5@yale.edu,Active
582,LI-6301-80,OPP-2602-44,AID-4414-01,Marlee Leebetter,Cork,746-870-3742,mleebetterg6@bizjournals.com,Active
583,LI-0037-56,OPP-7727-82,AID-2131-28,Anabel Schuler,Dublin,514-561-4715,aschulerg7@com.com,Active
584,LI-1382-60,OPP-0950-41,AID-7263-08,Marlo Mapham,Swords,487-705-2369,mmaphamg8@netscape.com,Active
585,LI-8283-49,OPP-3923-94,AID-7449-31,Wolfy Poytress,Cork,754-479-8959,wpoytressg9@nydailynews.com,Active
586,LI-4134-47,OPP-0920-66,AID-0381-72,Byrann Breach,Cork,142-996-2148,bbreachga@wufoo.com,Active
587,LI-5000-32,OPP-2880-58,AID-4001-27,Orren MacParland,Cork,517-809-7474,omacparlandgb@spotify.com,Active
588,LI-9805-32,OPP-8619-90,AID-6326-16,Merry Low,Galway,611-967-2046,mlowgc@washington.edu,Active
589,LI-1566-72,OPP-3574-54,AID-4396-60,Steven MacKibbon,Galway,956-319-3026,smackibbongd@sfgate.com,Active
590,LI-3836-12,OPP-7808-23,AID-6604-42,Constantino Chalke,Dublin,577-451-1141,cchalkege@purevolume.com,Active
591,LI-5213-95,OPP-3898-07,AID-5211-51,Marga Challis,Cork,148-497-8893,mchallisgf@skyrock.com,Active
592,LI-5166-60,OPP-0336-86,AID-6726-95,Nickolas Bromell,Swords,506-273-2019,nbromellgg@soundcloud.com,Active
593,LI-7559-71,OPP-9723-34,AID-6003-67,Rubia Gresswell,Dublin,376-270-2888,rgresswellgh@gravatar.com,Active
594,LI-3859-52,OPP-2144-60,AID-7693-40,Walton Morland,Cork,156-317-4929,wmorlandgi@bloglovin.com,Active
595,LI-2140-87,OPP-9437-85,AID-7922-34,Audrye McAnellye,Cork,223-932-0059,amcanellyegj@tamu.edu,Active
596,LI-5958-58,OPP-2634-55,AID-5672-78,Leo Gilmartin,Cork,414-459-8744,lgilmartingk@oracle.com,Active
597,LI-4906-79,OPP-9029-08,AID-9630-43,Thibaut Warmington,Shannon,607-526-4528,twarmingtongl@hud.gov,Active
598,LI-0201-56,OPP-5888-53,AID-0602-40,Iormina Critcher,Galway,103-875-3202,icritchergm@google.com.br,Active
599,LI-5308-01,OPP-1277-68,AID-6060-43,Marvin Offell,Cork,564-784-5780,moffellgn@twitter.com,Active
600,LI-6242-70,OPP-7587-43,AID-9486-32,Patricia Penhale,Galway,976-760-3309,ppenhalego@list-manage.com,Active
601,LI-6189-04,OPP-1612-31,AID-4218-27,Jaquith Hockey,Cork,453-394-0536,jhockeygp@ibm.com,Active
602,LI-4158-70,OPP-3348-30,AID-4106-20,Nady Gauden,Cork,348-221-9522,ngaudengq@npr.org,Active
603,LI-2283-97,OPP-2531-79,AID-0632-09,Alix Camell,Swords,696-374-9391,acamellgr@cnet.com,Active
604,LI-0515-52,OPP-2754-01,AID-3994-52,Kevon Hearsum,Cork,525-411-4825,khearsumgs@pbs.org,Active
605,LI-5647-11,OPP-4441-94,AID-1059-26,Eveleen Torns,Dublin,809-182-6336,etornsgt@tiny.cc,Active
606,LI-4556-76,OPP-6559-78,AID-2399-53,Paten Cromarty,Galway,995-584-2717,pcromartygu@altervista.org,Active
607,LI-9656-42,OPP-9613-51,AID-3239-16,Fremont Kobpal,Dublin,749-692-8279,fkobpalgv@t.co,Active
608,LI-3563-56,OPP-7242-60,AID-8790-08,Ermengarde McVeighty,Galway,365-700-3801,emcveightygw@over-blog.com,Active
609,LI-4378-69,OPP-7363-90,AID-4010-42,Ferdinand Leuchars,Galway,780-913-2844,fleucharsgx@boston.com,Active
610,LI-4551-58,OPP-7246-07,AID-6494-39,Gabriellia Boyat,Galway,426-898-0110,gboyatgy@psu.edu,Active
611,LI-6586-83,OPP-0067-81,AID-0248-41,Yul Brame,Dublin,420-290-4262,ybramegz@so-net.ne.jp,Active
612,LI-7471-29,OPP-5011-99,AID-1612-41,Cleon Labroue,Cork,113-430-1378,clabroueh0@oracle.com,Active
613,LI-9079-63,OPP-5692-68,AID-9766-87,Melania Woodrooffe,Cork,585-876-5769,mwoodrooffeh1@freewebs.com,Active
614,LI-5609-36,OPP-2943-64,AID-4154-15,Franchot Chable,Cork,632-595-3434,fchableh2@cyberchimps.com,Active
615,LI-0198-59,OPP-9072-70,AID-4362-16,Maiga Wilkowski,Lismore,224-454-5284,mwilkowskih3@homestead.com,Active
616,LI-7827-06,OPP-8233-99,AID-2520-85,Sargent Stalley,Galway,708-270-6285,sstalleyh4@amazon.de,Active
617,LI-5485-34,OPP-2769-32,AID-6316-27,Winston Silbersak,Galway,998-112-6021,wsilbersakh5@google.com,Active
618,LI-5716-67,OPP-6935-96,AID-6111-83,Addy Bartol,Galway,457-260-5631,abartolh6@reverbnation.com,Active
619,LI-1637-92,OPP-9341-65,AID-0454-50,Holly Jost,Cork,433-536-8624,hjosth7@netlog.com,Active
620,LI-7876-48,OPP-0997-79,AID-1715-73,Kevan Piddle,Dublin,415-605-6462,kpiddleh8@oakley.com,Active
621,LI-7384-27,OPP-7721-34,AID-2763-93,Vidovic Gumby,Cork,831-603-2506,vgumbyh9@ebay.co.uk,Active
622,LI-2876-19,OPP-9845-26,AID-1909-89,Bernete Warbys,Dublin,909-504-1585,bwarbysha@phoca.cz,Active
623,LI-8291-02,OPP-8647-96,AID-3098-48,Alvinia Etchell,Cork,326-839-4027,aetchellhb@fc2.com,Active
624,LI-0452-62,OPP-5945-33,AID-0933-29,Raye Dowyer,Naas,605-492-6539,rdowyerhc@wunderground.com,Active
625,LI-5998-04,OPP-2083-50,AID-7321-31,Ginnifer Benzies,Galway,296-885-0444,gbenzieshd@patch.com,Active
626,LI-4269-74,OPP-8294-45,AID-6326-82,Janel Burges,Cork,186-484-0352,jburgeshe@blinklist.com,Active
627,LI-6915-91,OPP-6035-68,AID-0615-48,Howey Blackie,Cork,248-325-6820,hblackiehf@artisteer.com,Active
628,LI-8352-50,OPP-1671-22,AID-3297-83,Abagail Bedburrow,Cork,123-394-8863,abedburrowhg@upenn.edu,Active
629,LI-4161-07,OPP-1822-31,AID-3401-76,Essy Busek,Cork,782-341-2060,ebusekhh@bluehost.com,Active
630,LI-9057-69,OPP-6672-75,AID-0887-77,Tanney Wensley,Cork,329-424-2682,twensleyhi@hexun.com,Active
631,LI-7003-30,OPP-9708-68,AID-8064-71,Garreth Etches,Dublin,533-540-1750,getcheshj@meetup.com,Active
632,LI-2005-79,OPP-6725-12,AID-0873-86,Katuscha Gillatt,Galway,226-146-4354,kgillatthk@ebay.com,Active
633,LI-8363-38,OPP-3176-42,AID-8976-21,Tildy Tallet,Cork,807-203-5843,ttallethl@seesaa.net,Active
634,LI-2059-80,OPP-7389-33,AID-4490-18,Lucias Cape,Swords,381-461-4788,lcapehm@tinypic.com,Active
635,LI-2888-26,OPP-7250-43,AID-9910-36,Roxanne Bernaert,Swords,607-438-1031,rbernaerthn@dropbox.com,Active
636,LI-1570-33,OPP-9693-96,AID-6004-46,Edita Joicey,Swords,152-446-7379,ejoiceyho@nifty.com,Active
637,LI-0993-39,OPP-9222-42,AID-0921-22,Livvy Bosley,Galway,409-753-5069,lbosleyhp@istockphoto.com,Active
638,LI-6605-33,OPP-1156-40,AID-5039-85,Flinn Le Galle,Cork,547-167-5431,flehq@ask.com,Active
639,LI-5873-22,OPP-0184-71,AID-4773-95,Thadeus Ranald,Cork,227-469-0473,tranaldhr@home.pl,Active
640,LI-6536-40,OPP-9806-79,AID-3652-30,Lina Rohlfs,Cork,515-824-0656,lrohlfshs@drupal.org,Active
641,LI-6532-66,OPP-6393-53,AID-3224-55,Fabio Winsborrow,Limerick,463-798-1299,fwinsborrowht@multiply.com,Active
642,LI-0507-72,OPP-2012-70,AID-8837-65,Rodolfo Arends,Cork,742-384-9694,rarendshu@google.co.uk,Active
643,LI-7777-52,OPP-0593-27,AID-7471-90,Remy Cheng,Dublin,394-435-2139,rchenghv@live.com,Active
644,LI-7692-54,OPP-1292-18,AID-2144-18,Salem Overil,Galway,699-115-8843,soverilhw@privacy.gov.au,Active
645,LI-0029-13,OPP-3350-62,AID-5821-04,Sondra Yglesias,Dublin,512-547-3915,syglesiashx@skype.com,Active
646,LI-0021-71,OPP-5843-42,AID-4820-66,Estel Mithun,Cork,846-169-0723,emithunhy@indiegogo.com,Active
647,LI-7168-18,OPP-5436-59,AID-9024-05,Cassey Braunds,Cork,697-258-0146,cbraundshz@bbb.org,Active
648,LI-7779-57,OPP-9927-12,AID-9638-27,Justine Langran,Dublin,542-214-2801,jlangrani0@fema.gov,Active
649,LI-8767-75,OPP-5433-96,AID-6192-48,Darnell Stotherfield,Cork,506-930-6178,dstotherfieldi1@furl.net,Active
650,LI-8610-55,OPP-1496-47,AID-0359-98,Siobhan Poupard,Cork,743-862-4559,spoupardi2@auda.org.au,Active
651,LI-3548-02,OPP-8660-19,AID-5824-13,Raine Duplock,Cork,915-801-4332,rduplocki3@newsvine.com,Active
652,LI-2666-31,OPP-5577-06,AID-6025-23,Abelard Vallis,Cork,972-662-3075,avallisi4@yandex.ru,Active
653,LI-8032-86,OPP-5292-03,AID-8739-04,Karon Lethem,Cork,236-902-9757,klethemi5@dot.gov,Active
654,LI-9289-11,OPP-6377-87,AID-3524-05,Gifford Ricardon,Naas,850-714-7117,gricardoni6@gravatar.com,Active
655,LI-0784-30,OPP-2934-01,AID-4905-96,Angel McAne,Cork,887-281-7224,amcanei7@house.gov,Active
656,LI-2086-63,OPP-8001-78,AID-6467-20,Ulysses Tender,Swords,847-504-3041,utenderi8@github.io,Active
657,LI-3110-87,OPP-9842-11,AID-1488-39,Erick Tullett,Cork,261-955-9589,etulletti9@exblog.jp,Active
658,LI-1376-20,OPP-0950-19,AID-4759-80,Rodolfo Cradock,Galway,255-135-1579,rcradockia@elpais.com,Active
659,LI-4532-26,OPP-0106-39,AID-2932-43,Tripp Davitti,Dublin,973-173-3204,tdavittiib@blogs.com,Active
660,LI-5180-26,OPP-4043-54,AID-9254-08,Amalea Ingry,Dublin,907-999-1913,aingryic@hostgator.com,Active
661,LI-7286-91,OPP-8885-44,AID-1105-50,Evvy Priestman,Limerick,747-329-4383,epriestmanid@geocities.jp,Active
662,LI-1030-05,OPP-7119-60,AID-0549-98,Natalee Van Son,Galway,291-398-3509,nvanie@sbwire.com,Active
663,LI-4063-29,OPP-9209-19,AID-9808-13,Robinetta Gibke,Cork,652-632-8911,rgibkeif@cdbaby.com,Active
664,LI-1794-33,OPP-3108-91,AID-1481-04,Karilynn Lyness,Cork,109-510-3755,klynessig@nature.com,Active
665,LI-3293-23,OPP-3099-97,AID-7782-04,Maudie Seagood,Galway,957-231-5535,mseagoodih@de.vu,Active
666,LI-2283-56,OPP-8215-88,AID-8329-51,Carolyne Hand,Galway,845-484-0786,chandii@thetimes.co.uk,Active
667,LI-0785-90,OPP-5965-46,AID-0399-66,Cesya Mc Comb,Shannon,786-576-7126,cmcij@booking.com,Active
668,LI-0264-23,OPP-4698-42,AID-5358-79,Angil Boshers,Galway,419-244-1169,aboshersik@woothemes.com,Active
669,LI-5869-65,OPP-1596-31,AID-0094-07,Park Grubbe,Cork,279-724-5703,pgrubbeil@tamu.edu,Active
670,LI-3898-77,OPP-8481-02,AID-5263-92,Elberta Guiso,Cork,398-524-7109,eguisoim@odnoklassniki.ru,Active
671,LI-1454-30,OPP-4475-52,AID-1083-87,Vachel Shelp,Dublin,793-733-3609,vshelpin@privacy.gov.au,Active
672,LI-5691-11,OPP-6524-74,AID-1583-98,Carole Lunnon,Swords,346-640-2716,clunnonio@etsy.com,Active
673,LI-6843-44,OPP-9614-83,AID-9385-08,Nehemiah Meere,Dublin,776-761-3905,nmeereip@goodreads.com,Active
674,LI-2826-87,OPP-1734-84,AID-3842-01,Ingra Walne,Cork,608-110-6603,iwalneiq@washingtonpost.com,Active
675,LI-6359-08,OPP-9899-54,AID-7986-92,Stephannie Luesley,Cork,776-730-6945,sluesleyir@si.edu,Active
676,LI-3409-07,OPP-7261-15,AID-0941-16,Jackquelin Vermer,Naas,798-278-7179,jvermeris@chicagotribune.com,Active
677,LI-3120-29,OPP-2290-12,AID-2721-04,Quintina Duffil,Cork,251-404-6775,qduffilit@rakuten.co.jp,Active
678,LI-0990-32,OPP-0804-51,AID-9272-79,Elene Sargant,Cork,118-695-3424,esargantiu@cpanel.net,Active
679,LI-0165-04,OPP-2647-84,AID-7891-50,Sonnnie Howe,Galway,832-225-0679,showeiv@1688.com,Active
680,LI-4478-09,OPP-4869-18,AID-3915-90,Moishe Copcott,Cork,735-545-9609,mcopcottiw@csmonitor.com,Active
681,LI-3059-95,OPP-1788-46,AID-5151-82,Beniamino Abendroth,Dublin,524-305-8012,babendrothix@fda.gov,Active
682,LI-3545-16,OPP-8599-41,AID-5891-36,Gonzales Stuffins,Cork,741-741-8981,gstuffinsiy@parallels.com,Active
683,LI-1285-72,OPP-9359-98,AID-2526-75,Cazzie Rawll,Cork,462-680-8724,crawlliz@earthlink.net,Active
684,LI-3322-37,OPP-0576-55,AID-2113-92,Jaquith Chinery,Cork,769-209-5318,jchineryj0@wisc.edu,Active
685,LI-9845-68,OPP-6885-28,AID-4257-26,Tamera Towell,Cork,237-958-3900,ttowellj1@tinypic.com,Active
686,LI-7893-12,OPP-4517-23,AID-0153-87,Andie Cammell,Cork,892-556-1713,acammellj2@reference.com,Active
687,LI-6074-20,OPP-0435-84,AID-0277-47,Amii Hobble,Cork,421-862-9791,ahobblej3@stumbleupon.com,Active
688,LI-1101-68,OPP-2575-12,AID-6604-88,Web Weedall,Dublin,913-117-0190,wweedallj4@myspace.com,Active
689,LI-2154-49,OPP-9716-28,AID-9664-96,Marj Van den Hof,Galway,330-261-8262,mvanj5@wunderground.com,Active
690,LI-0270-28,OPP-9779-03,AID-4413-48,Lib Mordecai,Dublin,908-366-5655,lmordecaij6@topsy.com,Active
691,LI-5677-34,OPP-8679-96,AID-7477-84,Rupert Trowill,Galway,404-627-2532,rtrowillj7@hc360.com,Active
692,LI-7086-58,OPP-7509-47,AID-3128-60,Shepherd Topaz,Dublin,257-677-1346,stopazj8@trellian.com,Active
693,LI-7986-91,OPP-0938-83,AID-2464-49,Ayn Ghilardini,Swords,586-717-3996,aghilardinij9@mit.edu,Active
694,LI-6358-48,OPP-5996-39,AID-8444-32,Rena Linstead,Cork,321-470-1615,rlinsteadja@washingtonpost.com,Active
695,LI-4322-93,OPP-1761-95,AID-8652-16,Adolphe McOrkill,Cork,487-846-1214,amcorkilljb@youtu.be,Active
696,LI-2462-17,OPP-7770-10,AID-4778-27,Renaud Amphlett,Cork,554-819-7485,ramphlettjc@deliciousdays.com,Active
697,LI-5372-60,OPP-0663-80,AID-5285-57,Erna Chadney,Cork,730-737-9582,echadneyjd@prnewswire.com,Active
698,LI-5719-13,OPP-3425-12,AID-4805-67,Cynde Roby,Cork,394-870-2546,crobyje@soundcloud.com,Active
699,LI-7385-40,OPP-2301-73,AID-9422-96,Artemis Skipsea,Cork,142-604-3688,askipseajf@chicagotribune.com,Active
700,LI-9182-70,OPP-0687-27,AID-8110-42,Anderson Schenfisch,Cork,940-667-1961,aschenfischjg@drupal.org,Active
701,LI-6578-56,OPP-2201-93,AID-7682-62,Sashenka Perrinchief,Dublin,141-551-5130,sperrinchiefjh@yandex.ru,Active
702,LI-4080-08,OPP-0786-32,AID-4981-39,Aviva Franciotti,Dublin,418-548-0582,afranciottiji@narod.ru,Active
703,LI-9689-47,OPP-6689-15,AID-6669-81,Afton Matousek,Galway,839-692-5616,amatousekjj@cbslocal.com,Active
704,LI-9978-63,OPP-6074-93,AID-5553-70,Nanny Satterly,Cork,865-521-3607,nsatterlyjk@ocn.ne.jp,Active
705,LI-9831-34,OPP-5555-73,AID-2883-97,Ethelyn Kobiera,Cork,763-334-9442,ekobierajl@whitehouse.gov,Active
706,LI-7799-14,OPP-6903-27,AID-1251-17,Leonerd Jennins,Cork,369-367-0304,ljenninsjm@jiathis.com,Active
707,LI-9285-51,OPP-0812-73,AID-4898-34,Lucila Knellen,Cork,928-377-6375,lknellenjn@tuttocitta.it,Active
708,LI-4029-20,OPP-2263-36,AID-5725-35,Tanny Kubu,Galway,592-675-3561,tkubujo@slashdot.org,Active
709,LI-3975-46,OPP-5214-31,AID-8806-45,Blondell Torald,Cork,666-534-1972,btoraldjp@storify.com,Active
710,LI-6585-73,OPP-9138-48,AID-2718-85,Karalynn Plummer,Galway,901-648-2910,kplummerjq@archive.org,Active
711,LI-6769-30,OPP-4994-82,AID-0583-79,Gael Liver,Dublin,586-854-5414,gliverjr@auda.org.au,Active
712,LI-6366-80,OPP-5490-75,AID-4572-70,Mahmoud Dobrovsky,Cork,257-623-2290,mdobrovskyjs@toplist.cz,Active
713,LI-2698-90,OPP-0604-87,AID-1355-04,Marillin Hasnip,Galway,812-433-6910,mhasnipjt@cnet.com,Active
714,LI-5230-12,OPP-4064-70,AID-4255-06,Farrel Weafer,Cork,247-928-8262,fweaferju@360.cn,Active
715,LI-7255-88,OPP-8202-75,AID-1847-44,Martita Garnar,Galway,848-938-9519,mgarnarjv@google.nl,Active
716,LI-2655-19,OPP-9991-75,AID-8213-61,Brucie Mangenet,Galway,203-556-8079,bmangenetjw@noaa.gov,Active
717,LI-8613-83,OPP-6666-58,AID-6827-73,Hetti Tabour,Cork,595-991-8412,htabourjx@smugmug.com,Active
718,LI-0585-36,OPP-8537-69,AID-4012-79,April Rickcord,Cork,187-981-7379,arickcordjy@marketwatch.com,Active
719,LI-8307-59,OPP-1588-27,AID-2070-98,Estele Mathiot,Cork,120-979-9548,emathiotjz@rediff.com,Active
720,LI-2756-86,OPP-6480-21,AID-0309-56,Cathryn Haye,Cork,399-671-3345,chayek0@army.mil,Active
721,LI-6733-99,OPP-3109-26,AID-6395-16,Penrod McGettigan,Galway,329-359-3811,pmcgettigank1@ifeng.com,Active
722,LI-5294-51,OPP-3155-29,AID-6953-26,Suzette Beekmann,Swords,347-669-8798,sbeekmannk2@prlog.org,Active
723,LI-7556-32,OPP-3578-62,AID-8695-21,Inness Stiff,Dublin,335-391-2438,istiffk3@istockphoto.com,Active
724,LI-8310-56,OPP-1618-10,AID-7151-18,Lucilia Kenrick,Cork,121-190-9924,lkenrickk4@angelfire.com,Active
725,LI-4876-74,OPP-8775-95,AID-5249-91,Marcile Pull,Dublin,375-869-0937,mpullk5@europa.eu,Active
726,LI-1151-39,OPP-2456-16,AID-5279-57,Binni Eaglestone,Galway,962-970-0309,beaglestonek6@nyu.edu,Active
727,LI-7288-51,OPP-1973-64,AID-3874-18,Natty Devita,Galway,333-836-8905,ndevitak7@patch.com,Active
728,LI-9286-10,OPP-2844-40,AID-1281-23,Martin Gile,Cork,568-847-6155,mgilek8@cocolog-nifty.com,Active
729,LI-8899-22,OPP-8729-74,AID-1651-53,Alanna Stockford,Galway,798-778-2639,astockfordk9@japanpost.jp,Active
730,LI-8644-69,OPP-7789-65,AID-9368-60,Jessy McClunaghan,Cork,876-541-9784,jmcclunaghanka@i2i.jp,Active
731,LI-5612-04,OPP-1953-53,AID-7938-43,Gerick Costen,Cork,379-221-0243,gcostenkb@ustream.tv,Active
732,LI-2860-21,OPP-4106-89,AID-1944-32,Symon Dundendale,Cork,646-466-7789,sdundendalekc@house.gov,Active
733,LI-5637-25,OPP-0504-79,AID-6709-59,Jorgan McCracken,Dublin,731-855-5412,jmccrackenkd@bluehost.com,Active
734,LI-0862-03,OPP-5530-72,AID-8261-71,Emelina Rozanski,Cork,283-463-9272,erozanskike@theatlantic.com,Active
735,LI-3075-08,OPP-0940-35,AID-9857-87,Marinna Huskisson,Cork,385-918-5172,mhuskissonkf@wikimedia.org,Active
736,LI-9467-97,OPP-2042-65,AID-5199-10,Carolus Yakunchikov,Dublin,561-417-1932,cyakunchikovkg@spiegel.de,Active
737,LI-4724-40,OPP-8101-50,AID-5488-27,Guy Rowberry,Galway,809-229-3417,growberrykh@cdbaby.com,Active
738,LI-4377-96,OPP-0884-05,AID-2747-79,Genia Denis,Cork,994-683-3450,gdeniski@webnode.com,Active
739,LI-7006-06,OPP-4737-97,AID-8059-52,Rutherford Gervaise,Cork,567-698-7293,rgervaisekj@netlog.com,Active
740,LI-6889-29,OPP-7314-91,AID-6286-89,Merle Cattach,Galway,508-174-4666,mcattachkk@redcross.org,Active
741,LI-6303-78,OPP-0214-74,AID-9868-47,Catlin Vlasin,Galway,713-363-0625,cvlasinkl@hostgator.com,Active
742,LI-2743-72,OPP-8554-88,AID-9538-75,Rolph Darnell,Cork,554-579-9223,rdarnellkm@amazon.de,Active
743,LI-0460-43,OPP-1695-47,AID-7381-20,Beatriz Mathelon,Dublin,414-285-3412,bmathelonkn@godaddy.com,Active
744,LI-1003-90,OPP-9360-57,AID-8382-97,Nichole Gurden,Cork,137-797-9567,ngurdenko@bluehost.com,Active
745,LI-4464-98,OPP-9599-42,AID-8494-80,Araldo Humbey,Swords,917-638-8174,ahumbeykp@mozilla.com,Active
746,LI-7323-55,OPP-4709-55,AID-8518-34,Antonius Boxell,Galway,557-377-0303,aboxellkq@ihg.com,Active
747,LI-8012-80,OPP-3314-52,AID-0286-29,Aldrich McColgan,Cork,312-981-5370,amccolgankr@tiny.cc,Active
748,LI-7844-45,OPP-5661-03,AID-1185-92,Zena Picot,Galway,419-358-7577,zpicotks@aol.com,Active
749,LI-2628-85,OPP-9654-16,AID-6818-15,Evelina Pedder,Cork,768-201-8437,epedderkt@dailymail.co.uk,Active
750,LI-5392-83,OPP-1740-11,AID-1828-34,Serene Dowdall,Swords,136-865-3653,sdowdallku@photobucket.com,Active
751,LI-0200-02,OPP-0444-24,AID-7809-46,Clerissa Greenman,Galway,619-823-0758,cgreenmankv@reddit.com,Active
752,LI-2936-77,OPP-1024-06,AID-7808-81,Freeland Haulkham,Swords,250-990-9414,fhaulkhamkw@xing.com,Inactive
753,LI-2205-56,OPP-7849-15,AID-9987-07,Edee Sobtka,Cork,742-731-1171,esobtkakx@jugem.jp,Inactive
754,LI-8627-41,OPP-6473-64,AID-2767-99,Stephanie Clother,Cork,891-144-4083,sclotherky@loc.gov,Inactive
755,LI-2425-06,OPP-0103-10,AID-4053-76,Carmelita Broscombe,Cork,390-714-8623,cbroscombekz@yahoo.co.jp,Inactive
756,LI-6139-05,OPP-3011-06,AID-7610-09,Mirna Dogerty,Naas,222-482-8149,mdogertyl0@taobao.com,Inactive
757,LI-4114-32,OPP-4898-74,AID-0993-64,Effie Over,Swords,193-930-9879,eoverl1@ameblo.jp,Inactive
758,LI-2828-14,OPP-6637-31,AID-6053-48,Shelbi Searby,Galway,602-211-6674,ssearbyl2@europa.eu,Inactive
759,LI-5725-88,OPP-6797-38,AID-6787-30,Myca Standell,Galway,145-340-5363,mstandelll3@tinyurl.com,Inactive
760,LI-7585-81,OPP-0211-05,AID-9351-92,Baryram Targetter,Galway,748-478-8189,btargetterl4@earthlink.net,Inactive
761,LI-7537-14,OPP-4567-05,AID-9848-10,Bevan Dulwich,Galway,688-293-7638,bdulwichl5@nyu.edu,Inactive
762,LI-6528-54,OPP-8350-46,AID-5725-43,Costa Cockerham,Cork,171-783-0557,ccockerhaml6@ask.com,Inactive
763,LI-8755-59,OPP-1708-01,AID-7836-49,Ellis de Juares,Swords,547-164-0465,edel7@com.com,Inactive
764,LI-1783-11,OPP-7975-12,AID-5986-88,Juli Hrinchishin,Lismore,102-546-6220,jhrinchishinl8@youtu.be,Inactive
765,LI-5769-92,OPP-7520-28,AID-2359-83,Will Goaley,Galway,389-673-8275,wgoaleyl9@sitemeter.com,Inactive
766,LI-5636-37,OPP-2221-88,AID-5086-80,Tildy Borland,Limerick,505-217-4834,tborlandla@miibeian.gov.cn,Inactive
767,LI-2714-12,OPP-4087-09,AID-7147-06,Anya Dullard,Cork,843-889-2933,adullardlb@unesco.org,Inactive
768,LI-1579-71,OPP-0168-01,AID-2445-63,Ham Vanyard,Cork,395-466-7991,hvanyardlc@nba.com,Inactive
769,LI-9452-75,OPP-7563-06,AID-3433-54,Mordecai Burehill,Naas,205-976-3086,mburehillld@smugmug.com,Inactive
770,LI-5721-85,OPP-5426-28,AID-1866-38,Emmit Pender,Galway,937-598-6808,ependerle@cornell.edu,Inactive
771,LI-8680-01,OPP-5437-45,AID-5235-74,Gannon Czajkowski,Naas,480-671-8440,gczajkowskilf@ted.com,Inactive
772,LI-4794-61,OPP-9191-06,AID-2749-81,Meredeth Albert,Cork,963-372-1051,malbertlg@un.org,Inactive
773,LI-4884-57,OPP-6889-30,AID-3907-15,Sherwin Aggio,Dublin,783-135-8097,saggiolh@aboutads.info,Inactive
774,LI-4923-95,OPP-2511-43,AID-7315-69,Stacie Petrakov,Swords,740-584-1065,spetrakovli@eventbrite.com,Inactive
775,LI-2691-79,OPP-9826-04,AID-2177-37,Trace Clewett,Cork,997-401-5716,tclewettlj@wikispaces.com,Inactive
776,LI-8019-60,OPP-7952-85,AID-8120-55,Imojean Ralph,Galway,925-578-0462,iralphlk@netlog.com,Inactive
777,LI-6117-29,OPP-2851-35,AID-4126-38,Correna Mansion,Galway,549-465-0837,cmansionll@cbslocal.com,Inactive
778,LI-0480-54,OPP-8826-77,AID-5104-55,Selig Manilove,Cork,185-169-8350,smanilovelm@ft.com,Inactive
779,LI-8673-40,OPP-3145-16,AID-1616-78,Fern Donativo,Galway,830-558-2891,fdonativoln@ft.com,Inactive
780,LI-6905-66,OPP-8043-55,AID-1153-90,Ruby Luter,Galway,642-739-6049,rluterlo@intel.com,Inactive
781,LI-5979-65,OPP-9108-87,AID-3423-10,Leslie Shrimpling,Cork,817-474-5511,lshrimplinglp@acquirethisname.com,Inactive
782,LI-0871-42,OPP-3609-14,AID-3729-02,Kimbra Le Galle,Galway,838-664-0920,klelq@youtu.be,Inactive
783,LI-9445-74,OPP-7006-49,AID-4667-82,Dante Pourvoieur,Cork,531-796-3317,dpourvoieurlr@google.com.au,Inactive
784,LI-3236-81,OPP-2333-80,AID-4597-34,Lusa Bonnet,Dublin,925-856-2222,lbonnetls@indiatimes.com,Inactive
785,LI-5941-02,OPP-8552-25,AID-1086-33,Rickard Goeff,Galway,582-905-9490,rgoefflt@dedecms.com,Inactive
786,LI-1388-10,OPP-8033-66,AID-3706-96,Ignacio Hearthfield,Cork,356-569-1725,ihearthfieldlu@ox.ac.uk,Inactive
787,LI-6551-83,OPP-8736-50,AID-9517-22,Joannes Coulbeck,Galway,446-803-9364,jcoulbecklv@chronoengine.com,Inactive
788,LI-8517-46,OPP-9739-78,AID-0892-99,Alberto Shoreson,Cork,151-797-2731,ashoresonlw@vinaora.com,Inactive
789,LI-2728-13,OPP-5234-51,AID-5272-60,Justen Player,Cork,788-857-6955,jplayerlx@lycos.com,Inactive
790,LI-4728-20,OPP-2220-60,AID-5085-14,Hobard Coyte,Galway,415-582-7961,hcoytely@paypal.com,Inactive
791,LI-6226-40,OPP-9151-36,AID-5761-37,Tony Zorzini,Galway,892-958-8877,tzorzinilz@paypal.com,Inactive
792,LI-4119-93,OPP-5862-20,AID-6274-88,Josiah Olenikov,Cork,225-205-8146,jolenikovm0@ebay.com,Inactive
793,LI-7883-70,OPP-2264-96,AID-2928-95,Arda Pinnock,Swords,716-161-5437,apinnockm1@cbslocal.com,Inactive
794,LI-0625-82,OPP-8990-74,AID-5053-36,Farrand McCallion,Galway,646-604-4486,fmccallionm2@unesco.org,Inactive
795,LI-5691-91,OPP-7247-35,AID-7455-84,Chilton Wooff,Dublin,333-771-8311,cwooffm3@house.gov,Inactive
796,LI-9094-71,OPP-1208-17,AID-6697-83,Brew Harback,Cork,655-678-6272,bharbackm4@lulu.com,Inactive
797,LI-2574-28,OPP-8732-39,AID-3963-69,Todd Tatem,Galway,381-963-2845,ttatemm5@w3.org,Inactive
798,LI-8985-76,OPP-8055-06,AID-0330-09,Smith Garley,Galway,945-591-3668,sgarleym6@bandcamp.com,Inactive
799,LI-2997-66,OPP-1150-29,AID-3934-59,Marja Harcourt,Dublin,482-856-8149,mharcourtm7@wikipedia.org,Inactive
800,LI-6851-35,OPP-4389-86,AID-6314-25,Adelind Purdom,Cork,328-255-8896,apurdomm8@geocities.com,Inactive
801,LI-6313-94,OPP-7807-11,AID-1572-39,Tammie Thurber,Cork,652-325-6033,tthurberm9@about.com,Inactive
802,LI-2153-32,OPP-7647-86,AID-9263-32,Elyn Hazley,Cork,100-482-9263,ehazleyma@who.int,Inactive
803,LI-0512-01,OPP-1446-47,AID-1789-51,Ulrika McNeice,Swords,880-308-7803,umcneicemb@comsenz.com,Inactive
804,LI-3709-56,OPP-6144-57,AID-8974-11,Claudine Waltering,Galway,458-585-7017,cwalteringmc@toplist.cz,Inactive
805,LI-2268-10,OPP-1661-11,AID-3515-79,Misha Meric,Cork,902-755-7396,mmericmd@mashable.com,Inactive
806,LI-4888-01,OPP-2854-89,AID-4905-90,Jami Cosins,Dublin,408-958-0392,jcosinsme@wix.com,Inactive
807,LI-3430-21,OPP-6920-63,AID-9307-22,Liesa Tweed,Dublin,498-993-3943,ltweedmf@geocities.com,Inactive
808,LI-4552-80,OPP-8061-29,AID-8226-91,Alanson Chesshyre,Limerick,925-505-2222,achesshyremg@pinterest.com,Inactive
809,LI-7156-82,OPP-3482-88,AID-4624-72,Ariel Ackeroyd,Galway,822-195-7924,aackeroydmh@answers.com,Inactive
810,LI-5656-00,OPP-5660-33,AID-9051-85,Loraine Palatini,Galway,913-599-4954,lpalatinimi@amazonaws.com,Inactive
811,LI-7011-39,OPP-5596-22,AID-8762-63,Cobby Warn,Swords,574-515-1393,cwarnmj@un.org,Inactive
812,LI-4652-51,OPP-8459-41,AID-1169-85,Isabel Michallat,Cork,764-913-5933,imichallatmk@com.com,Inactive
813,LI-7451-64,OPP-9768-99,AID-2806-62,Franni Avramovsky,Cork,902-580-5475,favramovskyml@google.co.jp,Inactive
814,LI-8434-81,OPP-6454-37,AID-2445-85,Nissy Bispo,Dublin,433-878-0291,nbispomm@ocn.ne.jp,Inactive
815,LI-9528-54,OPP-5336-27,AID-2280-63,Birgitta Gogin,Cork,510-179-5893,bgoginmn@youtu.be,Inactive
816,LI-3655-34,OPP-8702-48,AID-9389-19,Charlotta Kordova,Dublin,940-928-8275,ckordovamo@creativecommons.org,Inactive
817,LI-4713-65,OPP-8814-41,AID-8451-36,Candide Routh,Shannon,910-900-0259,crouthmp@unblog.fr,Inactive
818,LI-6986-46,OPP-4028-95,AID-4403-59,Cord Cumming,Galway,793-485-9968,ccummingmq@irs.gov,Inactive
819,LI-4671-47,OPP-6583-04,AID-7146-94,Hanni Yashanov,Cork,462-118-9664,hyashanovmr@disqus.com,Inactive
820,LI-5735-16,OPP-9153-90,AID-7785-62,Der Putley,Cork,331-219-7067,dputleyms@twitter.com,Inactive
821,LI-3941-25,OPP-2419-67,AID-5685-22,Kirby Richards,Swords,652-794-0149,krichardsmt@studiopress.com,Inactive
822,LI-5744-43,OPP-9645-87,AID-5264-10,Andreas Riddich,Dublin,113-230-1940,ariddichmu@wisc.edu,Inactive
823,LI-2570-15,OPP-6632-13,AID-5404-39,Johan Inge,Cork,952-724-0826,jingemv@forbes.com,Inactive
824,LI-6448-55,OPP-9393-45,AID-0856-03,Ronica Fishly,Cork,912-552-9077,rfishlymw@seattletimes.com,Inactive
825,LI-7167-79,OPP-1370-39,AID-8623-85,Mycah Trewartha,Dublin,255-720-2069,mtrewarthamx@bing.com,Inactive
826,LI-9400-22,OPP-3992-73,AID-3546-38,Inessa Bonavia,Galway,570-378-2603,ibonaviamy@myspace.com,Inactive
827,LI-3785-15,OPP-5590-32,AID-9266-42,Aylmer Johantges,Galway,537-380-3957,ajohantgesmz@skyrock.com,Inactive
828,LI-6632-43,OPP-6683-88,AID-1297-09,Stern Toffetto,Cork,540-385-1392,stoffetton0@sogou.com,Inactive
829,LI-6247-19,OPP-1529-09,AID-0771-51,Audi Gallop,Galway,260-174-2959,agallopn1@jalbum.net,Inactive
830,LI-6489-10,OPP-8879-61,AID-5776-47,Karisa Brosch,Cork,272-435-3813,kbroschn2@squarespace.com,Inactive
831,LI-4580-85,OPP-2673-08,AID-3356-59,Ilise Zapater,Cork,338-110-2435,izapatern3@studiopress.com,Inactive
832,LI-9057-01,OPP-7345-82,AID-0850-61,Tess Pothergill,Dublin,342-982-1508,tpothergilln4@4shared.com,Inactive
833,LI-5903-13,OPP-1653-39,AID-4388-24,Sybille Ribbon,Swords,755-380-6702,sribbonn5@thetimes.co.uk,Inactive
834,LI-3386-10,OPP-1443-83,AID-4965-48,Claretta Cloake,Galway,895-305-1929,ccloaken6@woothemes.com,Inactive
835,LI-1504-04,OPP-0814-19,AID-5769-75,Cyb Glencross,Galway,981-405-9713,cglencrossn7@github.com,Inactive
836,LI-2829-25,OPP-7113-55,AID-3580-03,Alma Bengoechea,Cork,897-893-3101,abengoechean8@telegraph.co.uk,Inactive
837,LI-9253-64,OPP-2851-58,AID-1450-39,Conrade Heimes,Cork,506-271-2238,cheimesn9@chicagotribune.com,Inactive
838,LI-1439-63,OPP-1477-56,AID-7306-15,Shaw Schrader,Galway,123-928-4786,sschraderna@bravesites.com,Inactive
839,LI-9659-23,OPP-4834-94,AID-6031-52,Wang Nott,Galway,792-291-0145,wnottnb@seesaa.net,Inactive
840,LI-2207-48,OPP-2714-96,AID-6236-33,Wilhelmine Rust,Galway,973-548-8353,wrustnc@instagram.com,Inactive
841,LI-1887-34,OPP-9656-58,AID-4299-95,Theodoric Bercher,Cork,157-345-4184,tberchernd@cyberchimps.com,Inactive
842,LI-9398-74,OPP-2006-92,AID-6584-50,Erwin Tate,Dublin,312-938-5185,etatene@slashdot.org,Inactive
843,LI-4852-93,OPP-7737-93,AID-7363-72,Ursa Smiley,Cork,721-428-8985,usmileynf@wikipedia.org,Inactive
844,LI-8318-54,OPP-5440-05,AID-2055-78,Myron Dowgill,Cork,599-162-0641,mdowgillng@wired.com,Inactive
845,LI-0931-94,OPP-8377-03,AID-2815-50,Eleonore Delacourt,Naas,968-532-3108,edelacourtnh@etsy.com,Inactive
846,LI-2364-47,OPP-7590-87,AID-8870-65,Angele Swane,Cork,585-821-8177,aswaneni@opensource.org,Inactive
847,LI-8729-58,OPP-4980-08,AID-4880-04,Harmon Bartholomieu,Dublin,141-738-8777,hbartholomieunj@cdc.gov,Inactive
848,LI-6224-78,OPP-0473-76,AID-5660-25,Woodie Maughan,Cork,894-131-3667,wmaughannk@jimdo.com,Inactive
849,LI-3434-19,OPP-8229-05,AID-1630-79,Costa Dugan,Cork,914-211-7903,cdugannl@linkedin.com,Inactive
850,LI-9070-71,OPP-3820-44,AID-1403-40,Jillian Duce,Cork,494-759-1553,jducenm@1688.com,Inactive
851,LI-2677-69,OPP-8721-76,AID-5162-23,Ulrick Karolowski,Cork,512-680-9067,ukarolowskinn@yandex.ru,Inactive
852,LI-4888-25,OPP-2113-49,AID-5567-92,Bo Geillier,Dublin,982-545-3158,bgeillierno@bravesites.com,Inactive
853,LI-7681-00,OPP-0778-43,AID-6504-52,Brandise Whyteman,Cork,973-919-3253,bwhytemannp@ebay.com,Inactive
854,LI-3393-76,OPP-1489-45,AID-0754-33,Maryl Jirusek,Dublin,246-219-2170,mjiruseknq@feedburner.com,Inactive
855,LI-6142-29,OPP-3869-63,AID-0338-19,Adelaida Lafrentz,Cork,366-257-0452,alafrentznr@indiegogo.com,Inactive
856,LI-5694-59,OPP-3406-77,AID-1174-66,Miriam Iceton,Cork,689-420-5607,micetonns@wordpress.com,Inactive
857,LI-0376-99,OPP-7613-68,AID-2058-42,Joshua Duester,Galway,509-797-0234,jduesternt@ifeng.com,Inactive
858,LI-1862-86,OPP-4552-68,AID-0587-24,Pepito Mottley,Cork,870-835-7663,pmottleynu@webnode.com,Inactive
859,LI-1217-39,OPP-7117-44,AID-0979-13,Maisey Purvey,Galway,244-655-9101,mpurveynv@ox.ac.uk,Inactive
860,LI-1776-65,OPP-9099-98,AID-5707-47,Raddie Fero,Galway,760-197-0321,rferonw@ifeng.com,Inactive
861,LI-9216-28,OPP-1248-30,AID-7113-24,Calla Whinney,Cork,643-197-1349,cwhinneynx@foxnews.com,Inactive
862,LI-1184-01,OPP-8794-18,AID-4380-00,Juditha Haxby,Cork,473-576-4449,jhaxbyny@qq.com,Inactive
863,LI-3987-89,OPP-9861-23,AID-3584-92,Natalie Malafe,Galway,111-415-8437,nmalafenz@mysql.com,Inactive
864,LI-1394-84,OPP-3542-10,AID-6711-72,Bartholomew Piscopello,Cork,848-991-3534,bpiscopelloo0@github.io,Inactive
865,LI-1012-10,OPP-5923-21,AID-9906-06,Harley Minchinton,Swords,642-615-9177,hminchintono1@360.cn,Inactive
866,LI-7211-85,OPP-4352-47,AID-2988-48,Nadya Lutz,Cork,509-540-3118,nlutzo2@deviantart.com,Inactive
867,LI-1531-88,OPP-2505-28,AID-6318-71,Barrie Balke,Galway,771-960-2898,bbalkeo3@webeden.co.uk,Inactive
868,LI-5384-91,OPP-8416-30,AID-7674-53,Wally Baelde,Dublin,976-433-9396,wbaeldeo4@wikia.com,Inactive
869,LI-9456-93,OPP-9792-50,AID-6643-25,Charlotte Caunce,Galway,716-151-6947,ccaunceo5@house.gov,Inactive
870,LI-3470-88,OPP-3187-73,AID-3655-43,Man Warbey,Cork,706-880-8982,mwarbeyo6@weather.com,Inactive
871,LI-5401-57,OPP-6623-43,AID-8699-01,Alysa Rawstorne,Cork,356-618-4272,arawstorneo7@mac.com,Inactive
872,LI-5688-25,OPP-4713-49,AID-2268-07,Othilie Hatrick,Cork,675-102-2648,ohatricko8@dmoz.org,Inactive
873,LI-7709-23,OPP-6142-13,AID-7547-75,Leroy Cockland,Galway,176-266-4017,lcocklando9@weather.com,Inactive
874,LI-4429-49,OPP-2847-45,AID-0223-61,Husain Stapleford,Dublin,571-292-0933,hstaplefordoa@webmd.com,Inactive
875,LI-8463-73,OPP-4378-44,AID-3231-38,Rosalia Goodsir,Galway,945-853-4528,rgoodsirob@mapy.cz,Inactive
876,LI-2167-74,OPP-7149-37,AID-0157-97,Letti Posen,Dublin,815-129-8930,lposenoc@hibu.com,Inactive
877,LI-1933-61,OPP-5809-58,AID-3602-90,Gussie Matteo,Swords,198-978-7627,gmatteood@dell.com,Inactive
878,LI-0810-10,OPP-3589-75,AID-0384-13,Drusy Nolte,Cork,960-682-6618,dnolteoe@hubpages.com,Inactive
879,LI-4944-54,OPP-7834-16,AID-5498-80,Domingo Inderwick,Galway,271-701-1207,dinderwickof@patch.com,Inactive
880,LI-9321-88,OPP-2866-91,AID-3633-32,Sean Binding,Cork,330-654-8753,sbindingog@gov.uk,Inactive
881,LI-3010-61,OPP-0759-67,AID-9055-09,Joseito Beddall,Cork,919-519-6158,jbeddalloh@bloglovin.com,Inactive
882,LI-5550-07,OPP-3972-44,AID-7100-11,Marysa Leupold,Cork,278-671-3669,mleupoldoi@nsw.gov.au,Inactive
883,LI-3628-09,OPP-0923-80,AID-6671-84,Frasco Mattholie,Cork,486-449-0286,fmattholieoj@mit.edu,Inactive
884,LI-2536-30,OPP-9199-39,AID-1842-48,Ingaberg Stockings,Galway,206-705-7729,istockingsok@nature.com,Inactive
885,LI-4271-33,OPP-3244-31,AID-4011-49,Alleyn Pimer,Cork,737-491-8210,apimerol@amazon.co.uk,Inactive
886,LI-3438-98,OPP-5427-09,AID-9142-95,Fulvia Beardsdale,Naas,233-289-0007,fbeardsdaleom@feedburner.com,Inactive
887,LI-3200-47,OPP-7984-29,AID-8960-89,Roxanna Hulls,Galway,878-347-4975,rhullson@bluehost.com,Inactive
888,LI-7016-48,OPP-0985-27,AID-0000-52,Artemus Sieve,Galway,734-587-5530,asieveoo@cnbc.com,Inactive
889,LI-5674-77,OPP-5643-90,AID-2706-72,Turner Doogue,Galway,233-964-4350,tdoogueop@reverbnation.com,Inactive
890,LI-5314-35,OPP-2171-44,AID-8361-84,Padriac Stoaks,Cork,202-801-3514,pstoaksoq@odnoklassniki.ru,Inactive
891,LI-6718-93,OPP-0034-84,AID-2315-53,Regan Ottosen,Galway,879-454-6902,rottosenor@telegraph.co.uk,Inactive
892,LI-7534-63,OPP-7049-89,AID-5623-58,Charlena Hanster,Galway,330-258-5131,chansteros@oaic.gov.au,Inactive
893,LI-4647-39,OPP-9286-61,AID-1995-22,Kelbee Ettritch,Cork,780-527-7864,kettritchot@ehow.com,Inactive
894,LI-1008-44,OPP-8934-41,AID-4738-41,Roma Estabrook,Galway,815-936-5982,restabrookou@nature.com,Inactive
895,LI-7540-00,OPP-2659-17,AID-0366-53,Angela Tabb,Galway,926-801-0085,atabbov@dedecms.com,Inactive
896,LI-4140-05,OPP-8063-29,AID-7971-59,Thornton Chesser,Cork,507-575-7371,tchesserow@nbcnews.com,Inactive
897,LI-1416-88,OPP-6482-09,AID-8859-97,Arden Slorance,Cork,523-357-5390,asloranceox@dmoz.org,Inactive
898,LI-9502-47,OPP-3119-92,AID-5637-77,Rupert Dresse,Cork,381-520-5474,rdresseoy@bloglines.com,Inactive
899,LI-9751-26,OPP-1314-63,AID-9221-07,Theressa Gerbl,Cork,134-504-7168,tgerbloz@miitbeian.gov.cn,Inactive
900,LI-6114-42,OPP-9665-30,AID-2347-44,Shaun Wythe,Dublin,160-678-0521,swythep0@hostgator.com,Inactive
901,LI-6133-26,OPP-9079-31,AID-7150-38,Gabrielle Spurr,Dublin,144-823-1870,gspurrp1@ihg.com,Inactive
902,LI-3655-19,OPP-8838-98,AID-9753-30,Almire Sambath,Galway,514-369-5403,asambathp2@flickr.com,Inactive
903,LI-3466-81,OPP-9240-47,AID-8739-62,Hetty Casemore,Cork,896-538-1174,hcasemorep3@walmart.com,Inactive
904,LI-2777-43,OPP-9925-92,AID-1447-06,Nita Puzey,Dublin,272-803-8894,npuzeyp4@taobao.com,Inactive
905,LI-0998-73,OPP-9058-04,AID-7570-49,Eva Welbeck,Galway,420-690-6438,ewelbeckp5@amazonaws.com,Inactive
906,LI-3204-22,OPP-2340-01,AID-6999-25,Corina Grattan,Cork,915-119-0119,cgrattanp6@slate.com,Inactive
907,LI-3993-84,OPP-1968-58,AID-4516-72,Bernice Philips,Cork,172-658-6832,bphilipsp7@angelfire.com,Inactive
908,LI-4457-85,OPP-2594-73,AID-4995-44,Melosa Orrin,Cork,242-469-9598,morrinp8@cloudflare.com,Inactive
909,LI-7779-92,OPP-4619-34,AID-3670-79,Emma Heffer,Dublin,208-744-2519,ehefferp9@simplemachines.org,Inactive
910,LI-3828-31,OPP-4570-09,AID-7723-33,Dniren Maryan,Cork,250-584-6245,dmaryanpa@rambler.ru,Inactive
911,LI-5113-90,OPP-3229-73,AID-6913-92,Wilona Suttaby,Galway,584-619-5378,wsuttabypb@technorati.com,Inactive
912,LI-9076-29,OPP-0312-54,AID-1317-50,Charisse Mack,Galway,849-887-6737,cmackpc@aol.com,Inactive
913,LI-5281-98,OPP-8614-45,AID-2190-32,Bill Morrill,Naas,356-330-0962,bmorrillpd@sourceforge.net,Inactive
914,LI-7954-72,OPP-3908-10,AID-9150-36,Anastasia Phebey,Dublin,596-552-4750,aphebeype@about.com,Inactive
915,LI-4714-05,OPP-3840-26,AID-6315-04,Darrelle Screaton,Cork,645-805-6913,dscreatonpf@netscape.com,Inactive
916,LI-3540-16,OPP-1039-22,AID-3236-97,Tadeo Janczak,Dublin,372-211-2758,tjanczakpg@squidoo.com,Inactive
917,LI-3018-91,OPP-2230-11,AID-2322-07,Udell Spawton,Galway,972-809-9902,uspawtonph@cmu.edu,Inactive
918,LI-4310-33,OPP-3999-70,AID-7106-34,Alma Gaitone,Galway,502-257-4383,agaitonepi@sciencedirect.com,Inactive
919,LI-9963-74,OPP-3791-30,AID-1273-72,Reinhard Whittlesee,Naas,476-747-4794,rwhittleseepj@indiatimes.com,Inactive
920,LI-1532-25,OPP-9996-13,AID-5354-29,Nathalia Vennart,Galway,389-368-7696,nvennartpk@free.fr,Inactive
921,LI-0804-63,OPP-5976-16,AID-8849-96,Tanya Flancinbaum,Cork,788-784-8240,tflancinbaumpl@dedecms.com,Inactive
922,LI-7574-82,OPP-9794-34,AID-6468-31,Robbert Josefowicz,Cork,381-818-1521,rjosefowiczpm@msn.com,Inactive
923,LI-4592-61,OPP-2256-13,AID-5409-06,Moira Nickoles,Galway,761-346-8623,mnickolespn@telegraph.co.uk,Inactive
924,LI-3255-13,OPP-8251-36,AID-4239-66,Jamison Bransden,Galway,889-678-9899,jbransdenpo@dion.ne.jp,Inactive
925,LI-1212-82,OPP-2303-31,AID-4967-62,Colline Hawney,Cork,450-278-0719,chawneypp@mysql.com,Inactive
926,LI-8572-66,OPP-7444-88,AID-3650-47,Sam Kerby,Cork,630-621-8146,skerbypq@senate.gov,Inactive
927,LI-7570-17,OPP-4831-65,AID-8992-58,Corrinne Phair,Galway,501-800-3769,cphairpr@gov.uk,Inactive
928,LI-7321-69,OPP-5241-08,AID-0729-04,Fiann Benns,Cork,738-460-1431,fbennsps@unicef.org,Inactive
929,LI-6048-89,OPP-6193-54,AID-7892-53,Carmencita Boake,Cork,375-796-4698,cboakept@ifeng.com,Inactive
930,LI-5829-80,OPP-0190-60,AID-3275-17,Margarethe Kettoe,Galway,796-616-1679,mkettoepu@tumblr.com,Inactive
931,LI-8963-08,OPP-1038-92,AID-2568-06,Grant Measey,Carlow,774-834-8234,gmeaseypv@google.ru,Inactive
932,LI-5007-37,OPP-0606-81,AID-4143-58,Brunhilde Archdeckne,Naas,139-600-5516,barchdecknepw@icq.com,Inactive
933,LI-3748-69,OPP-9847-58,AID-3441-02,Mischa Crump,Galway,696-251-1151,mcrumppx@princeton.edu,Inactive
934,LI-8833-81,OPP-3037-78,AID-0535-43,Reggis Hynard,Galway,140-565-7230,rhynardpy@tamu.edu,Inactive
935,LI-2346-73,OPP-0777-90,AID-7386-18,Penny Roy,Galway,961-865-7765,proypz@smh.com.au,Inactive
936,LI-8961-75,OPP-1450-57,AID-1148-55,Jacinda Cairney,Cork,683-582-1602,jcairneyq0@1und1.de,Inactive
937,LI-7174-57,OPP-2194-95,AID-1660-71,Ranice Macura,Galway,513-424-4196,rmacuraq1@usgs.gov,Inactive
938,LI-8392-94,OPP-9340-65,AID-9631-03,Pail Nairy,Galway,741-534-0564,pnairyq2@myspace.com,Inactive
939,LI-7360-33,OPP-3081-37,AID-8639-53,Delora Labbey,Dublin,836-575-7127,dlabbeyq3@phpbb.com,Inactive
940,LI-3599-27,OPP-8840-73,AID-2117-55,Sandye Dudding,Cork,520-492-8605,sduddingq4@baidu.com,Inactive
941,LI-8306-31,OPP-9379-81,AID-9782-50,Demetrius Linnit,Galway,386-213-5616,dlinnitq5@bing.com,Inactive
942,LI-6460-08,OPP-7439-30,AID-3458-72,Fredrika Fysh,Cork,674-153-7398,ffyshq6@marketwatch.com,Inactive
943,LI-0302-93,OPP-7746-69,AID-7677-28,Ebony Gorham,Cork,595-566-5936,egorhamq7@chron.com,Inactive
944,LI-9449-35,OPP-2608-22,AID-8676-15,Rachelle Itzkowicz,Galway,269-653-7525,ritzkowiczq8@multiply.com,Inactive
945,LI-6556-50,OPP-5347-59,AID-0608-80,Holmes Scholig,Cork,729-199-2555,hscholigq9@google.ca,Inactive
946,LI-0863-74,OPP-7841-71,AID-6019-15,Claiborne Zotto,Cork,495-609-5214,czottoqa@myspace.com,Inactive
947,LI-8795-56,OPP-8231-97,AID-5089-86,Brynna Gorton,Cork,345-622-7514,bgortonqb@msn.com,Inactive
948,LI-3864-59,OPP-2580-46,AID-1239-03,Jarrod Birtwistle,Cork,740-920-6740,jbirtwistleqc@xrea.com,Inactive
949,LI-9765-91,OPP-2278-46,AID-4139-29,Rurik Arrowsmith,Galway,645-582-4696,rarrowsmithqd@phoca.cz,Inactive
950,LI-3425-93,OPP-5239-05,AID-0537-32,Dorella Greenhough,Cork,633-910-7412,dgreenhoughqe@rakuten.co.jp,Inactive
951,LI-2255-25,OPP-2968-81,AID-6580-08,Darrell Hallows,Cork,134-539-9371,dhallowsqf@simplemachines.org,Inactive
952,LI-4236-52,OPP-4196-37,AID-2242-52,Esdras Caskie,Cork,723-799-7935,ecaskieqg@comsenz.com,Inactive
953,LI-7360-77,OPP-7334-06,AID-4121-82,Aron Bartunek,Dublin,954-508-3351,abartunekqh@prweb.com,Inactive
954,LI-4596-35,OPP-8680-76,AID-1698-69,Noak Curro,Dublin,689-275-1709,ncurroqi@google.ca,Inactive
955,LI-1758-54,OPP-0444-31,AID-2113-93,Thelma McOrkil,Cork,994-953-1373,tmcorkilqj@cbslocal.com,Inactive
956,LI-8484-49,OPP-6416-26,AID-1234-64,Kimmie Arminger,Galway,774-568-5542,karmingerqk@tamu.edu,Inactive
957,LI-0939-70,OPP-8340-40,AID-6871-13,Northrup Alloisi,Cork,616-197-4780,nalloisiql@amazon.co.jp,Inactive
958,LI-5109-10,OPP-2191-01,AID-1757-31,Brody Corck,Cork,874-220-7322,bcorckqm@guardian.co.uk,Inactive
959,LI-1854-49,OPP-5203-44,AID-8690-16,Yankee Hackin,Dublin,291-973-4752,yhackinqn@linkedin.com,Inactive
960,LI-7127-70,OPP-2610-03,AID-9703-33,Oates Beswick,Dublin,362-272-1842,obeswickqo@163.com,Inactive
961,LI-7532-80,OPP-0787-55,AID-3221-47,Wood Ellicock,Dublin,638-705-0276,wellicockqp@xrea.com,Inactive
962,LI-6706-24,OPP-1086-29,AID-1357-18,Olvan Claughton,Galway,935-132-2970,oclaughtonqq@tinyurl.com,Inactive
963,LI-5441-91,OPP-4626-16,AID-0926-95,Dell Martlew,Dublin,172-920-1520,dmartlewqr@dion.ne.jp,Inactive
964,LI-9359-83,OPP-3599-65,AID-4322-20,Anne-corinne Lammin,Cork,158-831-9587,alamminqs@homestead.com,Inactive
965,LI-3047-35,OPP-1099-94,AID-1426-69,Leda Jest,Cork,636-505-0660,ljestqt@simplemachines.org,Inactive
966,LI-7223-64,OPP-4069-02,AID-3424-08,Allina Girardet,Galway,778-628-7898,agirardetqu@wufoo.com,Inactive
967,LI-8101-33,OPP-2306-73,AID-7311-14,Domenic Derges,Cork,524-673-8008,ddergesqv@flavors.me,Inactive
968,LI-1113-67,OPP-3546-47,AID-7338-71,Bernette Tenant,Swords,828-819-9591,btenantqw@cnet.com,Inactive
969,LI-1982-58,OPP-6806-38,AID-4793-43,Denny Strongitharm,Dublin,705-400-8392,dstrongitharmqx@miibeian.gov.cn,Inactive
970,LI-6764-13,OPP-7845-44,AID-6037-79,Gardner Layson,Cork,202-911-0906,glaysonqy@bloglovin.com,Inactive
971,LI-6572-27,OPP-3914-54,AID-8820-24,Candi Edbrooke,Cork,324-300-0935,cedbrookeqz@wired.com,Inactive
972,LI-3724-12,OPP-7316-69,AID-7885-44,Sarena Leat,Galway,772-673-9312,sleatr0@va.gov,Inactive
973,LI-0164-49,OPP-3823-02,AID-9876-65,Kristopher Mc Grath,Galway,952-551-0871,kmcr1@cisco.com,Inactive
974,LI-9060-09,OPP-7196-92,AID-8236-92,Cinnamon Emett,Cork,855-818-1051,cemettr2@xing.com,Inactive
975,LI-2058-68,OPP-8526-88,AID-2511-88,Alena Rohloff,Galway,885-346-2715,arohloffr3@jimdo.com,Inactive
976,LI-6888-47,OPP-6126-03,AID-3402-16,Base Winridge,Cork,168-619-3291,bwinridger4@bbc.co.uk,Inactive
977,LI-0197-24,OPP-1743-51,AID-7102-25,Dorthea Lebbon,Dublin,632-759-2751,dlebbonr5@google.ca,Inactive
978,LI-4110-13,OPP-0177-26,AID-6907-49,May Knok,Swords,863-109-0224,mknokr6@macromedia.com,Inactive
979,LI-9149-46,OPP-4816-15,AID-7154-19,Shayne McGarry,Limerick,464-489-7618,smcgarryr7@diigo.com,Inactive
980,LI-5104-52,OPP-2685-63,AID-0669-93,Mariam Rosenstiel,Cork,194-357-2694,mrosenstielr8@hp.com,Inactive
981,LI-7618-59,OPP-5283-63,AID-0780-13,Reese Eatock,Cork,911-700-6911,reatockr9@princeton.edu,Inactive
982,LI-4406-28,OPP-9587-72,AID-5638-56,Zena Linde,Cork,964-920-2309,zlindera@360.cn,Inactive
983,LI-8770-29,OPP-2011-08,AID-9889-47,Chicky Keuning,Naas,348-808-6100,ckeuningrb@php.net,Inactive
984,LI-5479-80,OPP-9017-29,AID-2558-93,Jorie Cordeau,Cork,406-478-1301,jcordeaurc@prlog.org,Inactive
985,LI-3599-02,OPP-9379-19,AID-7617-43,Misha Trenam,Cork,879-163-4701,mtrenamrd@blog.com,Inactive
986,LI-6777-77,OPP-4090-53,AID-0134-69,Barry Scrivens,Dublin,190-545-7128,bscrivensre@jugem.jp,Inactive
987,LI-5075-13,OPP-9153-61,AID-5573-72,Lorie Ings,Cork,101-810-8390,lingsrf@pcworld.com,Inactive
988,LI-5657-81,OPP-7962-63,AID-2245-45,Ginger Croxley,Cork,437-612-2466,gcroxleyrg@xinhuanet.com,Inactive
989,LI-8749-12,OPP-0512-98,AID-1929-86,Anselm Dominka,Dublin,620-438-6385,adominkarh@who.int,Inactive
990,LI-4091-32,OPP-6471-82,AID-1155-94,Gardiner Shreeve,Cork,668-784-1050,gshreeveri@omniture.com,Inactive
991,LI-0942-55,OPP-6933-26,AID-0810-39,Gan Fountaine,Galway,818-435-3324,gfountainerj@bravesites.com,Inactive
992,LI-3052-65,OPP-6456-35,AID-6655-68,Burt Drinkwater,Galway,661-505-9715,bdrinkwaterrk@seattletimes.com,Inactive
993,LI-0040-76,OPP-6861-06,AID-1775-23,Laraine Kynge,Dublin,572-835-4911,lkyngerl@shutterfly.com,Inactive
994,LI-3979-28,OPP-9473-61,AID-7050-56,Archaimbaud Baily,Cork,322-210-5757,abailyrm@yolasite.com,Inactive
995,LI-1698-14,OPP-5899-31,AID-0357-13,Tito Brend,Swords,651-914-1584,tbrendrn@fda.gov,Inactive
996,LI-1159-32,OPP-1882-47,AID-7388-43,Jaclyn Rablen,Cork,256-145-7715,jrablenro@rambler.ru,Inactive
997,LI-0654-73,OPP-2881-48,AID-5750-98,Dorian Rippin,Shannon,241-243-1881,drippinrp@posterous.com,Inactive
998,LI-1056-21,OPP-9548-45,AID-0212-38,Mercie Postance,Cork,634-759-1540,mpostancerq@foxnews.com,Inactive
999,LI-5521-32,OPP-0931-94,AID-7493-44,Dulcine Bingell,Galway,290-331-0803,dbingellrr@sfgate.com,Inactive
